{"type": "FeatureCollection", "generator": "eya · build_gpoi_local_reassign.py", "note": "Per-POI local reassignment (pilot for Mènontin). For each POI matched to quartier X, road vertices within 50 m of the POI are checked; if X does not already own any, a Dijkstra path is sought through the current owner's territory only (barrier: third-party quartier vertices) until X's existing network is reached. The minimum connected branch (Y-seeds in the POI ring plus the path) is reassigned. Audit-only — do not embed in shipped datasets.", "seed_radius_m": 50.0, "pilot_target_quartiers": ["Mènontin"], "per_poi_counts": {"CONFIRMED_NEW": 7, "AMBIGUOUS": 2, "CONFIRMED_ALREADY": 5}, "n_edges_reassigned": 23, "features": [{"type": "Feature", "geometry": {"type": "LineString", "coordinates": [[2.3652932, 6.3928298], [2.366918, 6.3927551]]}, "properties": {"target_quartier": "Mènontin", "target_color": "#93d64b", "from_owner": "Kindonou", "poi_anchor": "BOUTIQUE DE MENONTIN", "poi_anchors_all": ["Menontin", "BOUTIQUE DE MENONTIN"], "n_anchors": 2, "distance_from_poi_m": 87.2, "path_length_m": 165.1, "path_via": "Kindonou (165 m)", "stop_reason": "reached_X_network", "kind": "rim_to_X", "status": "CONFIRMED_NEW"}}, {"type": "Feature", "geometry": {"type": "LineString", "coordinates": [[2.3652932, 6.3928298], [2.3652729, 6.3933514]]}, "properties": {"target_quartier": "Mènontin", "target_color": "#93d64b", "from_owner": "Kindonou", "poi_anchor": "Menontin", "poi_anchors_all": ["Menontin", "Menontin", "BOUTIQUE DE MENONTIN", "BOUTIQUE DE MENONTIN"], "n_anchors": 4, "distance_from_poi_m": 9.6, "path_length_m": 165.1, "path_via": "Kindonou (165 m)", "stop_reason": "reached_X_network", "kind": "interior", "status": "CONFIRMED_NEW"}}, {"type": "Feature", "geometry": {"type": "LineString", "coordinates": [[2.3652729, 6.3933514], [2.3667619, 6.3932454]]}, "properties": {"target_quartier": "Mènontin", "target_color": "#93d64b", "from_owner": "Kindonou", "poi_anchor": "BOUTIQUE DE MENONTIN", "poi_anchors_all": ["Menontin", "BOUTIQUE DE MENONTIN"], "n_anchors": 2, "distance_from_poi_m": 80.5, "path_length_m": 165.1, "path_via": "Kindonou (165 m)", "stop_reason": "reached_X_network", "kind": "rim_to_X", "status": "CONFIRMED_NEW"}}, {"type": "Feature", "geometry": {"type": "LineString", "coordinates": [[2.3640354, 6.3883812], [2.3641752, 6.3883498]]}, "properties": {"target_quartier": "Mènontin", "target_color": "#93d64b", "from_owner": "Kindonou", "poi_anchor": "Carrefour Menontin", "poi_anchors_all": ["Carrefour Menontin", "Carrefour Menontin", "Agence BOA MENONTIN", "Agence BOA MENONTIN"], "n_anchors": 4, "distance_from_poi_m": 16.0, "path_length_m": 275.6, "path_via": "Kindonou (276 m)", "stop_reason": "reached_X_network", "kind": "interior", "status": "CONFIRMED_NEW"}}, {"type": "Feature", "geometry": {"type": "LineString", "coordinates": [[2.3640556, 6.3884643], [2.3648981, 6.3882816]]}, "properties": {"target_quartier": "Mènontin", "target_color": "#93d64b", "from_owner": "Kindonou", "poi_anchor": "Carrefour Menontin", "poi_anchors_all": ["Carrefour Menontin", "Carrefour Menontin"], "n_anchors": 2, "distance_from_poi_m": 47.6, "path_length_m": 275.6, "path_via": "Kindonou (276 m)", "stop_reason": "reached_X_network", "kind": "interior", "status": "CONFIRMED_NEW"}}, {"type": "Feature", "geometry": {"type": "LineString", "coordinates": [[2.3640556, 6.3884643], [2.3640876, 6.3885653]]}, "properties": {"target_quartier": "Mènontin", "target_color": "#93d64b", "from_owner": "Kindonou", "poi_anchor": "Carrefour Menontin", "poi_anchors_all": ["Carrefour Menontin", "Carrefour Menontin", "Agence BOA MENONTIN", "Agence BOA MENONTIN"], "n_anchors": 4, "distance_from_poi_m": 1.2, "path_length_m": 275.6, "path_via": "Kindonou (276 m)", "stop_reason": "reached_X_network", "kind": "interior", "status": "CONFIRMED_NEW"}}, {"type": "Feature", "geometry": {"type": "LineString", "coordinates": [[2.3640556, 6.3884643], [2.3640354, 6.3883812]]}, "properties": {"target_quartier": "Mènontin", "target_color": "#93d64b", "from_owner": "Kindonou", "poi_anchor": "Carrefour Menontin", "poi_anchors_all": ["Carrefour Menontin", "Carrefour Menontin", "Agence BOA MENONTIN", "Agence BOA MENONTIN"], "n_anchors": 4, "distance_from_poi_m": 9.4, "path_length_m": 275.6, "path_via": "Kindonou (276 m)", "stop_reason": "reached_X_network", "kind": "interior", "status": "CONFIRMED_NEW"}}, {"type": "Feature", "geometry": {"type": "LineString", "coordinates": [[2.3648981, 6.3882816], [2.3653784, 6.3881747]]}, "properties": {"target_quartier": "Mènontin", "target_color": "#93d64b", "from_owner": "Kindonou", "poi_anchor": "Carrefour Menontin", "poi_anchors_all": ["Carrefour Menontin", "Carrefour Menontin"], "n_anchors": 2, "distance_from_poi_m": 122.4, "path_length_m": 275.6, "path_via": "Kindonou (276 m)", "stop_reason": "reached_X_network", "kind": "interior", "status": "CONFIRMED_NEW"}}, {"type": "Feature", "geometry": {"type": "LineString", "coordinates": [[2.3653784, 6.3881747], [2.36577, 6.3880787]]}, "properties": {"target_quartier": "Mènontin", "target_color": "#93d64b", "from_owner": "Kindonou", "poi_anchor": "Carrefour Menontin", "poi_anchors_all": ["Carrefour Menontin", "Carrefour Menontin"], "n_anchors": 2, "distance_from_poi_m": 171.9, "path_length_m": 275.6, "path_via": "Kindonou (276 m)", "stop_reason": "reached_X_network", "kind": "interior", "status": "CONFIRMED_NEW"}}, {"type": "Feature", "geometry": {"type": "LineString", "coordinates": [[2.36577, 6.3880787], [2.3664784, 6.3878878]]}, "properties": {"target_quartier": "Mènontin", "target_color": "#93d64b", "from_owner": "Kindonou", "poi_anchor": "ELLE FASHION DE MENONTIN", "poi_anchors_all": ["Carrefour Menontin", "ELLE FASHION DE MENONTIN"], "n_anchors": 2, "distance_from_poi_m": 46.7, "path_length_m": 81.2, "path_via": "Kindonou (81 m)", "stop_reason": "reached_X_network", "kind": "rim_to_X", "status": "CONFIRMED_NEW"}}, {"type": "Feature", "geometry": {"type": "LineString", "coordinates": [[2.3640876, 6.3885653], [2.3638898, 6.3885973]]}, "properties": {"target_quartier": "Mènontin", "target_color": "#93d64b", "from_owner": "Kindonou", "poi_anchor": "Carrefour Menontin", "poi_anchors_all": ["Carrefour Menontin", "Carrefour Menontin", "Agence BOA MENONTIN", "Agence BOA MENONTIN"], "n_anchors": 4, "distance_from_poi_m": 12.1, "path_length_m": 275.6, "path_via": "Kindonou (276 m)", "stop_reason": "reached_X_network", "kind": "interior", "status": "CONFIRMED_NEW"}}, {"type": "Feature", "geometry": {"type": "LineString", "coordinates": [[2.3641009, 6.3886176], [2.3636829, 6.3887001]]}, "properties": {"target_quartier": "Mènontin", "target_color": "#93d64b", "from_owner": "Kindonou", "poi_anchor": "Carrefour Menontin", "poi_anchors_all": ["Carrefour Menontin", "Carrefour Menontin"], "n_anchors": 2, "distance_from_poi_m": 25.8, "path_length_m": 275.6, "path_via": "Kindonou (276 m)", "stop_reason": "reached_X_network", "kind": "interior", "status": "CONFIRMED_NEW"}}, {"type": "Feature", "geometry": {"type": "LineString", "coordinates": [[2.3641132, 6.3886813], [2.3641009, 6.3886176]]}, "properties": {"target_quartier": "Mènontin", "target_color": "#93d64b", "from_owner": "Kindonou", "poi_anchor": "Carrefour Menontin", "poi_anchors_all": ["Carrefour Menontin", "Carrefour Menontin", "Agence BOA MENONTIN", "Agence BOA MENONTIN"], "n_anchors": 4, "distance_from_poi_m": 16.6, "path_length_m": 275.6, "path_via": "Kindonou (276 m)", "stop_reason": "reached_X_network", "kind": "interior", "status": "CONFIRMED_NEW"}}, {"type": "Feature", "geometry": {"type": "LineString", "coordinates": [[2.3641009, 6.3886176], [2.3640876, 6.3885653]]}, "properties": {"target_quartier": "Mènontin", "target_color": "#93d64b", "from_owner": "Kindonou", "poi_anchor": "Carrefour Menontin", "poi_anchors_all": ["Carrefour Menontin", "Carrefour Menontin", "Agence BOA MENONTIN", "Agence BOA MENONTIN"], "n_anchors": 4, "distance_from_poi_m": 10.0, "path_length_m": 275.6, "path_via": "Kindonou (276 m)", "stop_reason": "reached_X_network", "kind": "interior", "status": "CONFIRMED_NEW"}}, {"type": "Feature", "geometry": {"type": "LineString", "coordinates": [[2.3648686, 6.388471], [2.3645493, 6.3885402]]}, "properties": {"target_quartier": "Mènontin", "target_color": "#93d64b", "from_owner": "Kindonou", "poi_anchor": "Agence BOA MENONTIN", "poi_anchors_all": ["Agence BOA MENONTIN", "Agence BOA MENONTIN"], "n_anchors": 2, "distance_from_poi_m": 56.5, "path_length_m": 243.9, "path_via": "Kindonou (244 m)", "stop_reason": "reached_X_network", "kind": "interior", "status": "CONFIRMED_NEW"}}, {"type": "Feature", "geometry": {"type": "LineString", "coordinates": [[2.3648686, 6.388471], [2.3653483, 6.3883874]]}, "properties": {"target_quartier": "Mènontin", "target_color": "#93d64b", "from_owner": "Kindonou", "poi_anchor": "Agence BOA MENONTIN", "poi_anchors_all": ["Agence BOA MENONTIN", "Agence BOA MENONTIN"], "n_anchors": 2, "distance_from_poi_m": 100.4, "path_length_m": 243.9, "path_via": "Kindonou (244 m)", "stop_reason": "reached_X_network", "kind": "interior", "status": "CONFIRMED_NEW"}}, {"type": "Feature", "geometry": {"type": "LineString", "coordinates": [[2.3641009, 6.3886176], [2.3645493, 6.3885402]]}, "properties": {"target_quartier": "Mènontin", "target_color": "#93d64b", "from_owner": "Kindonou", "poi_anchor": "Agence BOA MENONTIN", "poi_anchors_all": ["Agence BOA MENONTIN", "Agence BOA MENONTIN"], "n_anchors": 2, "distance_from_poi_m": 19.7, "path_length_m": 243.9, "path_via": "Kindonou (244 m)", "stop_reason": "reached_X_network", "kind": "interior", "status": "CONFIRMED_NEW"}}, {"type": "Feature", "geometry": {"type": "LineString", "coordinates": [[2.3653483, 6.3883874], [2.3666883, 6.3880152]]}, "properties": {"target_quartier": "Mènontin", "target_color": "#93d64b", "from_owner": "Kindonou", "poi_anchor": "Agence BOA MENONTIN", "poi_anchors_all": ["Agence BOA MENONTIN"], "n_anchors": 1, "distance_from_poi_m": 203.8, "path_length_m": 243.9, "path_via": "Kindonou (244 m)", "stop_reason": "reached_X_network", "kind": "rim_to_X", "status": "CONFIRMED_NEW"}}, {"type": "Feature", "geometry": {"type": "LineString", "coordinates": [[2.3641786, 6.3891592], [2.3641132, 6.3886813]]}, "properties": {"target_quartier": "Mènontin", "target_color": "#93d64b", "from_owner": "Kindonou", "poi_anchor": "Agence BOA MENONTIN", "poi_anchors_all": ["Agence BOA MENONTIN", "Agence BOA MENONTIN"], "n_anchors": 2, "distance_from_poi_m": 23.1, "path_length_m": 243.9, "path_via": "Kindonou (244 m)", "stop_reason": "reached_X_network", "kind": "interior", "status": "CONFIRMED_NEW"}}, {"type": "Feature", "geometry": {"type": "LineString", "coordinates": [[2.3741147, 6.3878033], [2.374623, 6.3874689]]}, "properties": {"target_quartier": "Mènontin", "target_color": "#93d64b", "from_owner": "Agla-Petit-Château", "poi_anchor": "supermarche mont sinai menontin", "poi_anchors_all": ["supermarche mont sinai menontin", "SURFACE D'ACHAT DE MENONTIN"], "n_anchors": 2, "distance_from_poi_m": 24.0, "path_length_m": 67.3, "path_via": "Agla-Petit-Château (67 m)", "stop_reason": "reached_X_network", "kind": "rim_to_X", "status": "CONFIRMED_NEW"}}, {"type": "Feature", "geometry": {"type": "LineString", "coordinates": [[2.3745929, 6.3871247], [2.3748018, 6.3874925]]}, "properties": {"target_quartier": "Mènontin", "target_color": "#93d64b", "from_owner": "Agla-Petit-Château", "poi_anchor": "supermarche mont sinai menontin", "poi_anchors_all": ["supermarche mont sinai menontin", "supermarche mont sinai menontin", "SURFACE D'ACHAT DE MENONTIN", "SURFACE D'ACHAT DE MENONTIN"], "n_anchors": 4, "distance_from_poi_m": 28.6, "path_length_m": 67.3, "path_via": "Agla-Petit-Château (67 m)", "stop_reason": "reached_X_network", "kind": "interior", "status": "CONFIRMED_NEW"}}, {"type": "Feature", "geometry": {"type": "LineString", "coordinates": [[2.3665183, 6.3879881], [2.3658009, 6.388188]]}, "properties": {"target_quartier": "Mènontin", "target_color": "#93d64b", "from_owner": "Kindonou", "poi_anchor": "ELLE FASHION DE MENONTIN", "poi_anchors_all": ["ELLE FASHION DE MENONTIN"], "n_anchors": 1, "distance_from_poi_m": 41.9, "path_length_m": 81.2, "path_via": "Kindonou (81 m)", "stop_reason": "reached_X_network", "kind": "rim_to_X", "status": "CONFIRMED_NEW"}}, {"type": "Feature", "geometry": {"type": "LineString", "coordinates": [[2.3658009, 6.388188], [2.3654066, 6.3882866]]}, "properties": {"target_quartier": "Mènontin", "target_color": "#93d64b", "from_owner": "Kindonou", "poi_anchor": "ELLE FASHION DE MENONTIN", "poi_anchors_all": ["ELLE FASHION DE MENONTIN", "ELLE FASHION DE MENONTIN"], "n_anchors": 2, "distance_from_poi_m": 27.9, "path_length_m": 81.2, "path_via": "Kindonou (81 m)", "stop_reason": "reached_X_network", "kind": "interior", "status": "CONFIRMED_NEW"}}]}