{"type": "FeatureCollection", "generator": "eya · build_gpoi_territorial_evidence.py", "note": "Territorial evidence regions — convex hull of each POI cluster's claimed road vertices. Tinted with the matched quartier's colour.", "n_regions": 113, "features": [{"type": "Feature", "geometry": {"type": "Polygon", "coordinates": [[[2.3619139, 6.3506599], [2.3619596, 6.3502228], [2.3659677, 6.3500175], [2.366931, 6.3501238], [2.3701394, 6.3507246], [2.3778552, 6.3551272], [2.3783321, 6.3554832], [2.3793175, 6.3562188], [2.3800887, 6.3567945], [2.3838713, 6.3596183], [2.3756942, 6.3676908], [2.3652416, 6.3639295], [2.3646784, 6.361785], [2.3619139, 6.3506599]]]}, "properties": {"cluster_id": 0, "matched_quartier": "Fidjrossè-Kpota", "matched_color": "#53ce4b", "size": 36, "n_road_vertices_claimed": 342, "centroid": [2.3714364861111106, 6.358429258333334], "poi_names": ["Commissariat Fidjrosse", "Fidjrosse Kpota", "Fidjrossè", "Public Primary School, Fidjrossè", "Public Primary School De Fidjrossè", "DojoLand Fidjrosse", "Le Relais Saint Christophe | Centre de Formation Informatique à Fidjrossè", "VILLA PROVIDI AKOGBATO FIDJROSSE ECOLE MAEVA", "Belle appartement à fidjrosse plage école manoel talon - Two-Bedroom Apartment", "Disponible a fidjrosse belle villa meublée avec jardin et piscine a fidjrosse plage 5mn de l'école Manoel talon - One-Bedroom Villa", "Église Baptiste de Fidjrossè", "EEAD SION de Fidjrossè"], "kind": "evidence_region"}}, {"type": "Feature", "geometry": {"type": "Polygon", "coordinates": [[[2.4387342, 6.3710935], [2.4387914, 6.3706303], [2.4388795, 6.3701491], [2.4393618, 6.3676681], [2.4394584, 6.3674442], [2.4395695, 6.3672062], [2.4397885, 6.3667554], [2.4464133, 6.3609266], [2.4484123, 6.3613143], [2.450608, 6.3617418], [2.4574611, 6.3679003], [2.4572904, 6.3697813], [2.4570709, 6.3721596], [2.4477517, 6.373175], [2.4387342, 6.3710935]]]}, "properties": {"cluster_id": 1, "matched_quartier": "Akpakpa-Dodomè", "matched_color": "#cd3bb3", "size": 18, "n_road_vertices_claimed": 127, "centroid": [2.4499226333333337, 6.368253355555555], "poi_names": ["Recette d'Akpakpa-Centre (La Poste)", "Public Primary School Akpakpa Centre", "School Public Primary Akpakpa Market", "Collège d'Enseignement Général Akpakpa-Centre", "Eglise du Christianisme Celeste d'Akpakpa", "Clinique d'Akpakpa", "Centre médico Gynécologique \"Santé Plus d'Akpakpa\"", "Cabinet Neurological D'akpakpa", "Carrefour Sacré Cœur Akpakpa", "Centre de promotion sociale Akpakpa", "Akpakpa Sodjiatinmé", "Chez Donne Mécano Akpakpa"], "kind": "evidence_region"}}, {"type": "Feature", "geometry": {"type": "Polygon", "coordinates": [[[2.3848421, 6.383893], [2.3852622, 6.3826747], [2.3872497, 6.3797562], [2.3919954, 6.3731487], [2.3995203, 6.3764914], [2.3993011, 6.3854757], [2.3983608, 6.3862256], [2.3978029, 6.3865471], [2.3973718, 6.3866286], [2.3848421, 6.383893]]]}, "properties": {"cluster_id": 2, "matched_quartier": "Védokô", "matched_color": "#3dd9d3", "size": 14, "n_road_vertices_claimed": 144, "centroid": [2.3919027928571426, 6.379225092857142], "poi_names": ["Vedoko", "Ceg Védoko", "l'usine de traitement d'eau de vedoko située dans le 10ème arrondissement de la commune de Cotonou.", "Public Primary School Vedoko 2 Guendehougon", "Védoko école de base", "Védoko école de base", "Mosquée Vêdokô, écoles des soude", "Larose Fête Vêdoko", "Église baptiste de Vêdoko", "Étude Vèdoko", "Queen beauty vedoko", "Pharmacie Vêdoko"], "kind": "evidence_region"}}, {"type": "Feature", "geometry": {"type": "Polygon", "coordinates": [[[2.4063521, 6.3657451], [2.4063626, 6.3649385], [2.4078217, 6.3630952], [2.4183862, 6.3584017], [2.4146985, 6.3637117], [2.4142327, 6.3643009], [2.4066912, 6.3667835], [2.4063521, 6.3657451]]]}, "properties": {"cluster_id": 3, "matched_quartier": "Gbégamey-Dodo-Ayidjè", "matched_color": "#d64b9a", "size": 10, "n_road_vertices_claimed": 35, "centroid": [2.41157438, 6.363477259999999], "poi_names": ["Post Office De Gbégamey", "Gbegamey", "Collège d'Enseignement Général (CEG) de Gbégamey", "Mosquée du Rond-Point Gbegamey", "Gbégamey", "CENTRE DE SANTÉ DE GBEGAMEY", "Diana bubble tea gbegamey", "O'sec Pressing-Gbégamey", "Pharmacie Gbegamey", "Superette Gbegamey"], "kind": "evidence_region"}}, {"type": "Feature", "geometry": {"type": "Polygon", "coordinates": [[[2.3436074, 6.3884567], [2.3452836, 6.3824253], [2.3465005, 6.3817854], [2.3475904, 6.3817799], [2.354085, 6.3826276], [2.3547465, 6.38274], [2.3551417, 6.3844129], [2.3462033, 6.3905629], [2.3437759, 6.389013], [2.3436074, 6.3884567]]]}, "properties": {"cluster_id": 4, "matched_quartier": "Godomey-Togoudo", "matched_color": "#c93d4b", "size": 10, "n_road_vertices_claimed": 84, "centroid": [2.34683145, 6.38699398], "poi_names": ["Eglise catholique Sainte Thérèse GODOMEY", "Arrondissement de Godomey", "La générale des assurances - Agences Azareel de Godomey", "Hôtel les paillotes - Godomey, Calavi.", "CS Godomey", "MAIRIE DE GODOMEY", "Paroisse Sainte Thérèse de Godomey", "La Poste - Agence Commercial de Godomey", "Benin Petro Godomey", "Petrodis Godomey"], "kind": "evidence_region"}}, {"type": "Feature", "geometry": {"type": "Polygon", "coordinates": [[[2.3020864, 6.3924955], [2.3031298, 6.3879081], [2.3037118, 6.3857637], [2.3042722, 6.3856052], [2.3061644, 6.3857547], [2.3155921, 6.3874785], [2.3164469, 6.3885857], [2.3096797, 6.3950078], [2.3048001, 6.3955331], [2.3024801, 6.3943815], [2.3020864, 6.3924955]]]}, "properties": {"cluster_id": 5, "matched_quartier": "Cocotomey", "matched_color": "#88d347", "size": 10, "n_road_vertices_claimed": 137, "centroid": [2.30804662, 6.38943246], "poi_names": ["Clinique HEALTH de Cocotomey", "Marché de Cocotomey", "Eglise Catholique St Pio de cocotomey", "EGLISE APOSTOLIQUE DU BENIN \"Assemblée de Cocotomey FIGNONHOU\"", "Maquis de Cocotomey", "Pathesthey institut de beauté Cocotomey", "ISCG COCOTOMEY UNIVERSITY", "Cocotomey", "Mission de la Bonne Nouvelle cocotomey", "SBPL COCOTOMEY"], "kind": "evidence_region"}}, {"type": "Feature", "geometry": {"type": "Polygon", "coordinates": [[[2.3484754, 6.4994566], [2.3522802, 6.4960528], [2.3544113, 6.4942683], [2.3551349, 6.4943087], [2.3558542, 6.4943518], [2.357477, 6.4957497], [2.3584702, 6.4971358], [2.3620559, 6.5149122], [2.361945, 6.5149977], [2.3582256, 6.5145021], [2.3508918, 6.5124543], [2.3500376, 6.5121974], [2.3484754, 6.4994566]]]}, "properties": {"cluster_id": 6, "matched_quartier": "Akassato", "matched_color": "#d553dc", "size": 10, "n_road_vertices_claimed": 171, "centroid": [2.35566551, 6.508670449999999], "poi_names": ["Pharmacie Lycée Technique d'Akassato", "Nouveau marché Akassato", "Ceg Akassato", "Technical College D'akassato", "Terraindefootd’akassato", "Marché De Akassato", "Église Évangélique Foursquare Akassato", "Eglise protestante méthodiste Temple Bethel d'akassato", "Centre Socio-Éducatif d'Akassato", "Terrain Akassato 2000m2"], "kind": "evidence_region"}}, {"type": "Feature", "geometry": {"type": "Polygon", "coordinates": [[[2.3890257, 6.3713253], [2.3903836, 6.3662164], [2.398216, 6.3706404], [2.3985884, 6.371206], [2.3966258, 6.3729156], [2.3901685, 6.3719223], [2.3890257, 6.3713253]]]}, "properties": {"cluster_id": 7, "matched_quartier": "Houéyihô", "matched_color": "#3edc5e", "size": 9, "n_road_vertices_claimed": 64, "centroid": [2.3935056777777777, 6.370001022222222], "poi_names": ["Commissariat de police vodjê-houéyiho", "La Poste Houéyiho", "Ceg Houéyiho", "Clinique Houeyiho", "Hotel De La Cite Houeyiho", "Houéyiho", "Nouvelle Pharmacie Houéyiho", "Houeyiho", "Houeyiho 1"], "kind": "evidence_region"}}, {"type": "Feature", "geometry": {"type": "Polygon", "coordinates": [[[2.3820049, 6.3882474], [2.3840569, 6.3847295], [2.38443, 6.3842745], [2.3860871, 6.3844682], [2.3862099, 6.3846032], [2.3884642, 6.3898412], [2.3880092, 6.3903189], [2.3863625, 6.3915895], [2.3845382, 6.3905507], [2.3820165, 6.3887416], [2.3820049, 6.3882474]]]}, "properties": {"cluster_id": 8, "matched_quartier": "Zogbo", "matched_color": "#88d14f", "size": 8, "n_road_vertices_claimed": 53, "centroid": [2.3864405250000003, 6.3890456875], "poi_names": ["Zogbo", "Eglise de Pentecôte Assemblée de Zogbo", "Église Baptiste de Zogbo", "Pharmacie Zogbo", "BENIN PETRO ZOGBO", "Bank Of Africa Agence Zogbo", "DHL Service Point (UNION ASSURANCES ZOGBO)", "Marche de Zogbo"], "kind": "evidence_region"}}, {"type": "Feature", "geometry": {"type": "Polygon", "coordinates": [[[2.4383375, 6.3770791], [2.4384501, 6.3753554], [2.4387264, 6.3736439], [2.4444201, 6.3731381], [2.4468346, 6.3749601], [2.4409346, 6.3823685], [2.4383375, 6.3770791]]]}, "properties": {"cluster_id": 9, "matched_quartier": "Midombo", "matched_color": "#50d9b9", "size": 8, "n_road_vertices_claimed": 47, "centroid": [2.441568, 6.3772575499999995], "poi_names": ["Complex School De Midombo A Et B", "Midombo", "Eglise Protestante Methodiste De Midombo", "Pharmacie Midombo", "Midombo", "Edmark Midombo Cotonou", "Atelier face a la voie pave marche midombo", "MTN Agence Midombo"], "kind": "evidence_region"}}, {"type": "Feature", "geometry": {"type": "Polygon", "coordinates": [[[2.4234523, 6.3676988], [2.424145, 6.3616438], [2.4245357, 6.3611529], [2.4270372, 6.3623519], [2.4276411, 6.3642011], [2.4274394, 6.3700122], [2.4271392, 6.3700526], [2.426852, 6.3700912], [2.4234523, 6.3676988]]]}, "properties": {"cluster_id": 10, "matched_quartier": "Sèdjro-Saint-Michel", "matched_color": "#dc53ca", "size": 8, "n_road_vertices_claimed": 26, "centroid": [2.4259035000000004, 6.3662894375], "poi_names": ["Polyclinique Saint Michel (POSAM)", "Centre De Santé Saint Michel", "Marché Saint Michel", "Carrefour Legba - St Michel", "St michel", "STATION ORYX SAINT MICHEL", "Société Générale Saint Michel", "Pressing St Michel"], "kind": "evidence_region"}}, {"type": "Feature", "geometry": {"type": "Polygon", "coordinates": [[[2.4065664, 6.3613945], [2.4069286, 6.3609217], [2.4082683, 6.3591732], [2.4094739, 6.3602949], [2.4101968, 6.3649611], [2.4097623, 6.3661474], [2.4074519, 6.3658318], [2.40706, 6.3640668], [2.4065664, 6.3613945]]]}, "properties": {"cluster_id": 11, "matched_quartier": "Gbégamey-Centre", "matched_color": "#d042c4", "size": 8, "n_road_vertices_claimed": 27, "centroid": [2.40799185, 6.3630238375], "poi_names": ["Gbégamey vont en face de l'universite ENIAMME", "Église de Pentecôte de la foi Gbégamey", "Église Apostolique du Bénin de gbegamey", "Station ALKOM GBEGAMEY", "La Terrasse de Gbegamey", "Bénin-Semences - Boutique Gbegamey", "Le Majestic Gbégamey ( Salle des Fêtes )", "Photocopie 10fr blanc noir, 25fr couleur GBEGAMEY"], "kind": "evidence_region"}}, {"type": "Feature", "geometry": {"type": "Polygon", "coordinates": [[[2.3511288, 6.6122144], [2.351215, 6.6104504], [2.3519223, 6.6092253], [2.3583135, 6.6085401], [2.3585917, 6.6085576], [2.3598585, 6.6096193], [2.3582612, 6.6161668], [2.3571174, 6.6182122], [2.3511288, 6.6122144]]]}, "properties": {"cluster_id": 12, "matched_quartier": "Zinvié-Agolèdji", "matched_color": "#ce4c93", "size": 8, "n_road_vertices_claimed": 101, "centroid": [2.3566177125000003, 6.6120276874999995], "poi_names": ["Clinique Fènou Zinvié", "Commissariat Zinvié", "Pharmacie Zinvié", "Église catholique de Zinvié", "Eglise Saint jean l'évangéliste de zinvié", "Marché de Zinvié Abomey-Calavi", "Health Center De Zinvié", "Terrain de sport de Zinvié"], "kind": "evidence_region"}}, {"type": "Feature", "geometry": {"type": "Polygon", "coordinates": [[[2.3583234, 6.4999488], [2.3584328, 6.4978529], [2.3595929, 6.4904728], [2.3614312, 6.4904198], [2.3668825, 6.4978004], [2.3667713, 6.4986704], [2.3604334, 6.5008027], [2.3589481, 6.5007187], [2.3583234, 6.4999488]]]}, "properties": {"cluster_id": 13, "matched_quartier": "Akassato", "matched_color": "#d553dc", "size": 8, "n_road_vertices_claimed": 48, "centroid": [2.361915925, 6.4949637375], "poi_names": ["Commissariat de police de AKASSATO", "Arrêt bus d'Akassato", "Centre Formation Professionnelle Des Personnes Handicapées D'akassato", "Parking de Akassato", "Mission Évangélique le Réservoir de Siloé de Akassato", "Origine Terre AKASSATO", "STATION EWELL AKASSATO", "BENIN PETRO AKASSATO PAVE KEREKOU"], "kind": "evidence_region"}}, {"type": "Feature", "geometry": {"type": "Polygon", "coordinates": [[[2.2438801, 6.4097679], [2.2476295, 6.4081193], [2.2496116, 6.4078407], [2.2495405, 6.4088549], [2.247026, 6.4099371], [2.2440541, 6.410221], [2.2438801, 6.4097679]]]}, "properties": {"cluster_id": 14, "matched_quartier": "Hêvié", "matched_color": "#d47f3e", "size": 8, "n_road_vertices_claimed": 22, "centroid": [2.24758955, 6.408474275], "poi_names": ["Hêvié Djêganto", "Complex School Les Elites De Hevie", "Eglise catholique Saint-Michel Archange de Hêvié -Houinme", "Hêvié", "Christ Embassy Hêvié Adovié", "Hévié", "Hévié New Gate", "CAFE LA RECADE LOISIRS HÊVIÉ"], "kind": "evidence_region"}}, {"type": "Feature", "geometry": {"type": "Polygon", "coordinates": [[[2.4721228, 6.3768906], [2.472627, 6.3746595], [2.47378, 6.3735776], [2.4744558, 6.3729774], [2.4751344, 6.3730014], [2.4774814, 6.3731134], [2.4783604, 6.3737002], [2.478828, 6.376972], [2.4784391, 6.3775511], [2.4772217, 6.3789579], [2.4760715, 6.3801764], [2.4754491, 6.3801794], [2.4748977, 6.380182], [2.4721862, 6.3776216], [2.4721228, 6.3768906]]]}, "properties": {"cluster_id": 15, "matched_quartier": "Avotrou-Gbègo", "matched_color": "#dbdd4d", "size": 7, "n_road_vertices_claimed": 78, "centroid": [2.474065828571429, 6.377098971428572], "poi_names": ["Marché Avotrou", "Avotrou", "Public Nursery School Avotrou", "Paroisse catholique Sainte Trinité d’Avotrou", "Carrefour Avotrou", "CyberPLUS à Avotrou, Cotonou", "Pharmacie Avotrou"], "kind": "evidence_region"}}, {"type": "Feature", "geometry": {"type": "Polygon", "coordinates": [[[2.2956249, 6.3869485], [2.2957145, 6.3866342], [2.2963518, 6.3861542], [2.2968537, 6.3861231], [2.2973563, 6.3861742], [2.2978485, 6.3866428], [2.2989394, 6.3879933], [2.2993729, 6.3893303], [2.2956249, 6.3869485]]]}, "properties": {"cluster_id": 16, "matched_quartier": "Cocotomey", "matched_color": "#88d347", "size": 7, "n_road_vertices_claimed": 19, "centroid": [2.297472528571429, 6.387055428571428], "poi_names": ["Centre Formation Professionnelle La Tulipe - Cocotomey", "College Martin Luther King Cocotomey", "Eglise Catholique Saint Antoine de Padoue de Cocotomey", "Cocotomey", "Agence De La Poste De Cocotomey", "Hb Technology Cocotomey", "Creuset Josué Caleb Centre de Cocotomey Hedomey"], "kind": "evidence_region"}}, {"type": "Feature", "geometry": {"type": "Polygon", "coordinates": [[[2.4535293, 6.3824218], [2.4554234, 6.3810205], [2.4560157, 6.3810209], [2.4561173, 6.3830461], [2.4561234, 6.3836567], [2.4535403, 6.3836684], [2.4535348, 6.3830477], [2.4535293, 6.3824218]]]}, "properties": {"cluster_id": 17, "matched_quartier": "Kpondéhou", "matched_color": "#41c872", "size": 6, "n_road_vertices_claimed": 13, "centroid": [2.455867233333333, 6.3830842], "poi_names": ["Kpondehou 1", "Technical College And Professional De Kpondehou", "Domaine universitaire de Kpondehou", "Terrain kpondehou", "Kpondehou 2", "Kpondehou phamarcy"], "kind": "evidence_region"}}, {"type": "Feature", "geometry": {"type": "Polygon", "coordinates": [[[2.4561644, 6.3877569], [2.4573787, 6.3877751], [2.4601612, 6.3885586], [2.4603449, 6.3895425], [2.4582829, 6.3905642], [2.4580152, 6.3905623], [2.4574327, 6.3905581], [2.4564202, 6.3900652], [2.4561707, 6.3883893], [2.4561644, 6.3877569]]]}, "properties": {"cluster_id": 18, "matched_quartier": "Gankpodo", "matched_color": "#43d4ca", "size": 6, "n_road_vertices_claimed": 22, "centroid": [2.458198383333334, 6.3894641666666665], "poi_names": ["Epp Gankpodo", "Église du Christianisme céleste Paroisse St Samuel Yenawa GANKPODO Centre", "ECC Paroisse Jesu Degbe Gankpodo Akpakpa", "Gankpodo", "Pressing LA PAIX ( Gankpodo)", "MTN Gankpodo"], "kind": "evidence_region"}}, {"type": "Feature", "geometry": {"type": "Polygon", "coordinates": [[[2.4209059, 6.3794385], [2.422635, 6.3793186], [2.4295525, 6.3802613], [2.4298936, 6.3827887], [2.428796, 6.3842309], [2.4279012, 6.385059], [2.4262548, 6.3844425], [2.4255761, 6.383892], [2.4252919, 6.3836569], [2.4250234, 6.3834226], [2.4249222, 6.3833319], [2.4246664, 6.3830856], [2.4209059, 6.3794385]]]}, "properties": {"cluster_id": 19, "matched_quartier": "Aïdjèdo", "matched_color": "#cd3fc8", "size": 6, "n_road_vertices_claimed": 37, "centroid": [2.4254447666666663, 6.381981566666667], "poi_names": ["Mairie Aïdjedo", "Aidjedo", "Nouveau marché d'Aidjedo", "AIDJEDO PONCE", "Pharmacie Aïdjèdo", "Warehouse Hammer Aïdjèdo"], "kind": "evidence_region"}}, {"type": "Feature", "geometry": {"type": "Polygon", "coordinates": [[[2.4186956, 6.3578346], [2.4191658, 6.3567375], [2.4243629, 6.3558719], [2.4260779, 6.3575139], [2.4264969, 6.3586886], [2.4257066, 6.3596842], [2.4249143, 6.3606772], [2.4227889, 6.3605565], [2.4186956, 6.3578346]]]}, "properties": {"cluster_id": 20, "matched_quartier": "Zongo-Ehuzu", "matched_color": "#8dc93f", "size": 6, "n_road_vertices_claimed": 29, "centroid": [2.424673633333333, 6.357466049999999], "poi_names": ["Great Mosque of Zongo", "Pâtisserie Diététique Ancienne Mairie Zongo", "Zongo", "Pharmacie Zongo", "Pharmacie MOSQUÉE CENTRALE ZONGO", "MODE STORE ZONGO NIMA"], "kind": "evidence_region"}}, {"type": "Feature", "geometry": {"type": "Polygon", "coordinates": [[[2.4374017, 6.3893889], [2.4376576, 6.3887593], [2.4386844, 6.3887116], [2.4396606, 6.3886998], [2.4402028, 6.3886933], [2.4407674, 6.3886867], [2.4433448, 6.3932392], [2.4433466, 6.3948891], [2.4433386, 6.3964169], [2.4402684, 6.3937096], [2.4376447, 6.3899681], [2.4374017, 6.3893889]]]}, "properties": {"cluster_id": 21, "matched_quartier": "Agbatô", "matched_color": "#87d24a", "size": 6, "n_road_vertices_claimed": 30, "centroid": [2.4421808666666665, 6.392786516666667], "poi_names": ["Agbato", "Public Primary School De Agbato", "Agbato", "Pharmacie AGBATO", "Centre De Santé D'agbato", "ECC Paroisse Saint Jean Baptise Agbato Centre"], "kind": "evidence_region"}}, {"type": "Feature", "geometry": {"type": "Polygon", "coordinates": [[[2.3168805, 6.4237067], [2.3172716, 6.4221473], [2.3184051, 6.4207077], [2.318719, 6.4205142], [2.325043, 6.4181803], [2.3225463, 6.4295264], [2.3210941, 6.4314319], [2.3188135, 6.4329319], [2.3168805, 6.4237067]]]}, "properties": {"cluster_id": 22, "matched_quartier": "Tankpè-Togoudo", "matched_color": "#76db47", "size": 6, "n_road_vertices_claimed": 53, "centroid": [2.3206140000000004, 6.424172349999999], "poi_names": ["Mosquée Centrale Ya-Allahou de Tankpè", "Catholic Church Holy Family Tankpè", "Eglise Baptiste de Tankpè", "Eglise Pentecôte Tankpè Centre", "Bar Chicha Tankpè", "Clinical Power Of One De Tankpe"], "kind": "evidence_region"}}, {"type": "Feature", "geometry": {"type": "Polygon", "coordinates": [[[2.3241287, 6.4044982], [2.3242241, 6.3992514], [2.3260808, 6.3988407], [2.3340764, 6.3997537], [2.3364595, 6.4004127], [2.3372669, 6.4015143], [2.338028, 6.4035801], [2.3383588, 6.4050115], [2.3374486, 6.4055564], [2.3372019, 6.4056983], [2.3319206, 6.4067506], [2.3262636, 6.4054679], [2.3252656, 6.4052034], [2.3241287, 6.4044982]]]}, "properties": {"cluster_id": 23, "matched_quartier": "Godomey-Togoudo", "matched_color": "#c93d4b", "size": 6, "n_road_vertices_claimed": 137, "centroid": [2.33097385, 6.404000416666666], "poi_names": ["Eglise Catholique Saint Michel De Godomey-Togoudo", "Mosquée de Togoudo", "Godomey togoudo", "St Benoit Togoudo", "Maquis La Temperature,Godomey-togoudo Assrossa", "LAVAGE AUTO MOTO TOGOUDO"], "kind": "evidence_region"}}, {"type": "Feature", "geometry": {"type": "Polygon", "coordinates": [[[2.2647165, 6.4070957], [2.2658618, 6.4047595], [2.2696584, 6.3978932], [2.2697952, 6.3976666], [2.2701636, 6.3970695], [2.271547, 6.3948428], [2.2714676, 6.4007879], [2.2691461, 6.4047568], [2.2661488, 6.4084684], [2.2657942, 6.4084103], [2.2647165, 6.4070957]]]}, "properties": {"cluster_id": 24, "matched_quartier": "Hêvié", "matched_color": "#d47f3e", "size": 6, "n_road_vertices_claimed": 72, "centroid": [2.2674125000000003, 6.40365505], "poi_names": ["Clinical Bethesda Annexe Hêvié", "Pharmacie De Hevié", "Eglise Protestante Méthodiste de Hêvié", "PRESBYTERE DE LA PAROISSE Ste BERNADETTE SOUBIROUS de Hêvié", "BENIN PETRO du PONT Hêvié", "EWELL Hêvié Dodji"], "kind": "evidence_region"}}, {"type": "Feature", "geometry": {"type": "Polygon", "coordinates": [[[2.3945798, 6.3605872], [2.3950041, 6.3600527], [2.3958098, 6.3590981], [2.3992745, 6.3572831], [2.4032874, 6.3588954], [2.4032536, 6.3595981], [2.400828, 6.3606948], [2.4000929, 6.3608666], [2.3969514, 6.3609206], [2.3945798, 6.3605872]]]}, "properties": {"cluster_id": 25, "matched_quartier": "Cadjèhoun-Kpota", "matched_color": "#ddcf4f", "size": 5, "n_road_vertices_claimed": 35, "centroid": [2.39959924, 6.3596344799999995], "poi_names": ["Nouveau Marché de Cadjehoun", "Méditerranéen Hôtel Cadjehoun", "Cadjehoun-Kpota", "Eglise du Christianisme Celeste Paroisse Cadjehoun", "NSIA ASSURANCE CADJEHOUN"], "kind": "evidence_region"}}, {"type": "Feature", "geometry": {"type": "Polygon", "coordinates": [[[2.3610707, 6.3924133], [2.3618837, 6.3910884], [2.3635542, 6.3885335], [2.36577, 6.3880787], [2.3658879, 6.389285], [2.3652156, 6.3939327], [2.3650001, 6.3951866], [2.3649243, 6.3955809], [2.364427, 6.3956075], [2.3610707, 6.3924133]]]}, "properties": {"cluster_id": 26, "matched_quartier": "Mènontin", "matched_color": "#93d64b", "size": 5, "n_road_vertices_claimed": 45, "centroid": [2.3649682600000004, 6.39031486], "poi_names": ["Menontin", "Carrefour Menontin", "Agence BOA MENONTIN", "BOUTIQUE DE MENONTIN", "ELLE FASHION DE MENONTIN"], "kind": "evidence_region"}}, {"type": "Feature", "geometry": {"type": "Polygon", "coordinates": [[[2.3967665, 6.3686821], [2.3969869, 6.3683332], [2.3990367, 6.3684036], [2.4007567, 6.3693088], [2.4008429, 6.3694638], [2.4001823, 6.3749724], [2.3996258, 6.3756944], [2.398648, 6.3758808], [2.3981699, 6.374121], [2.3967665, 6.3686821]]]}, "properties": {"cluster_id": 27, "matched_quartier": "Vodjè-Centre", "matched_color": "#67cc42", "size": 5, "n_road_vertices_claimed": 34, "centroid": [2.39966514, 6.371473459999999], "poi_names": ["Clinical De L'union Vodje Cotonou", "Vodjè", "Vodje", "Vodje Penterre Noir", "Garage Arche de Noe Vodjè"], "kind": "evidence_region"}}, {"type": "Feature", "geometry": {"type": "Polygon", "coordinates": [[[2.4584077, 6.3938087], [2.4584534, 6.3906915], [2.459457, 6.3871198], [2.4601456, 6.3864678], [2.4622339, 6.3864393], [2.4622729, 6.3885421], [2.4622685, 6.3890673], [2.4588274, 6.3937687], [2.4584077, 6.3938087]]]}, "properties": {"cluster_id": 28, "matched_quartier": "Yénawa", "matched_color": "#de4ad4", "size": 5, "n_road_vertices_claimed": 16, "centroid": [2.459707, 6.389374139999999], "poi_names": ["Pharmacie Yenawa", "Marche de Yénawa", "Yenawa", "Yenawa", "Bar restaurant 04H DU MATIN YENAWA"], "kind": "evidence_region"}}, {"type": "Feature", "geometry": {"type": "Polygon", "coordinates": [[[2.4112117, 6.3635132], [2.4112912, 6.3628139], [2.4151616, 6.3586501], [2.4169563, 6.3582169], [2.4180128, 6.357965], [2.4182166, 6.3579284], [2.4155235, 6.3615207], [2.4117605, 6.3632634], [2.4112117, 6.3635132]]]}, "properties": {"cluster_id": 29, "matched_quartier": "Gbégamey-Mifongou", "matched_color": "#4fd575", "size": 5, "n_road_vertices_claimed": 11, "centroid": [2.41340222, 6.3621810000000005], "poi_names": ["Terrain de Sport CEG Gbegamey", "Complexe Scolaire Universitaire \"Clé De La Réussite\" Gbégamey", "BENIN PETRO GBEGAMEY 1", "LEMUEL EXPRESS - Agence/Gare de GBEGAMEY", "AFG ASSURANCES / AGENCE - FORS LUMIERE GBEGAMEY"], "kind": "evidence_region"}}, {"type": "Feature", "geometry": {"type": "Polygon", "coordinates": [[[2.422169, 6.3676674], [2.4223557, 6.3656475], [2.4245618, 6.3628254], [2.4249824, 6.3623132], [2.4289989, 6.3598702], [2.4297622, 6.3604601], [2.4302721, 6.3608762], [2.4262325, 6.3677761], [2.4230163, 6.3683346], [2.422169, 6.3676674]]]}, "properties": {"cluster_id": 30, "matched_quartier": "Gbéto", "matched_color": "#d46b41", "size": 5, "n_road_vertices_claimed": 30, "centroid": [2.4244475999999997, 6.364527239999999], "poi_names": ["Station AK PETROLEUM SA Scoa Gbéto", "Primary School Protestant Gbéto", "Eglise Protestante Methodiste de Gbeto", "Souwagbeto, Maro Militaire", "Gbeto"], "kind": "evidence_region"}}, {"type": "Feature", "geometry": {"type": "Polygon", "coordinates": [[[2.3342465, 6.3760223], [2.3354133, 6.3737822], [2.3368075, 6.3723757], [2.3450835, 6.3777828], [2.345105, 6.378192], [2.3450504, 6.3787884], [2.3409194, 6.3847854], [2.3400999, 6.385691], [2.3342982, 6.3769472], [2.3342465, 6.3760223]]]}, "properties": {"cluster_id": 31, "matched_quartier": "Godomey-Togoudo", "matched_color": "#c93d4b", "size": 5, "n_road_vertices_claimed": 99, "centroid": [2.34058574, 6.38006762], "poi_names": ["Magasin de GODOMEY", "CEFP Le Savoir-Faire - Godomey", "Godomey College of General Teaching", "Godomey Gare Ferroviaire", "Paroisse Notre Dame de Charité Godomey"], "kind": "evidence_region"}}, {"type": "Feature", "geometry": {"type": "Polygon", "coordinates": [[[2.3202805, 6.5362479], [2.3215646, 6.5364538], [2.3250576, 6.5376626], [2.325671, 6.538495], [2.3261645, 6.5405949], [2.3215458, 6.5387322], [2.3202805, 6.5362479]]]}, "properties": {"cluster_id": 32, "matched_quartier": "Golo-Djigbé", "matched_color": "#d36f48", "size": 5, "n_road_vertices_claimed": 44, "centroid": [2.32608902, 6.540503539999999], "poi_names": ["Golo-Djigbé (agongbé", "Golo-Djigbé", "Église catholique saint Pierre et Paul de Golo-Djigbé Aga", "Arrondissement de Golo-Djigbé", "Golo Djigbe Tokpakomey"], "kind": "evidence_region"}}, {"type": "Feature", "geometry": {"type": "Polygon", "coordinates": [[[2.3938003, 6.4958233], [2.39751, 6.4946018], [2.3985907, 6.4947866], [2.3943758, 6.4957104], [2.393952, 6.4957984], [2.3938003, 6.4958233]]]}, "properties": {"cluster_id": 33, "matched_quartier": "Ouèdo", "matched_color": "#49cb90", "size": 5, "n_road_vertices_claimed": 11, "centroid": [2.4559393, 6.499677399999999], "poi_names": ["Arrondissement ouedo", "Health Center Ouedo", "RESTAURANT DÊGUÈ D&S OUEDO", "Ouédo", "Ouédo"], "kind": "evidence_region"}}, {"type": "Feature", "geometry": {"type": "Polygon", "coordinates": [[[2.3469981, 6.3698873], [2.352742, 6.3671699], [2.3565406, 6.3683292], [2.3571749, 6.3699238], [2.35627, 6.370715], [2.3496621, 6.3718798], [2.3489513, 6.371644], [2.3471586, 6.3709827], [2.3470551, 6.3704092], [2.3469981, 6.3698873]]]}, "properties": {"cluster_id": 34, "matched_quartier": "Hlazounto", "matched_color": "#a73fcd", "size": 4, "n_road_vertices_claimed": 45, "centroid": [2.3553589749999997, 6.369245149999999], "poi_names": ["Agla hlazounto", "Eglise St Trinité d'Agla Hlazounto", "Eglise catholique Agla hlazounto", "Mosquée d'Agla Hlazounto"], "kind": "evidence_region"}}, {"type": "Feature", "geometry": {"type": "Polygon", "coordinates": [[[2.3915005, 6.3583031], [2.3944762, 6.3559463], [2.3950939, 6.3559253], [2.3954499, 6.3559181], [2.3967089, 6.356592], [2.4020214, 6.3646006], [2.401681, 6.365036], [2.4015746, 6.3651716], [2.4012077, 6.3656388], [2.4008627, 6.3660781], [2.3915005, 6.3583031]]]}, "properties": {"cluster_id": 35, "matched_quartier": "Cadjèhoun-Azalokogon", "matched_color": "#d951d0", "size": 4, "n_road_vertices_claimed": 62, "centroid": [2.3971925499999998, 6.361430524999999], "poi_names": ["Cadjehoun Central Mosque", "The Majestic Cadjehoun", "Bank of Africa Agence Cadjehoun", "Marché moderne Cadjehoun"], "kind": "evidence_region"}}, {"type": "Feature", "geometry": {"type": "Polygon", "coordinates": [[[2.4313163, 6.3624886], [2.4317103, 6.3619962], [2.4370792, 6.3657209], [2.4363805, 6.3681679], [2.433254, 6.3697028], [2.4330788, 6.369738], [2.4317021, 6.3686698], [2.4313163, 6.3624886]]]}, "properties": {"cluster_id": 36, "matched_quartier": "Missèbô", "matched_color": "#db4378", "size": 4, "n_road_vertices_claimed": 36, "centroid": [2.4332339750000003, 6.36508095], "poi_names": ["Ecobank Missèbo", "Carrefour Missebo", "APPART 3 CHAMBRES SALON MISSEBO-STEIMETZ - Three-Bedroom Apartment", "Missebo"], "kind": "evidence_region"}}, {"type": "Feature", "geometry": {"type": "Polygon", "coordinates": [[[2.4163129, 6.3841437], [2.4166189, 6.3837471], [2.4169811, 6.3833186], [2.4173569, 6.3828741], [2.417724, 6.3826693], [2.4198893, 6.3847482], [2.4191118, 6.3856831], [2.4163129, 6.3841437]]]}, "properties": {"cluster_id": 37, "matched_quartier": "Gbèdjromèdè", "matched_color": "#4ed9d7", "size": 4, "n_road_vertices_claimed": 15, "centroid": [2.4182838749999997, 6.383988724999999], "poi_names": ["Gbedjromede 1", "Gbedjromede", "Station Gbèdjromèdé", "Pharmacie Gbedjromede"], "kind": "evidence_region"}}, {"type": "Feature", "geometry": {"type": "Polygon", "coordinates": [[[2.3622961, 6.352629], [2.3623091, 6.3522226], [2.3626565, 6.3517118], [2.363989, 6.3508451], [2.3653031, 6.3511157], [2.36726, 6.3523553], [2.3661856, 6.3583804], [2.3646572, 6.3579304], [2.3622961, 6.352629]]]}, "properties": {"cluster_id": 38, "matched_quartier": "Houénoussou", "matched_color": "#dfb041", "size": 4, "n_road_vertices_claimed": 46, "centroid": [2.365402425, 6.3550568], "poi_names": ["Houenoussou", "Nouveau marche HOUENOUSSOU", "Mosquée Centrale de Houénoussou", "Carrefour Houenoussou Fidrossè BT044"], "kind": "evidence_region"}}, {"type": "Feature", "geometry": {"type": "Polygon", "coordinates": [[[2.4355414, 6.3708044], [2.441065, 6.3695354], [2.4444375, 6.3694234], [2.4454052, 6.3717884], [2.444443, 6.371918], [2.4425273, 6.3719155], [2.4413869, 6.3718879], [2.441125, 6.3718691], [2.4409201, 6.3718479], [2.4407337, 6.3718183], [2.4355414, 6.3708044]]]}, "properties": {"cluster_id": 39, "matched_quartier": "Dédokpo", "matched_color": "#cf4d46", "size": 4, "n_road_vertices_claimed": 20, "centroid": [2.44164035, 6.37005755], "poi_names": ["Dedokpo", "Complex School Dedokpo Abc", "Dédokpo 8 vont", "Carrefour Dedokpo"], "kind": "evidence_region"}}, {"type": "Feature", "geometry": {"type": "Polygon", "coordinates": [[[2.4027955, 6.3735623], [2.4050033, 6.371582], [2.4049182, 6.3754531], [2.4047004, 6.3761029], [2.4039509, 6.3757685], [2.4027955, 6.3735623]]]}, "properties": {"cluster_id": 40, "matched_quartier": "Agontinkon", "matched_color": "#db5a43", "size": 4, "n_road_vertices_claimed": 17, "centroid": [2.4049689749999996, 6.375526275], "poi_names": ["Église Adventiste du 7ème jour à AGONTINKON", "EWELL Agontinkon", "Confort Bus Lines - Agontinkon", "FAST MARKET AGONTINKON"], "kind": "evidence_region"}}, {"type": "Feature", "geometry": {"type": "Polygon", "coordinates": [[[2.32527, 6.3857557], [2.3256254, 6.3851679], [2.329589, 6.380989], [2.3322773, 6.383478], [2.3296086, 6.3852011], [2.3287588, 6.3855779], [2.3262608, 6.3866112], [2.3258471, 6.3867745], [2.3255517, 6.3863327], [2.32527, 6.3857557]]]}, "properties": {"cluster_id": 41, "matched_quartier": "Godomey-Togoudo", "matched_color": "#c93d4b", "size": 4, "n_road_vertices_claimed": 24, "centroid": [2.3283242, 6.384870725], "poi_names": ["Commissariat de Godomey", "Pharmacie Godomey PK 14", "Supermarché franc prix annexe godomey", "STATION ORYX GODOMEY"], "kind": "evidence_region"}}, {"type": "Feature", "geometry": {"type": "Polygon", "coordinates": [[[2.4852675, 6.3786997], [2.4888445, 6.378268], [2.4906752, 6.3796208], [2.4910307119411215, 6.380179545781092], [2.490416924602345, 6.380649730501666], [2.489964035283639, 6.3809336248897095], [2.4869401, 6.3804058], [2.4857488, 6.3797804], [2.4852675, 6.3786997]]]}, "properties": {"cluster_id": 42, "matched_quartier": "Houinmè", "matched_color": "#dbd647", "size": 4, "n_road_vertices_claimed": 32, "centroid": [2.6237752, 6.4965528], "poi_names": ["Public Primary School Houinme Ganto", "Arrondissement de HOUINMÈ", "Place publique HOUINMÈ", "Houinmè place publique fusion"], "kind": "evidence_region"}}, {"type": "Feature", "geometry": {"type": "Polygon", "coordinates": [[[2.4885614, 6.3712812], [2.4906755, 6.3696166], [2.4932554, 6.3698779], [2.4933931162003864, 6.372369278688674], [2.4933624764478464, 6.372862759554105], [2.4932991998101053, 6.373881886908774], [2.493247917740551, 6.374707830918322], [2.4896098, 6.3776803], [2.48898, 6.3773404], [2.4885614, 6.3712812]]]}, "properties": {"cluster_id": 43, "matched_quartier": "Sèmè", "matched_color": "#44df9e", "size": 4, "n_road_vertices_claimed": 69, "centroid": [2.6054985, 6.3811369], "poi_names": ["MOSQUÉE SÈME", "Mairie de Sèmè Podji", "Ceg Seme-Podji", "STADE SEME PODJI"], "kind": "evidence_region"}}, {"type": "Feature", "geometry": {"type": "Polygon", "coordinates": [[[2.2521128, 6.4337989], [2.252216, 6.4336177], [2.2538441, 6.432922], [2.2549532, 6.4326395], [2.2550136, 6.4327141], [2.2550297, 6.43287], [2.2549693, 6.4335644], [2.2543028, 6.4354168], [2.2531347, 6.4353848], [2.2526892, 6.4349456], [2.2521128, 6.4337989]]]}, "properties": {"cluster_id": 44, "matched_quartier": "Hêvié", "matched_color": "#d47f3e", "size": 4, "n_road_vertices_claimed": 26, "centroid": [2.253897725, 6.4336932], "poi_names": ["Commissariat D'arrondissement De Hevie", "Arrondissement De Hêvié", "Église baptiste de Hêvié-Arrondissement", "STATION JNP HÊVIÉ"], "kind": "evidence_region"}}, {"type": "Feature", "geometry": {"type": "Polygon", "coordinates": [[[2.258986, 6.4213398], [2.2590825, 6.4208426], [2.2620544, 6.4167646], [2.2629999, 6.4155485], [2.2633794, 6.4155732], [2.2630227, 6.4167673], [2.2596934, 6.4254531], [2.2592193, 6.4256003], [2.258986, 6.4213398]]]}, "properties": {"cluster_id": 45, "matched_quartier": "Hêvié", "matched_color": "#d47f3e", "size": 4, "n_road_vertices_claimed": 31, "centroid": [2.261288275, 6.4200507], "poi_names": ["Église Baptiste de Hêvié-Hêssa", "Vendeuse d'Ablo Hevié Adovié", "Yatt &. CO ENERGY HEVIE", "TEMPLE DE CULTES VODOUN DE HEVIE"], "kind": "evidence_region"}}, {"type": "Feature", "geometry": {"type": "Polygon", "coordinates": [[[2.4305076, 6.376195], [2.4309703, 6.3756107], [2.4323609, 6.3767003], [2.4337298, 6.3778129], [2.4344037, 6.3793329], [2.4309285, 6.3785167], [2.4305669, 6.3768193], [2.4305076, 6.376195]]]}, "properties": {"cluster_id": 46, "matched_quartier": "Hindé-Sud", "matched_color": "#cb4954", "size": 3, "n_road_vertices_claimed": 16, "centroid": [2.4323106666666665, 6.377369633333333], "poi_names": ["Commissariat Hinde", "Public Primary School De Hindé 1", "EPEM HINDE Cotonou"], "kind": "evidence_region"}}, {"type": "Feature", "geometry": {"type": "Polygon", "coordinates": [[[2.4064256, 6.3542104], [2.4072016, 6.3540994], [2.4081237, 6.3566731], [2.4081409, 6.3574345], [2.4064256, 6.3542104]]]}, "properties": {"cluster_id": 47, "matched_quartier": "Cadjèhoun-Azalokogon", "matched_color": "#d951d0", "size": 3, "n_road_vertices_claimed": 4, "centroid": [2.407527, 6.355060766666667], "poi_names": ["Cadjehoun", "Furnished apartment Cadjèhoun Cotonou", "Furnished apartment Cadjèhoun Cotonou"], "kind": "evidence_region"}}, {"type": "Feature", "geometry": {"type": "Polygon", "coordinates": [[[2.4482237, 6.359425], [2.4490171, 6.3576925], [2.4512111, 6.3562752], [2.4513298, 6.3562083], [2.454306, 6.3552118], [2.4553579, 6.3551355], [2.4561932, 6.3550835], [2.4568518, 6.3556171], [2.4570581, 6.356794], [2.4559958, 6.360329], [2.4556454, 6.3614741], [2.4553036, 6.3625145], [2.4545412, 6.3643425], [2.4531018, 6.3641478], [2.452812, 6.3641004], [2.4519974, 6.3639454], [2.4482237, 6.359425]]]}, "properties": {"cluster_id": 48, "matched_quartier": "Akpakpa-Dodomè", "matched_color": "#cd3bb3", "size": 3, "n_road_vertices_claimed": 93, "centroid": [2.4523449999999998, 6.3582518666666665], "poi_names": ["Commissariat d'arrondissement Akpakpa dodome", "Akpakpa Dodomey", "Le kidou Restaurant Buffet Akpakpa"], "kind": "evidence_region"}}, {"type": "Feature", "geometry": {"type": "Polygon", "coordinates": [[[2.3728305, 6.3863357], [2.3732141, 6.3860788], [2.3736743, 6.3858028], [2.3748726, 6.3878881], [2.3734516, 6.3875522], [2.3728305, 6.3863357]]]}, "properties": {"cluster_id": 49, "matched_quartier": "Mènontin", "matched_color": "#93d64b", "size": 3, "n_road_vertices_claimed": 7, "centroid": [2.3738962999999997, 6.387350433333332], "poi_names": ["Epp Menontin", "supermarche mont sinai menontin", "SURFACE D'ACHAT DE MENONTIN"], "kind": "evidence_region"}}, {"type": "Feature", "geometry": {"type": "Polygon", "coordinates": [[[2.3913218, 6.3921284], [2.3948659, 6.3854739], [2.3953813, 6.3852436], [2.3965853, 6.3860423], [2.3990868, 6.3887424], [2.3961775, 6.3923235], [2.3930793, 6.392731], [2.392267, 6.3926801], [2.3919877, 6.3926571], [2.3913218, 6.3921284]]]}, "properties": {"cluster_id": 50, "matched_quartier": "Fifadji", "matched_color": "#a24aca", "size": 3, "n_road_vertices_claimed": 31, "centroid": [2.3959036333333334, 6.391130100000001], "poi_names": ["Public Preschool De Fifadji", "MISSION ÉVANGÉLIQUE DES BÉNIS DE L'ÉTERNEL (FIFADJI)", "Cotonou, Fifadji"], "kind": "evidence_region"}}, {"type": "Feature", "geometry": {"type": "Polygon", "coordinates": [[[2.452109, 6.3905834], [2.4525636, 6.390102], [2.4535884, 6.3891476], [2.4541518, 6.389124], [2.4545934, 6.390085], [2.4548504, 6.3915371], [2.4542984, 6.3944151], [2.4531009, 6.3945089], [2.4521474, 6.3943264], [2.4521156, 6.3923829], [2.452109, 6.3905834]]]}, "properties": {"cluster_id": 51, "matched_quartier": "Minontchou", "matched_color": "#d34580", "size": 3, "n_road_vertices_claimed": 34, "centroid": [2.453939033333333, 6.391139833333333], "poi_names": ["Minontchou", "Cotonou Akpakpa/Minontchou", "Pharmacie Gratias Minontchou"], "kind": "evidence_region"}}, {"type": "Feature", "geometry": {"type": "Polygon", "coordinates": [[[2.4027013, 6.391828], [2.4028882, 6.391409], [2.4080021, 6.3934084], [2.4077453, 6.393697], [2.4035974, 6.392323], [2.4027013, 6.391828]]]}, "properties": {"cluster_id": 52, "matched_quartier": "Vossa-Kpodji", "matched_color": "#d53da7", "size": 3, "n_road_vertices_claimed": 7, "centroid": [2.4058905999999998, 6.3931028], "poi_names": ["Vossa-Kpodji", "Église Catholique Saint Joseph de Vossa", "Vossa-Kpodji"], "kind": "evidence_region"}}, {"type": "Feature", "geometry": {"type": "Polygon", "coordinates": [[[2.4700034, 6.3828614], [2.4703453, 6.3821778], [2.4722055, 6.3795767], [2.4732377, 6.3795695], [2.476564, 6.3821967], [2.4765372, 6.3825663], [2.4755636, 6.3833821], [2.4744584, 6.3839545], [2.4722006, 6.3850767], [2.4700034, 6.3828614]]]}, "properties": {"cluster_id": 53, "matched_quartier": "Avotrou-Gbègo", "matched_color": "#dbdd4d", "size": 3, "n_road_vertices_claimed": 47, "centroid": [2.4764891, 6.3818969999999995], "poi_names": ["Avotrou", "Hopital de Zone de Avotrou", "Avotrou"], "kind": "evidence_region"}}, {"type": "Feature", "geometry": {"type": "Polygon", "coordinates": [[[2.4595854, 6.3756806], [2.459678, 6.3746846], [2.4597501, 6.3739097], [2.4598531, 6.3728029], [2.4609939, 6.3728968], [2.4615444, 6.3735581], [2.4621298, 6.3742712], [2.4615455, 6.3754923], [2.4595854, 6.3756806]]]}, "properties": {"cluster_id": 54, "matched_quartier": "Irédé", "matched_color": "#d951c7", "size": 3, "n_road_vertices_claimed": 18, "centroid": [2.4598940333333332, 6.373594099999999], "poi_names": ["Mosquée IREDE", "Pressing Golden Iron - Agence irédé ( Irédé Branch)", "Irede Small Market"], "kind": "evidence_region"}}, {"type": "Feature", "geometry": {"type": "Polygon", "coordinates": [[[-0.1736086, 5.678249999999999], [-0.1733535, 5.6779250999999995], [-0.1728469, 5.6781619999999995], [-0.1736086, 5.678249999999999]]]}, "properties": {"cluster_id": 55, "matched_quartier": "Zongo-Nima", "matched_color": "#d440ad", "size": 3, "n_road_vertices_claimed": 2, "centroid": [-0.17326966666666666, 5.678112366666666], "poi_names": ["Madina zongo junction bus stop", "Zongo Junction", "Zongo Junction Taxi Rank"], "kind": "evidence_region"}}, {"type": "Feature", "geometry": {"type": "Polygon", "coordinates": [[[2.444834, 6.3689318], [2.4473802, 6.3702698], [2.4479072, 6.3706008], [2.4484118, 6.3718135], [2.4453761, 6.3701741], [2.444834, 6.3689318]]]}, "properties": {"cluster_id": 56, "matched_quartier": "Misséssin", "matched_color": "#49cf57", "size": 3, "n_road_vertices_claimed": 7, "centroid": [2.4449467666666664, 6.368909366666667], "poi_names": ["Missessin", "Missessin", "Maternity Missessin"], "kind": "evidence_region"}}, {"type": "Feature", "geometry": {"type": "Polygon", "coordinates": [[[2.4433099, 6.3778975], [2.4433135, 6.3772298], [2.4433243, 6.3785489], [2.4433277, 6.3791681], [2.4433099, 6.3778975]]]}, "properties": {"cluster_id": 57, "matched_quartier": "Sègbèya-Sud", "matched_color": "#42c8b0", "size": 3, "n_road_vertices_claimed": 4, "centroid": [2.4427160666666663, 6.3780759], "poi_names": ["Segbeya", "Ecole Superieure des Technologies Avancees et de Management (ESTAM - Segbeya Campus)", "Segbeya"], "kind": "evidence_region"}}, {"type": "Feature", "geometry": {"type": "Polygon", "coordinates": [[[2.3829311, 6.3862211], [2.383609, 6.3851059], [2.384459, 6.3860184], [2.3852258, 6.3874551], [2.3829311, 6.3862211]]]}, "properties": {"cluster_id": 58, "matched_quartier": "Kouhounou", "matched_color": "#dcca40", "size": 3, "n_road_vertices_claimed": 14, "centroid": [2.384218066666666, 6.386182333333333], "poi_names": ["Mairie du 10ème arrondissement (kouhounou)", "Poste Kouhounou", "Station Ewell de Kouhounou"], "kind": "evidence_region"}}, {"type": "Feature", "geometry": {"type": "Polygon", "coordinates": [[[2.4485739, 6.3941708], [2.4485867, 6.3931114], [2.4490591, 6.3918141], [2.4501497, 6.3927594], [2.4490647, 6.3950611], [2.4486255, 6.395229], [2.4485739, 6.3941708]]]}, "properties": {"cluster_id": 59, "matched_quartier": "Agbodjèdo", "matched_color": "#88d040", "size": 3, "n_road_vertices_claimed": 12, "centroid": [2.4492895999999997, 6.392622299999999], "poi_names": ["Agbodjedo", "Agbodjedo", "AGBODJEDO"], "kind": "evidence_region"}}, {"type": "Feature", "geometry": {"type": "Polygon", "coordinates": [[[2.3111541, 6.4127494], [2.3114332, 6.4126836], [2.3122527, 6.4128387], [2.3124823, 6.4133009], [2.3123914, 6.4137833], [2.3120118, 6.4139273], [2.311388, 6.413794], [2.3111541, 6.4127494]]]}, "properties": {"cluster_id": 60, "matched_quartier": "Godomey-Togoudo", "matched_color": "#c93d4b", "size": 3, "n_road_vertices_claimed": 15, "centroid": [2.3123318333333334, 6.4133293333333325], "poi_names": ["Clinique La Grâce Vie Godomey", "ADC TOGOUDO", "Parc de Godomey (OCBN)"], "kind": "evidence_region"}}, {"type": "Feature", "geometry": {"type": "Polygon", "coordinates": [[[2.3368491, 6.6218618], [2.3423244, 6.6218258], [2.3441622, 6.622753], [2.343435, 6.6244798], [2.3368491, 6.6218618]]]}, "properties": {"cluster_id": 61, "matched_quartier": "Zinvié-Agolèdji", "matched_color": "#ce4c93", "size": 3, "n_road_vertices_claimed": 44, "centroid": [2.3435238666666667, 6.623415566666666], "poi_names": ["Zinvié", "Bureau Poste De Zinvie", "EEAD Temple Victoire de Zinvié"], "kind": "evidence_region"}}, {"type": "Feature", "geometry": {"type": "Polygon", "coordinates": [[[2.3433079, 6.53898], [2.3441402, 6.5374614], [2.3473674, 6.5316945], [2.3496768, 6.5330656], [2.3498833, 6.5353346], [2.3493461, 6.5372747], [2.3482467, 6.5389514], [2.3433079, 6.53898]]]}, "properties": {"cluster_id": 62, "matched_quartier": "Adjagbo", "matched_color": "#cd3f8f", "size": 3, "n_road_vertices_claimed": 61, "centroid": [2.3481102333333332, 6.5344515], "poi_names": ["Citigems School Adjagbo", "BENIN PETRO ADJAGBO", "STATION EWELL ADJAGBO"], "kind": "evidence_region"}}, {"type": "Feature", "geometry": {"type": "Polygon", "coordinates": [[[2.3460094, 6.4488751], [2.3480572, 6.4483339], [2.3504192, 6.4486087], [2.3491666, 6.44936], [2.3488574, 6.4495214], [2.3484108, 6.4497399], [2.3476074, 6.450101], [2.3467183, 6.4504342], [2.3460094, 6.4488751]]]}, "properties": {"cluster_id": 63, "matched_quartier": "Zogbadjè", "matched_color": "#de47cf", "size": 3, "n_road_vertices_claimed": 17, "centroid": [2.3468171666666664, 6.450295233333333], "poi_names": ["Zogbadje", "CYBER ZOGBADJE", "Terrain de Zogbadjè"], "kind": "evidence_region"}}, {"type": "Feature", "geometry": {"type": "Polygon", "coordinates": [[[2.2690228, 6.4595772], [2.2702968, 6.4555168], [2.2773821, 6.4526781], [2.2795664, 6.4527291], [2.279519, 6.4536123], [2.2787605, 6.4563323], [2.2699133, 6.4620531], [2.2690228, 6.4595772]]]}, "properties": {"cluster_id": 64, "matched_quartier": "Ouèdo", "matched_color": "#49cb90", "size": 3, "n_road_vertices_claimed": 47, "centroid": [2.2730921, 6.455865466666666], "poi_names": ["Pharmacie Les Graces Divines de Ouedo", "Eglise Catholique St Luc Ouèdo", "Nouveau site Paroisse Saint Luc de Ouèdo"], "kind": "evidence_region"}}, {"type": "Feature", "geometry": {"type": "Polygon", "coordinates": [[[2.4876625, 6.3664908], [2.4878107, 6.365279], [2.4895667, 6.364819], [2.4911669, 6.3649791], [2.4927045, 6.3651331], [2.490781, 6.3685835], [2.4892514, 6.3684559], [2.4876625, 6.3664908]]]}, "properties": {"cluster_id": 65, "matched_quartier": "Akpakpa-Dodomè", "matched_color": "#cd3bb3", "size": 2, "n_road_vertices_claimed": 19, "centroid": [2.49072915, 6.3677267], "poi_names": ["Ecole Superieure Sainte Felicite University ESSF Akpakpa Cotonou", "Clinique Akpakpa Le Belier"], "kind": "evidence_region"}}, {"type": "Feature", "geometry": {"type": "Polygon", "coordinates": [[[2.4445609, 6.3770989], [2.4445835, 6.376445], [2.4461647, 6.3764315], [2.4496333, 6.376409], [2.4496399, 6.3770911], [2.4461985, 6.3791738], [2.4445983, 6.3791555], [2.4445609, 6.3770989]]]}, "properties": {"cluster_id": 66, "matched_quartier": "Akpakpa-Dodomè", "matched_color": "#cd3bb3", "size": 2, "n_road_vertices_claimed": 17, "centroid": [2.44680065, 6.37649005], "poi_names": ["Clinical Pediatrique D'akpakpa", "Akpakpa cotonou"], "kind": "evidence_region"}}, {"type": "Feature", "geometry": {"type": "Polygon", "coordinates": [[[2.4573893, 6.3864739], [2.4592663, 6.3854804], [2.4622582, 6.3883657], [2.4579517, 6.3900537], [2.4573961, 6.3871242], [2.4573893, 6.3864739]]]}, "properties": {"cluster_id": 67, "matched_quartier": "Akpakpa-Dodomè", "matched_color": "#cd3bb3", "size": 2, "n_road_vertices_claimed": 13, "centroid": [2.4591122, 6.389019899999999], "poi_names": ["Akpakpa", "Guest house AKPAKPA - One-Bedroom Apartment"], "kind": "evidence_region"}}, {"type": "Feature", "geometry": {"type": "Polygon", "coordinates": [[[2.4364382, 6.35909], [2.4375775, 6.3576533], [2.439276, 6.3592112], [2.4390399, 6.360708], [2.4382416, 6.3613955], [2.4376929, 6.3609247], [2.4364382, 6.35909]]]}, "properties": {"cluster_id": 68, "matched_quartier": "Missèbô", "matched_color": "#db4378", "size": 2, "n_road_vertices_claimed": 13, "centroid": [2.4377193999999998, 6.359633199999999], "poi_names": ["Missebo", "Centre de santé Missebo"], "kind": "evidence_region"}}, {"type": "Feature", "geometry": {"type": "Polygon", "coordinates": [[[2.3992724, 6.3693484], [2.4028411, 6.3688161], [2.4026594, 6.368906], [2.3992724, 6.3693484]]]}, "properties": {"cluster_id": 69, "matched_quartier": "Vodjè-Finagnon", "matched_color": "#d2794a", "size": 2, "n_road_vertices_claimed": 3, "centroid": [2.4010199500000002, 6.3691951], "poi_names": ["Église baptiste de Vodje", "Mosquée VODJE"], "kind": "evidence_region"}}, {"type": "Feature", "geometry": {"type": "Polygon", "coordinates": [[[2.4040503, 6.3678552], [2.4042361, 6.3675993], [2.4052191, 6.3663872], [2.406341, 6.3672217], [2.4055268, 6.3682403], [2.4040503, 6.3678552]]]}, "properties": {"cluster_id": 70, "matched_quartier": "Vodjè-Centre", "matched_color": "#67cc42", "size": 2, "n_road_vertices_claimed": 10, "centroid": [2.40489045, 6.3678259], "poi_names": ["Ecole primaire Vodje Sud", "CARREFOUR VODJÈ RAIL"], "kind": "evidence_region"}}, {"type": "Feature", "geometry": {"type": "Polygon", "coordinates": [[[2.3894352, 6.3687871], [2.3916537, 6.3690685], [2.3914791, 6.3696899], [2.3913575, 6.3701225], [2.3901801, 6.3703115], [2.3897383, 6.3697007], [2.3894352, 6.3687871]]]}, "properties": {"cluster_id": 71, "matched_quartier": "Vodjè-Centre", "matched_color": "#67cc42", "size": 2, "n_road_vertices_claimed": 15, "centroid": [2.3912362, 6.3702928], "poi_names": ["EPUB Vodjè", "Dorcas Vodje"], "kind": "evidence_region"}}, {"type": "Feature", "geometry": {"type": "Polygon", "coordinates": [[[2.4477011, 6.3749627], [2.447717, 6.3743688], [2.4477436, 6.3737633], [2.449164, 6.3725993], [2.4523256, 6.3750427], [2.4509124, 6.3764064], [2.4502505, 6.3764077], [2.4477011, 6.3749627]]]}, "properties": {"cluster_id": 72, "matched_quartier": "Lom-Nava", "matched_color": "#da4949", "size": 2, "n_road_vertices_claimed": 17, "centroid": [2.4513022, 6.3749611], "poi_names": ["Mosquée Lom-Nava", "Yango lom-nava"], "kind": "evidence_region"}}, {"type": "Feature", "geometry": {"type": "Polygon", "coordinates": [[[2.4302825, 6.3691702], [2.4312941, 6.3691459], [2.4333452, 6.3696918], [2.4330944, 6.3700339], [2.4308884, 6.3696211], [2.4302825, 6.3691702]]]}, "properties": {"cluster_id": 73, "matched_quartier": "Dantôkpa", "matched_color": "#43df62", "size": 2, "n_road_vertices_claimed": 5, "centroid": [2.4318467999999998, 6.3695284], "poi_names": ["Commissariat Spécial de Dantokpa", "Pharmacie ESPLANADE DANTOKPA Ex 4 THÉRAPIES"], "kind": "evidence_region"}}, {"type": "Feature", "geometry": {"type": "Polygon", "coordinates": [[[2.4314363, 6.3750221], [2.4319283, 6.3744008], [2.4323603, 6.3738553], [2.4326129, 6.3740545], [2.4328283, 6.3742244], [2.4331022, 6.3744405], [2.4314363, 6.3750221]]]}, "properties": {"cluster_id": 74, "matched_quartier": "Dantôkpa", "matched_color": "#43df62", "size": 2, "n_road_vertices_claimed": 7, "centroid": [2.4319894, 6.3740912], "poi_names": ["Ceg Dantokpa", "Dantokpa"], "kind": "evidence_region"}}, {"type": "Feature", "geometry": {"type": "Polygon", "coordinates": [[[2.4088743, 6.3784123], [2.4103328, 6.3779097], [2.4116679, 6.3774659], [2.4183582, 6.3759307], [2.4173074, 6.3772498], [2.4172007, 6.3773837], [2.4150107, 6.3794551], [2.4113612, 6.3803224], [2.4101397, 6.3793935], [2.4088743, 6.3784123]]]}, "properties": {"cluster_id": 75, "matched_quartier": "Houénoussou-Sainte-Rita", "matched_color": "#ca4c82", "size": 2, "n_road_vertices_claimed": 26, "centroid": [2.41314295, 6.37743605], "poi_names": ["Office De Poste Sainte Rita", "C.E.G Sainte-Rita"], "kind": "evidence_region"}}, {"type": "Feature", "geometry": {"type": "Polygon", "coordinates": [[[2.4054701, 6.3833642], [2.4087814, 6.378531], [2.4100561, 6.3794995], [2.4112392, 6.3804543], [2.4103765, 6.3820104], [2.4074508, 6.3856935], [2.4058881, 6.3846779], [2.4054701, 6.3833642]]]}, "properties": {"cluster_id": 76, "matched_quartier": "Houénoussou-Sainte-Rita", "matched_color": "#ca4c82", "size": 2, "n_road_vertices_claimed": 28, "centroid": [2.4069328, 6.38315995], "poi_names": ["Ste Rita houénoussou", "Pharmacie Sainte Rita"], "kind": "evidence_region"}}, {"type": "Feature", "geometry": {"type": "Polygon", "coordinates": [[[2.3489948, 6.3533763], [2.3509534, 6.3523083], [2.3573437, 6.3527846], [2.357271, 6.3549706], [2.3564539, 6.3549421], [2.3555228, 6.354906], [2.3489948, 6.3533763]]]}, "properties": {"cluster_id": 78, "matched_quartier": "Fidjrossè-Kpota", "matched_color": "#53ce4b", "size": 2, "n_road_vertices_claimed": 26, "centroid": [2.3560416999999996, 6.35389505], "poi_names": ["Pharmacie Fidjrossè Plage", "Fidjrossè Barbershop"], "kind": "evidence_region"}}, {"type": "Feature", "geometry": {"type": "Polygon", "coordinates": [[[2.4279158, 6.356331], [2.4291713, 6.356204], [2.4289607, 6.3562261], [2.4279158, 6.356331]]]}, "properties": {"cluster_id": 79, "matched_quartier": "Fidjrossè-Centre", "matched_color": "#d77c47", "size": 2, "n_road_vertices_claimed": 3, "centroid": [2.4277995, 6.356242549999999], "poi_names": ["QG Fidjrossè", "Chambre salon fidjrossè Bénin"], "kind": "evidence_region"}}, {"type": "Feature", "geometry": {"type": "Polygon", "coordinates": [[[2.401855, 6.360726], [2.4022005, 6.3602677], [2.4033532, 6.3596284], [2.406402, 6.3589973], [2.4069513, 6.3632047], [2.4062075, 6.3641295], [2.4044105, 6.3642082], [2.4027395, 6.363682], [2.401855, 6.360726]]]}, "properties": {"cluster_id": 81, "matched_quartier": "Cadjèhoun-Aupiais", "matched_color": "#d6c34a", "size": 2, "n_road_vertices_claimed": 29, "centroid": [2.4057281, 6.359763549999999], "poi_names": ["Cycle Preparatory Père Aupiais", "Clinical International De Cotonou Aupiais"], "kind": "evidence_region"}}, {"type": "Feature", "geometry": {"type": "Polygon", "coordinates": [[[2.3464729, 6.3904051], [2.3475237, 6.38819], [2.3478194, 6.3881027], [2.3485074, 6.3885293], [2.3474241, 6.3904245], [2.3472132, 6.3907276], [2.3464729, 6.3904051]]]}, "properties": {"cluster_id": 82, "matched_quartier": "Cadjèhoun-Aupiais", "matched_color": "#d6c34a", "size": 2, "n_road_vertices_claimed": 18, "centroid": [2.3474538999999996, 6.388672549999999], "poi_names": ["Middle School Catholic Père Aupiais De Godomey", "Middle School Catholic Père Aupiais"], "kind": "evidence_region"}}, {"type": "Feature", "geometry": {"type": "Polygon", "coordinates": [[[2.4000051, 6.3561972], [2.400207, 6.3560571], [2.4011435, 6.3556564], [2.4022333, 6.3595037], [2.4015796, 6.3594345], [2.4000051, 6.3561972]]]}, "properties": {"cluster_id": 84, "matched_quartier": "Cadjèhoun-Gare", "matched_color": "#49cb78", "size": 2, "n_road_vertices_claimed": 6, "centroid": [2.4008588, 6.3579811], "poi_names": ["Station Bénin Pétro Cadjehoun (Ex SONACOP)", "Wôkôli Cadjehoun"], "kind": "evidence_region"}}, {"type": "Feature", "geometry": {"type": "Polygon", "coordinates": [[[2.4572591, 6.3822674], [2.4594972, 6.3766287], [2.4601585, 6.3762961], [2.4609494, 6.3762887], [2.4615514, 6.3762841], [2.4622017, 6.3822271], [2.4593964, 6.3822578], [2.4592293, 6.3822594], [2.4572591, 6.3822674]]]}, "properties": {"cluster_id": 85, "matched_quartier": "Sènadé", "matched_color": "#d38544", "size": 2, "n_road_vertices_claimed": 22, "centroid": [2.4603797, 6.37898595], "poi_names": ["Clinique ADEOLA de Sènadé", "SanlamAllianz Assurances Sènadé #Cotonou & #environs"], "kind": "evidence_region"}}, {"type": "Feature", "geometry": {"type": "Polygon", "coordinates": [[[2.3694547, 6.6955225], [2.3703589883235985, 6.702393472470568], [2.3698644, 6.7014615], [2.3697396, 6.7011207], [2.3696914, 6.7008431], [2.3696807, 6.700622], [2.3694547, 6.6955225]]]}, "properties": {"cluster_id": 86, "matched_quartier": "Xwlacôdji-Plage", "matched_color": "#ce624c", "size": 2, "n_road_vertices_claimed": 7, "centroid": [6.53263415, 43.17364195], "poi_names": ["Salon de la Plage", "PHARMACIE DE LA PLAGE SELAS DEBIARD SN"], "kind": "evidence_region"}}, {"type": "Feature", "geometry": {"type": "Polygon", "coordinates": [[[2.4256126, 6.3530463], [2.4259575, 6.3531907], [2.4260004, 6.3539011], [2.4256126, 6.3530463]]]}, "properties": {"cluster_id": 88, "matched_quartier": "Zongo-Nima", "matched_color": "#d440ad", "size": 2, "n_road_vertices_claimed": 4, "centroid": [2.4253098499999997, 6.3547619], "poi_names": ["Zongo-Nima", "Parking Zongo - Port Autonome de Cotonou"], "kind": "evidence_region"}}, {"type": "Feature", "geometry": {"type": "Polygon", "coordinates": [[[2.4081838, 6.362618], [2.4085191, 6.3621628], [2.4096993, 6.3606654], [2.4104007, 6.361647], [2.4081838, 6.362618]]]}, "properties": {"cluster_id": 90, "matched_quartier": "Zongo-Ehuzu", "matched_color": "#8dc93f", "size": 2, "n_road_vertices_claimed": 8, "centroid": [2.408512, 6.3622644], "poi_names": ["AFG ASSURANCES / AGENCE SICA ZONGO", "La Maison Du Lait Caillé Zongo"], "kind": "evidence_region"}}, {"type": "Feature", "geometry": {"type": "Polygon", "coordinates": [[[2.4207067, 6.3846021], [2.4218872, 6.3825836], [2.4229645, 6.383384], [2.4235317, 6.3841062], [2.424261, 6.3873664], [2.4237286, 6.3883599], [2.42262, 6.3884848], [2.4207067, 6.3846021]]]}, "properties": {"cluster_id": 91, "matched_quartier": "Ahouansori-Towéta", "matched_color": "#d1713e", "size": 2, "n_road_vertices_claimed": 22, "centroid": [2.4222235, 6.386832], "poi_names": ["Ahouansori-Ague", "Centre de santé de Ahouansori Ague"], "kind": "evidence_region"}}, {"type": "Feature", "geometry": {"type": "Polygon", "coordinates": [[[2.4830421, 6.3685091], [2.4831675, 6.3672438], [2.4834801, 6.3640899], [2.4853328, 6.3612772], [2.4851595, 6.3631302], [2.4847611, 6.367389], [2.4845948, 6.3686714], [2.4830421, 6.3685091]]]}, "properties": {"cluster_id": 92, "matched_quartier": "Tokplégbé", "matched_color": "#c74886", "size": 2, "n_road_vertices_claimed": 23, "centroid": [2.48482235, 6.3677966999999995], "poi_names": ["Tokplegbe Market", "CIMBENIN - Dépôt Tokplégbé"], "kind": "evidence_region"}}, {"type": "Feature", "geometry": {"type": "Polygon", "coordinates": [[[2.3941771, 6.3908466], [2.3953634, 6.3908152], [2.3952993, 6.3914334], [2.3952353, 6.392024], [2.3942913, 6.3914316], [2.3941771, 6.3908466]]]}, "properties": {"cluster_id": 93, "matched_quartier": "Zogbo", "matched_color": "#88d14f", "size": 2, "n_road_vertices_claimed": 7, "centroid": [2.3942746999999995, 6.391033049999999], "poi_names": ["C.E.G Zogbo", "Clinique Saint Antoine de Padoue de Zogbo"], "kind": "evidence_region"}}, {"type": "Feature", "geometry": {"type": "Polygon", "coordinates": [[[2.3471703, 6.373987], [2.3521323, 6.3723168], [2.3524812, 6.37326], [2.3526064, 6.3738374], [2.3514309, 6.3743535], [2.3509208, 6.3745578], [2.3479789, 6.3752159], [2.3471703, 6.373987]]]}, "properties": {"cluster_id": 94, "matched_quartier": "Agla-Petit-Château", "matched_color": "#44d079", "size": 2, "n_road_vertices_claimed": 18, "centroid": [2.35044625, 6.374020649999999], "poi_names": ["Station JNP Agla petit à petit 2", "PETIT A PETIT MECHE - AGLA"], "kind": "evidence_region"}}, {"type": "Feature", "geometry": {"type": "Polygon", "coordinates": [[[2.4251879, 6.3691047], [2.4256564, 6.368522], [2.4272885, 6.36978], [2.4262085, 6.3718274], [2.4258982, 6.3722231], [2.4251879, 6.3691047]]]}, "properties": {"cluster_id": 95, "matched_quartier": "Jéricho-Nord", "matched_color": "#4ac7a3", "size": 2, "n_road_vertices_claimed": 8, "centroid": [2.42602755, 6.37117495], "poi_names": ["Guichet De La Poste Jéricho", "Carrefour Bibe Jericho, Cotonou"], "kind": "evidence_region"}}, {"type": "Feature", "geometry": {"type": "Polygon", "coordinates": [[[2.422674, 6.3763355], [2.4230439, 6.3758636], [2.4234177, 6.3753869], [2.4252396, 6.3776037], [2.4269821, 6.3797821], [2.4250935, 6.3812726], [2.4236459, 6.3801221], [2.422674, 6.3763355]]]}, "properties": {"cluster_id": 96, "matched_quartier": "Jéricho-Nord", "matched_color": "#4ac7a3", "size": 2, "n_road_vertices_claimed": 22, "centroid": [2.42405795, 6.3768600499999994], "poi_names": ["HECM SIEGE JERICHO", "Pharmacie Jericho"], "kind": "evidence_region"}}, {"type": "Feature", "geometry": {"type": "Polygon", "coordinates": [[[2.4434511, 6.3896932], [2.4434652, 6.3872243], [2.4446789, 6.3866173], [2.4469977, 6.3855568], [2.4477437, 6.3865708], [2.447749, 6.3872027], [2.4477541, 6.3878171], [2.444813, 6.391335], [2.4436185, 6.3907896], [2.4434511, 6.3896932]]]}, "properties": {"cluster_id": 98, "matched_quartier": "Sègbèya-Sud", "matched_color": "#42c8b0", "size": 2, "n_road_vertices_claimed": 36, "centroid": [2.4459387, 6.3871395500000006], "poi_names": ["Cabinet Médical Segbeya", "Petrodis segbeya"], "kind": "evidence_region"}}, {"type": "Feature", "geometry": {"type": "Polygon", "coordinates": [[[2.3508347929415305, 6.701585302841637], [2.3510546, 6.7010065], [2.3512693, 6.7005835], [2.3515341, 6.7002104], [2.3519313, 6.6997697], [2.3533968, 6.6982484], [2.3537546, 6.6979285], [2.3540838, 6.6977259], [2.3544918, 6.6975411], [2.3550572, 6.6973776], [2.3556762, 6.697271], [2.3508347929415305, 6.701585302841637]]]}, "properties": {"cluster_id": 100, "matched_quartier": "Sèdjro-Saint-Michel", "matched_color": "#dc53ca", "size": 2, "n_road_vertices_claimed": 16, "centroid": [0.107021, 45.6414024], "poi_names": ["Signature C&J - Coiffeur Saint-Michel", "Coiffeur Saint Michel"], "kind": "evidence_region"}}, {"type": "Feature", "geometry": {"type": "Polygon", "coordinates": [[[2.3895055, 6.3567958], [2.3895666, 6.3562803], [2.3900708, 6.3560832], [2.3925828, 6.3559906], [2.3941681, 6.3559619], [2.3941632, 6.356664], [2.3913167, 6.358121], [2.3905342, 6.3577518], [2.389983, 6.3573581], [2.3895055, 6.3567958]]]}, "properties": {"cluster_id": 102, "matched_quartier": "Haie-Vive-Cocotiers", "matched_color": "#d6ca4b", "size": 2, "n_road_vertices_claimed": 25, "centroid": [2.3904228499999998, 6.3562914], "poi_names": ["Cabinet dentaire \"Les Cocotiers\"", "Etrilabs Cotonou Cocotiers"], "kind": "evidence_region"}}, {"type": "Feature", "geometry": {"type": "Polygon", "coordinates": [[[2.4592539, 6.3934169], [2.4592825, 6.3905336], [2.4599151, 6.3900344], [2.4648449, 6.3895322], [2.4643023, 6.3904654], [2.460704, 6.3934431], [2.4592539, 6.3934169]]]}, "properties": {"cluster_id": 103, "matched_quartier": "Yénawa-Fifadji", "matched_color": "#b2c93f", "size": 2, "n_road_vertices_claimed": 29, "centroid": [2.4611707000000003, 6.390428200000001], "poi_names": ["AKPAKPA YENAWA vodoun hontô", "Impact Centre Chrétien Yenawa"], "kind": "evidence_region"}}, {"type": "Feature", "geometry": {"type": "Polygon", "coordinates": [[[2.2282123, 6.3662553], [2.2284204, 6.3657955], [2.2287356, 6.3652173], [2.2297895, 6.3668279], [2.2296225, 6.3671603], [2.2282123, 6.3662553]]]}, "properties": {"cluster_id": 104, "matched_quartier": "Avlékété-Joncquet", "matched_color": "#c4d747", "size": 2, "n_road_vertices_claimed": 10, "centroid": [2.2021493999999997, 6.3491978], "poi_names": ["Avlekete", "BAR RESTAURANT LE PAPILLON , AVLEKETE , OUIDAH,RUE DE LA SAGESSE"], "kind": "evidence_region"}}, {"type": "Feature", "geometry": {"type": "Polygon", "coordinates": [[[2.3582813, 6.3802366], [2.3587507, 6.3792316], [2.3592979, 6.3789637], [2.3625192, 6.3781014], [2.3614946, 6.3792929], [2.359326, 6.3802353], [2.3587695, 6.380236], [2.3582813, 6.3802366]]]}, "properties": {"cluster_id": 105, "matched_quartier": "Ayélawadjè-Agongbomè", "matched_color": "#83ce4d", "size": 2, "n_road_vertices_claimed": 12, "centroid": [2.3603585, 6.37967635], "poi_names": ["Agla Agongbomey", "Agla Agongbomey ECC"], "kind": "evidence_region"}}, {"type": "Feature", "geometry": {"type": "Polygon", "coordinates": [[[2.4458881, 6.3886745], [2.4469539, 6.3886553], [2.4469693, 6.3918308], [2.4459058, 6.3912503], [2.4458881, 6.3886745]]]}, "properties": {"cluster_id": 106, "matched_quartier": "Ayélawadjè-Agongbomè", "matched_color": "#83ce4d", "size": 2, "n_road_vertices_claimed": 12, "centroid": [2.44695115, 6.38991155], "poi_names": ["Mosquée Agongbomè", "Église adventiste du 7ème jour AGONGBOMEY"], "kind": "evidence_region"}}, {"type": "Feature", "geometry": {"type": "Polygon", "coordinates": [[[2.4470626, 6.3918087], [2.4481172, 6.3918142], [2.4470879, 6.3927713], [2.4470626, 6.3918087]]]}, "properties": {"cluster_id": 107, "matched_quartier": "Ayélawadjè", "matched_color": "#b24bc6", "size": 2, "n_road_vertices_claimed": 4, "centroid": [2.44683515, 6.3926622], "poi_names": ["Ayelawadje", "Mosquée Ayelawadjè"], "kind": "evidence_region"}}, {"type": "Feature", "geometry": {"type": "Polygon", "coordinates": [[[2.46505, 6.3749314], [2.4681306, 6.3769438], [2.4658486, 6.3769695], [2.4650677, 6.3755995], [2.46505, 6.3749314]]]}, "properties": {"cluster_id": 108, "matched_quartier": "Suru-Léré", "matched_color": "#ca4c98", "size": 2, "n_road_vertices_claimed": 6, "centroid": [2.4660173499999996, 6.37649545], "poi_names": ["Église Évangélique des Assemblées de Dieu Akpakpa Suru-Léré", "Poissonnerie Saint Paul suru-léré 2"], "kind": "evidence_region"}}, {"type": "Feature", "geometry": {"type": "Polygon", "coordinates": [[[2.4658504, 6.3801276], [2.4675475, 6.3802655], [2.4681579, 6.3808903], [2.4681671, 6.3822219], [2.4681832, 6.3845612], [2.4664722, 6.3851475], [2.4659008, 6.3851511], [2.4658598, 6.3822631], [2.4658504, 6.3801276]]]}, "properties": {"cluster_id": 109, "matched_quartier": "Suru-Léré", "matched_color": "#ca4c98", "size": 2, "n_road_vertices_claimed": 23, "centroid": [2.46661385, 6.381909499999999], "poi_names": ["Akpakpa suru-lere", "Suru-Lere"], "kind": "evidence_region"}}, {"type": "Feature", "geometry": {"type": "Polygon", "coordinates": [[[2.3331209, 6.4081686], [2.3348013, 6.4066654], [2.3352106, 6.4064902], [2.3361073, 6.4062519], [2.3393648, 6.4076119], [2.3371895, 6.4095418], [2.3343763, 6.4095734], [2.3331209, 6.4081686]]]}, "properties": {"cluster_id": 111, "matched_quartier": "Godomey-Togoudo", "matched_color": "#c93d4b", "size": 2, "n_road_vertices_claimed": 40, "centroid": [2.337601, 6.40797255], "poi_names": ["Église Protestante Togoudo", "EPMB Temple Cité d'Amour de Togoudo"], "kind": "evidence_region"}}, {"type": "Feature", "geometry": {"type": "Polygon", "coordinates": [[[2.3441434, 6.3955369], [2.3452168, 6.3946762], [2.3460112, 6.3940771], [2.3471349, 6.3941384], [2.3482499, 6.3953822], [2.3473269, 6.3989949], [2.3466706, 6.3985378], [2.3441434, 6.3955369]]]}, "properties": {"cluster_id": 112, "matched_quartier": "Godomey-Togoudo", "matched_color": "#c93d4b", "size": 2, "n_road_vertices_claimed": 31, "centroid": [2.3449916999999996, 6.39561735], "poi_names": ["Marché de Godomey", "Terrain de foot de Godomey"], "kind": "evidence_region"}}, {"type": "Feature", "geometry": {"type": "Polygon", "coordinates": [[[2.2811259, 6.3852675], [2.2813877, 6.3848214], [2.2823346, 6.383259], [2.2857328, 6.3835622], [2.2877231, 6.3860449], [2.287219, 6.3863237], [2.2856892, 6.3864188], [2.2851813, 6.3864455], [2.2838029, 6.3864315], [2.2823742, 6.3860984], [2.2811259, 6.3852675]]]}, "properties": {"cluster_id": 114, "matched_quartier": "Cococodji", "matched_color": "#ad45c8", "size": 2, "n_road_vertices_claimed": 42, "centroid": [2.2870765, 6.38553875], "poi_names": ["Marché moderne cococodji", "Epp Cococodji Gbodjè"], "kind": "evidence_region"}}, {"type": "Feature", "geometry": {"type": "Polygon", "coordinates": [[[2.3646103, 6.4955204], [2.3652627, 6.4950014], [2.3672619, 6.497781], [2.3674013, 6.498082], [2.3674442, 6.4982499], [2.3674416, 6.4984471], [2.3673952, 6.4986392], [2.3646103, 6.4955204]]]}, "properties": {"cluster_id": 115, "matched_quartier": "Houèkè-Honou", "matched_color": "#4dd6af", "size": 2, "n_road_vertices_claimed": 14, "centroid": [2.36679695, 6.4968067], "poi_names": ["Eglise Catholique HOUÈKÈ-HONOU", "EEAD HOUÊKÊ-HONOU"], "kind": "evidence_region"}}, {"type": "Feature", "geometry": {"type": "Polygon", "coordinates": [[[2.3496238, 6.3873044], [2.3515171, 6.3887617], [2.3530275, 6.3903675], [2.3528698, 6.3909954], [2.351193, 6.3926958], [2.3505228, 6.392569], [2.3496238, 6.3873044]]]}, "properties": {"cluster_id": 117, "matched_quartier": "Godomey-N'Gbèho", "matched_color": "#cb7746", "size": 2, "n_road_vertices_claimed": 30, "centroid": [2.35027565, 6.3898119], "poi_names": ["Mosquée centrale DINA de Godomey", "Ecobank Godomey Ouidah"], "kind": "evidence_region"}}, {"type": "Feature", "geometry": {"type": "Polygon", "coordinates": [[[2.3920801, 6.3532266], [2.3953485, 6.3515472], [2.3959279, 6.3524537], [2.3940964, 6.3536595], [2.393669, 6.3536932], [2.3934732, 6.3536985], [2.3920916, 6.3537295], [2.3920801, 6.3532266]]]}, "properties": {"cluster_id": 119, "matched_quartier": "Sèmè", "matched_color": "#44df9e", "size": 2, "n_road_vertices_claimed": 18, "centroid": [2.39444385, 6.352920299999999], "poi_names": ["Sèmè City Open Park (SCOP)", "Sèmè One"], "kind": "evidence_region"}}, {"type": "Feature", "geometry": {"type": "Polygon", "coordinates": [[[2.3122935, 6.4609871], [2.3124732, 6.4574317], [2.3171019, 6.4541766], [2.3186442, 6.4541148], [2.324986, 6.4571373], [2.3229714, 6.4578168], [2.3223411, 6.4580207], [2.3213688, 6.4583232], [2.3209047, 6.4584658], [2.3122935, 6.4609871]]]}, "properties": {"cluster_id": 120, "matched_quartier": "Tokan", "matched_color": "#d344ad", "size": 2, "n_road_vertices_claimed": 73, "centroid": [2.31808365, 6.45889825], "poi_names": ["Marché de TOKAN Abomey calavi", "Tokan Carrefour"], "kind": "evidence_region"}}, {"type": "Feature", "geometry": {"type": "Polygon", "coordinates": [[[2.2976256, 6.3940205], [2.2981088, 6.3893792], [2.2983129, 6.3898267], [2.3020132, 6.3980959], [2.3019945, 6.398561], [2.3014527, 6.3990275], [2.2998996, 6.3992115], [2.2991064, 6.3990393], [2.2986665, 6.3984262], [2.2983031, 6.3971695], [2.2976256, 6.3940205]]]}, "properties": {"cluster_id": 122, "matched_quartier": "Cocotomey", "matched_color": "#88d347", "size": 2, "n_road_vertices_claimed": 66, "centroid": [2.2996558, 6.395829099999999], "poi_names": ["Ceg Cocotomey", "Église évangélique MEA de Cocotomey"], "kind": "evidence_region"}}, {"type": "Feature", "geometry": {"type": "Polygon", "coordinates": [[[2.2888854, 6.3818167], [2.2922775, 6.3774777], [2.2965786, 6.3795123], [2.29742, 6.3802358], [2.2976077, 6.3806099], [2.2978582, 6.3812609], [2.2967687, 6.3823797], [2.2960188, 6.3828637], [2.2944563, 6.3836034], [2.2924347, 6.3842997], [2.2915694, 6.3843576], [2.2888854, 6.3818167]]]}, "properties": {"cluster_id": 123, "matched_quartier": "Cocotomey", "matched_color": "#88d347", "size": 2, "n_road_vertices_claimed": 92, "centroid": [2.29289225, 6.3831947], "poi_names": ["Middle School Martin Luther King Annexe De Cocotomey", "Église FOURSQUARE Zounga-Cocotomey"], "kind": "evidence_region"}}, {"type": "Feature", "geometry": {"type": "Polygon", "coordinates": [[[2.2837748, 6.449176], [2.2840226, 6.4473806], [2.284584, 6.4448236], [2.2901864, 6.4425321], [2.2890495, 6.4449017], [2.286971, 6.4466431], [2.2837748, 6.449176]]]}, "properties": {"cluster_id": 125, "matched_quartier": "Ouèdo", "matched_color": "#49cb90", "size": 2, "n_road_vertices_claimed": 37, "centroid": [2.28630275, 6.444786349999999], "poi_names": ["Cité de Ouèdo", "Programme de logements Economique Ouèdo"], "kind": "evidence_region"}}, {"type": "Feature", "geometry": {"type": "Polygon", "coordinates": [[[2.2949651, 6.4090402], [2.301476, 6.4069465], [2.3020842, 6.4083226], [2.3021579, 6.4085535], [2.3021577, 6.4087088], [2.2990766, 6.4103982], [2.2950402, 6.4093001], [2.2949651, 6.4090402]]]}, "properties": {"cluster_id": 126, "matched_quartier": "Womey-Yénawa", "matched_color": "#c93e43", "size": 2, "n_road_vertices_claimed": 32, "centroid": [2.2975351, 6.409084099999999], "poi_names": ["Mosquée centrale womey yenawa", "Hôpital centre de santé de womey"], "kind": "evidence_region"}}]}