{"type": "FeatureCollection", "features": [{"type": "Feature", "geometry": {"type": "Point", "coordinates": [2.4491673499999997, 6.3722809]}, "properties": {"edge_length_m": 70.4, "X": "Ayélawadjè", "Y": "Fifatin", "X_side_m": 35.2, "Y_side_m": 35.2, "split_t": 0.5}}, {"type": "Feature", "geometry": {"type": "Point", "coordinates": [2.4041748923523825, 6.3610443295978705]}, "properties": {"edge_length_m": 171.1, "X": "Cadjèhoun-Aupiais", "Y": "Cadjèhoun-Azalokogon", "X_side_m": 54.6, "Y_side_m": 116.5, "split_t": 0.319}}, {"type": "Feature", "geometry": {"type": "Point", "coordinates": [2.4045496346387316, 6.360555918792518]}, "properties": {"edge_length_m": 174.7, "X": "Cadjèhoun-Aupiais", "Y": "Cadjèhoun-Azalokogon", "X_side_m": 55.2, "Y_side_m": 119.5, "split_t": 0.316}}, {"type": "Feature", "geometry": {"type": "Point", "coordinates": [2.4040987788520396, 6.35947502003519]}, "properties": {"edge_length_m": 274.8, "X": "Cadjèhoun-Aupiais", "Y": "Cadjèhoun-Kpota", "X_side_m": 168.1, "Y_side_m": 106.6, "split_t": 0.612}}, {"type": "Feature", "geometry": {"type": "Point", "coordinates": [2.4063004963553083, 6.360427954615075]}, "properties": {"edge_length_m": 177.0, "X": "Cadjèhoun-Aupiais", "Y": "Gbégamey-Centre", "X_side_m": 88.6, "Y_side_m": 88.4, "split_t": 0.501}}, {"type": "Feature", "geometry": {"type": "Point", "coordinates": [2.40543655, 6.3597763]}, "properties": {"edge_length_m": 62.3, "X": "Cadjèhoun-Aupiais", "Y": "Cadjèhoun-Azalokogon", "X_side_m": 31.1, "Y_side_m": 31.1, "split_t": 0.5}}, {"type": "Feature", "geometry": {"type": "Point", "coordinates": [2.407126591500559, 6.360325862885093]}, "properties": {"edge_length_m": 176.3, "X": "Cadjèhoun-Aupiais", "Y": "Gbégamey-Centre", "X_side_m": 153.6, "Y_side_m": 22.7, "split_t": 0.871}}, {"type": "Feature", "geometry": {"type": "Point", "coordinates": [2.4071965535913873, 6.35960960262455]}, "properties": {"edge_length_m": 175.7, "X": "Cadjèhoun-Aupiais", "Y": "Gbégamey-Centre", "X_side_m": 110.9, "Y_side_m": 64.7, "split_t": 0.632}}, {"type": "Feature", "geometry": {"type": "Point", "coordinates": [2.425086648669542, 6.36325089768066]}, "properties": {"edge_length_m": 149.7, "X": "Sèdjro-Saint-Michel", "Y": "Gbéto", "X_side_m": 74.7, "Y_side_m": 75.0, "split_t": 0.499}}, {"type": "Feature", "geometry": {"type": "Point", "coordinates": [2.425681018253, 6.3637244386091885]}, "properties": {"edge_length_m": 29.7, "X": "Gbéto", "Y": "Sèdjro-Saint-Michel", "X_side_m": 9.0, "Y_side_m": 20.6, "split_t": 0.305}}, {"type": "Feature", "geometry": {"type": "Point", "coordinates": [2.39855735, 6.3565397]}, "properties": {"edge_length_m": 124.3, "X": "Cadjèhoun-Gare", "Y": "Cadjèhoun-Azalokogon", "X_side_m": 62.1, "Y_side_m": 62.1, "split_t": 0.5}}, {"type": "Feature", "geometry": {"type": "Point", "coordinates": [2.4253902631999997, 6.3702007903]}, "properties": {"edge_length_m": 162.3, "X": "Sèdjro-Saint-Michel", "Y": "Jéricho-Nord", "X_side_m": 162.2, "Y_side_m": 0.2, "split_t": 0.999}}, {"type": "Feature", "geometry": {"type": "Point", "coordinates": [2.3897132261, 6.376879698]}, "properties": {"edge_length_m": 2.9, "X": "Védokô", "Y": "Houéyihô", "X_side_m": 0.0, "Y_side_m": 2.9, "split_t": 0.001}}, {"type": "Feature", "geometry": {"type": "Point", "coordinates": [2.4254421450283083, 6.363651537087673]}, "properties": {"edge_length_m": 10.1, "X": "Sèdjro-Saint-Michel", "Y": "Gbéto", "X_side_m": 8.8, "Y_side_m": 1.2, "split_t": 0.877}}, {"type": "Feature", "geometry": {"type": "Point", "coordinates": [2.424723195777928, 6.377194501721652]}, "properties": {"edge_length_m": 109.2, "X": "Jéricho-Nord", "Y": "Aïdjèdo", "X_side_m": 72.9, "Y_side_m": 36.3, "split_t": 0.668}}, {"type": "Feature", "geometry": {"type": "Point", "coordinates": [2.425323994990536, 6.377112569049055]}, "properties": {"edge_length_m": 75.9, "X": "Jéricho-Nord", "Y": "Aïdjèdo", "X_side_m": 55.1, "Y_side_m": 20.8, "split_t": 0.726}}, {"type": "Feature", "geometry": {"type": "Point", "coordinates": [2.4242048134000003, 6.374385924799999]}, "properties": {"edge_length_m": 199.8, "X": "Aïdjèdo", "Y": "Aïdjèdo-Ahito", "X_side_m": 199.6, "Y_side_m": 0.2, "split_t": 0.999}}, {"type": "Feature", "geometry": {"type": "Point", "coordinates": [2.4242838494, 6.3833224976]}, "properties": {"edge_length_m": 5.5, "X": "Aïdjèdo", "Y": "Ahouansouri-Agata", "X_side_m": 5.5, "Y_side_m": 0.0, "split_t": 0.999}}, {"type": "Feature", "geometry": {"type": "Point", "coordinates": [2.4242564807057008, 6.3834643172921535]}, "properties": {"edge_length_m": 35.5, "X": "Ahouansouri-Agata", "Y": "Aïdjèdo", "X_side_m": 16.0, "Y_side_m": 19.5, "split_t": 0.45}}, {"type": "Feature", "geometry": {"type": "Point", "coordinates": [2.4241369414, 6.3832950211]}, "properties": {"edge_length_m": 36.1, "X": "Ahouansouri-Agata", "Y": "Aïdjèdo", "X_side_m": 0.0, "Y_side_m": 36.0, "split_t": 0.001}}, {"type": "Feature", "geometry": {"type": "Point", "coordinates": [2.4238767, 6.3829860499999995]}, "properties": {"edge_length_m": 5.5, "X": "Ahouansouri-Agata", "Y": "Aïdjèdo", "X_side_m": 2.7, "Y_side_m": 2.7, "split_t": 0.5}}, {"type": "Feature", "geometry": {"type": "Point", "coordinates": [2.4010673221195766, 6.360396143457742]}, "properties": {"edge_length_m": 64.0, "X": "Cadjèhoun-Kpota", "Y": "Cadjèhoun-Gare", "X_side_m": 42.3, "Y_side_m": 21.7, "split_t": 0.661}}, {"type": "Feature", "geometry": {"type": "Point", "coordinates": [2.40314065, 6.3606218000000005]}, "properties": {"edge_length_m": 66.0, "X": "Cadjèhoun-Kpota", "Y": "Cadjèhoun-Azalokogon", "X_side_m": 33.0, "Y_side_m": 33.0, "split_t": 0.5}}, {"type": "Feature", "geometry": {"type": "Point", "coordinates": [2.402783860079599, 6.359949585571372]}, "properties": {"edge_length_m": 157.6, "X": "Cadjèhoun-Azalokogon", "Y": "Cadjèhoun-Gare", "X_side_m": 79.3, "Y_side_m": 78.4, "split_t": 0.503}}, {"type": "Feature", "geometry": {"type": "Point", "coordinates": [2.403485872386825, 6.3597255439425675]}, "properties": {"edge_length_m": 48.0, "X": "Cadjèhoun-Azalokogon", "Y": "Cadjèhoun-Kpota", "X_side_m": 29.8, "Y_side_m": 18.2, "split_t": 0.621}}, {"type": "Feature", "geometry": {"type": "Point", "coordinates": [2.4021998271, 6.3602671841]}, "properties": {"edge_length_m": 93.8, "X": "Cadjèhoun-Kpota", "Y": "Cadjèhoun-Gare", "X_side_m": 0.1, "Y_side_m": 93.7, "split_t": 0.001}}, {"type": "Feature", "geometry": {"type": "Point", "coordinates": [2.3995342034512337, 6.358208344138679]}, "properties": {"edge_length_m": 188.3, "X": "Cadjèhoun-Gare", "Y": "Cadjèhoun-Kpota", "X_side_m": 131.2, "Y_side_m": 57.1, "split_t": 0.697}}, {"type": "Feature", "geometry": {"type": "Point", "coordinates": [2.3992094341692622, 6.357549032597747]}, "properties": {"edge_length_m": 69.4, "X": "Cadjèhoun-Kpota", "Y": "Cadjèhoun-Gare", "X_side_m": 39.1, "Y_side_m": 30.3, "split_t": 0.564}}, {"type": "Feature", "geometry": {"type": "Point", "coordinates": [2.4024161722336834, 6.359520619669568]}, "properties": {"edge_length_m": 113.4, "X": "Cadjèhoun-Gare", "Y": "Cadjèhoun-Kpota", "X_side_m": 20.3, "Y_side_m": 93.0, "split_t": 0.179}}, {"type": "Feature", "geometry": {"type": "Point", "coordinates": [2.40039329277572, 6.359603105416376]}, "properties": {"edge_length_m": 161.9, "X": "Cadjèhoun-Gare", "Y": "Cadjèhoun-Kpota", "X_side_m": 27.1, "Y_side_m": 134.8, "split_t": 0.167}}, {"type": "Feature", "geometry": {"type": "Point", "coordinates": [2.412956757141174, 6.361379591780144]}, "properties": {"edge_length_m": 232.3, "X": "Gbégamey-Dodo-Ayidjè", "Y": "Gbégamey-Ahito", "X_side_m": 120.1, "Y_side_m": 112.2, "split_t": 0.517}}, {"type": "Feature", "geometry": {"type": "Point", "coordinates": [2.41381415, 6.362046100000001]}, "properties": {"edge_length_m": 3.3, "X": "Gbégamey-Dodo-Ayidjè", "Y": "Gbégamey-Centre", "X_side_m": 1.7, "Y_side_m": 1.7, "split_t": 0.5}}, {"type": "Feature", "geometry": {"type": "Point", "coordinates": [2.4106131039000003, 6.363787174]}, "properties": {"edge_length_m": 293.4, "X": "Gbégamey-Mifongou", "Y": "Gbégamey-Centre", "X_side_m": 0.3, "Y_side_m": 293.1, "split_t": 0.001}}, {"type": "Feature", "geometry": {"type": "Point", "coordinates": [2.4105829965912124, 6.363803723396291]}, "properties": {"edge_length_m": 71.1, "X": "Gbégamey-Mifongou", "Y": "Gbégamey-Dodo-Ayidjè", "X_side_m": 3.9, "Y_side_m": 67.2, "split_t": 0.055}}, {"type": "Feature", "geometry": {"type": "Point", "coordinates": [2.4100298521, 6.3640577588]}, "properties": {"edge_length_m": 259.2, "X": "Gbégamey-Dodo-Ayidjè", "Y": "Gbégamey-Centre", "X_side_m": 0.3, "Y_side_m": 258.9, "split_t": 0.001}}, {"type": "Feature", "geometry": {"type": "Point", "coordinates": [2.4094003319999997, 6.364351807099999]}, "properties": {"edge_length_m": 77.0, "X": "Gbégamey-Dodo-Ayidjè", "Y": "Gbégamey-Centre", "X_side_m": 77.0, "Y_side_m": 0.1, "split_t": 0.999}}, {"type": "Feature", "geometry": {"type": "Point", "coordinates": [2.4094004970999996, 6.364352708999999]}, "properties": {"edge_length_m": 110.9, "X": "Gbégamey-Centre", "Y": "Gbégamey-Dodo-Ayidjè", "X_side_m": 0.1, "Y_side_m": 110.8, "split_t": 0.001}}, {"type": "Feature", "geometry": {"type": "Point", "coordinates": [2.4078526499999997, 6.3650614]}, "properties": {"edge_length_m": 76.7, "X": "Gbégamey-Centre", "Y": "Gbégamey-Dodo-Ayidjè", "X_side_m": 38.3, "Y_side_m": 38.3, "split_t": 0.5}}, {"type": "Feature", "geometry": {"type": "Point", "coordinates": [2.4078924489909688, 6.365271859219802]}, "properties": {"edge_length_m": 65.5, "X": "Gbégamey-Centre", "Y": "Gbégamey-Dodo-Ayidjè", "X_side_m": 49.0, "Y_side_m": 16.5, "split_t": 0.748}}, {"type": "Feature", "geometry": {"type": "Point", "coordinates": [2.4097955017, 6.3654458148]}, "properties": {"edge_length_m": 69.7, "X": "Gbégamey-Dodo-Ayidjè", "Y": "Gbégamey-Centre", "X_side_m": 69.6, "Y_side_m": 0.1, "split_t": 0.999}}, {"type": "Feature", "geometry": {"type": "Point", "coordinates": [2.4066635, 6.3651947]}, "properties": {"edge_length_m": 87.4, "X": "Gbégamey-Centre", "Y": "Gbégamey-Dodo-Ayidjè", "X_side_m": 43.7, "Y_side_m": 43.7, "split_t": 0.5}}, {"type": "Feature", "geometry": {"type": "Point", "coordinates": [2.4069567724324874, 6.365454564919749]}, "properties": {"edge_length_m": 75.1, "X": "Gbégamey-Centre", "Y": "Gbégamey-Dodo-Ayidjè", "X_side_m": 0.9, "Y_side_m": 74.2, "split_t": 0.012}}, {"type": "Feature", "geometry": {"type": "Point", "coordinates": [2.406968346471264, 6.365449109246085]}, "properties": {"edge_length_m": 69.0, "X": "Gbégamey-Centre", "Y": "Gbégamey-Dodo-Ayidjè", "X_side_m": 0.5, "Y_side_m": 68.5, "split_t": 0.007}}, {"type": "Feature", "geometry": {"type": "Point", "coordinates": [2.3998559444, 6.3559127026]}, "properties": {"edge_length_m": 69.7, "X": "Cadjèhoun-Azalokogon", "Y": "Haie-Vive-Cocotiers", "X_side_m": 69.6, "Y_side_m": 0.1, "split_t": 0.999}}, {"type": "Feature", "geometry": {"type": "Point", "coordinates": [2.4278001885999996, 6.352696914]}, "properties": {"edge_length_m": 9.9, "X": "Guinkômey", "Y": "Zongo-Ehuzu", "X_side_m": 9.9, "Y_side_m": 0.0, "split_t": 0.999}}, {"type": "Feature", "geometry": {"type": "Point", "coordinates": [2.4395359163, 6.3543654066]}, "properties": {"edge_length_m": 33.1, "X": "Xwlacôdji-Plage", "Y": "Xwlacôdji-Kpodji", "X_side_m": 0.0, "Y_side_m": 33.0, "split_t": 0.001}}, {"type": "Feature", "geometry": {"type": "Point", "coordinates": [2.3978543453, 6.3609897438]}, "properties": {"edge_length_m": 56.6, "X": "Cadjèhoun-Azalokogon", "Y": "Cadjèhoun-Kpota", "X_side_m": 56.5, "Y_side_m": 0.1, "split_t": 0.999}}, {"type": "Feature", "geometry": {"type": "Point", "coordinates": [2.398180307960951, 6.359477409548752]}, "properties": {"edge_length_m": 150.5, "X": "Cadjèhoun-Kpota", "Y": "Cadjèhoun-Azalokogon", "X_side_m": 44.1, "Y_side_m": 106.4, "split_t": 0.293}}, {"type": "Feature", "geometry": {"type": "Point", "coordinates": [2.397909745802658, 6.359047597043191]}, "properties": {"edge_length_m": 129.6, "X": "Cadjèhoun-Kpota", "Y": "Cadjèhoun-Azalokogon", "X_side_m": 90.2, "Y_side_m": 39.4, "split_t": 0.696}}, {"type": "Feature", "geometry": {"type": "Point", "coordinates": [2.3912832538999997, 6.3747788041]}, "properties": {"edge_length_m": 37.3, "X": "Houéyihô", "Y": "Védokô", "X_side_m": 0.0, "Y_side_m": 37.3, "split_t": 0.001}}, {"type": "Feature", "geometry": {"type": "Point", "coordinates": [2.3899690317999998, 6.3767890496]}, "properties": {"edge_length_m": 6.6, "X": "Védokô", "Y": "Houéyihô", "X_side_m": 6.6, "Y_side_m": 0.0, "split_t": 0.999}}, {"type": "Feature", "geometry": {"type": "Point", "coordinates": [2.3734619081136525, 6.361331756824179]}, "properties": {"edge_length_m": 107.0, "X": "Fidjrossè-Kpota", "Y": "Fidjrossè-Centre", "X_side_m": 99.6, "Y_side_m": 7.4, "split_t": 0.93}}, {"type": "Feature", "geometry": {"type": "Point", "coordinates": [2.373428614547736, 6.361296299534472]}, "properties": {"edge_length_m": 72.5, "X": "Fidjrossè-Centre", "Y": "Fidjrossè-Kpota", "X_side_m": 9.8, "Y_side_m": 62.7, "split_t": 0.135}}, {"type": "Feature", "geometry": {"type": "Point", "coordinates": [2.373726217922544, 6.361080666478489]}, "properties": {"edge_length_m": 25.0, "X": "Fidjrossè-Centre", "Y": "Fidjrossè-Kpota", "X_side_m": 6.5, "Y_side_m": 18.5, "split_t": 0.261}}, {"type": "Feature", "geometry": {"type": "Point", "coordinates": [2.3738544233465184, 6.361039694497408]}, "properties": {"edge_length_m": 23.4, "X": "Fidjrossè-Centre", "Y": "Fidjrossè-Kpota", "X_side_m": 4.1, "Y_side_m": 19.3, "split_t": 0.176}}, {"type": "Feature", "geometry": {"type": "Point", "coordinates": [2.3867866979, 6.3772184163]}, "properties": {"edge_length_m": 210.8, "X": "Kouhounou", "Y": "Ahogbohoué-Cité-Eucharistie", "X_side_m": 210.6, "Y_side_m": 0.2, "split_t": 0.999}}, {"type": "Feature", "geometry": {"type": "Point", "coordinates": [2.3886099, 6.3771015]}, "properties": {"edge_length_m": 78.8, "X": "Ahogbohoué-Cité-Eucharistie", "Y": "Védokô", "X_side_m": 39.4, "Y_side_m": 39.4, "split_t": 0.5}}, {"type": "Feature", "geometry": {"type": "Point", "coordinates": [2.3889644430000003, 6.3770731952999995]}, "properties": {"edge_length_m": 39.5, "X": "Védokô", "Y": "Ahogbohoué-Cité-Eucharistie", "X_side_m": 0.0, "Y_side_m": 39.5, "split_t": 0.001}}, {"type": "Feature", "geometry": {"type": "Point", "coordinates": [2.38760505, 6.37727185]}, "properties": {"edge_length_m": 138.7, "X": "Védokô", "Y": "Ahogbohoué-Cité-Eucharistie", "X_side_m": 69.4, "Y_side_m": 69.4, "split_t": 0.5}}, {"type": "Feature", "geometry": {"type": "Point", "coordinates": [2.3862435366000003, 6.3773592546]}, "properties": {"edge_length_m": 81.6, "X": "Ahogbohoué-Cité-Eucharistie", "Y": "Kouhounou", "X_side_m": 81.6, "Y_side_m": 0.1, "split_t": 0.999}}, {"type": "Feature", "geometry": {"type": "Point", "coordinates": [2.4191678302761432, 6.369156224175973]}, "properties": {"edge_length_m": 245.1, "X": "Saint-Jean-Gbèdiga", "Y": "Sèdami", "X_side_m": 85.8, "Y_side_m": 159.3, "split_t": 0.35}}, {"type": "Feature", "geometry": {"type": "Point", "coordinates": [2.403834136293995, 6.368123802340885]}, "properties": {"edge_length_m": 65.4, "X": "Vodjè-Centre", "Y": "Vodjè-Finagnon", "X_side_m": 38.1, "Y_side_m": 27.3, "split_t": 0.583}}, {"type": "Feature", "geometry": {"type": "Point", "coordinates": [2.4037159681943114, 6.36808874699764]}, "properties": {"edge_length_m": 164.7, "X": "Vodjè-Finagnon", "Y": "Vodjè-Centre", "X_side_m": 57.3, "Y_side_m": 107.4, "split_t": 0.348}}, {"type": "Feature", "geometry": {"type": "Point", "coordinates": [2.39950725, 6.36939475]}, "properties": {"edge_length_m": 53.0, "X": "Vodjè-Centre", "Y": "Vodjè-Finagnon", "X_side_m": 26.5, "Y_side_m": 26.5, "split_t": 0.5}}, {"type": "Feature", "geometry": {"type": "Point", "coordinates": [2.399274543, 6.3693500489999995]}, "properties": {"edge_length_m": 299.1, "X": "Vodjè-Finagnon", "Y": "Vodjè-Centre", "X_side_m": 0.3, "Y_side_m": 298.8, "split_t": 0.001}}, {"type": "Feature", "geometry": {"type": "Point", "coordinates": [2.3980852375, 6.369143197500001]}, "properties": {"edge_length_m": 428.0, "X": "Vodjè-Finagnon", "Y": "Vodjè-Centre", "X_side_m": 0.4, "Y_side_m": 427.5, "split_t": 0.001}}, {"type": "Feature", "geometry": {"type": "Point", "coordinates": [2.4053308691247435, 6.38536520506799]}, "properties": {"edge_length_m": 66.0, "X": "Houénoussou-Sainte-Rita", "Y": "Fifadji", "X_side_m": 16.0, "Y_side_m": 50.0, "split_t": 0.242}}, {"type": "Feature", "geometry": {"type": "Point", "coordinates": [2.4295121996016977, 6.369827452738332]}, "properties": {"edge_length_m": 115.7, "X": "Dantôkpa", "Y": "Sèdjro-Saint-Michel", "X_side_m": 50.9, "Y_side_m": 64.8, "split_t": 0.44}}, {"type": "Feature", "geometry": {"type": "Point", "coordinates": [2.41148145, 6.37770325]}, "properties": {"edge_length_m": 66.7, "X": "Minonkpô-Wologuèdè", "Y": "Houénoussou-Sainte-Rita", "X_side_m": 33.4, "Y_side_m": 33.4, "split_t": 0.5}}, {"type": "Feature", "geometry": {"type": "Point", "coordinates": [2.423935797849655, 6.359328140505462]}, "properties": {"edge_length_m": 520.5, "X": "Saint-Jean-Gbèdiga", "Y": "Zongo-Ehuzu", "X_side_m": 238.5, "Y_side_m": 282.0, "split_t": 0.458}}, {"type": "Feature", "geometry": {"type": "Point", "coordinates": [2.4469567288323013, 6.378404462086982]}, "properties": {"edge_length_m": 141.9, "X": "Ayélawadjè-Agongbomè", "Y": "Sègbèya-Sud", "X_side_m": 128.6, "Y_side_m": 13.3, "split_t": 0.906}}, {"type": "Feature", "geometry": {"type": "Point", "coordinates": [2.448973903362204, 6.385538091074268]}, "properties": {"edge_length_m": 299.2, "X": "Sègbèya-Sud", "Y": "Kpondéhou", "X_side_m": 218.6, "Y_side_m": 80.5, "split_t": 0.731}}, {"type": "Feature", "geometry": {"type": "Point", "coordinates": [2.447027251550261, 6.3873406459297355]}, "properties": {"edge_length_m": 90.8, "X": "Sègbèya-Sud", "Y": "Ayélawadjè-Agongbomè", "X_side_m": 60.2, "Y_side_m": 30.6, "split_t": 0.663}}, {"type": "Feature", "geometry": {"type": "Point", "coordinates": [2.40726085, 6.36607085]}, "properties": {"edge_length_m": 67.7, "X": "Gbégamey-Dodo-Ayidjè", "Y": "Gbégamey-Centre", "X_side_m": 33.8, "Y_side_m": 33.8, "split_t": 0.5}}, {"type": "Feature", "geometry": {"type": "Point", "coordinates": [2.40770204206719, 6.365510333445173]}, "properties": {"edge_length_m": 62.3, "X": "Gbégamey-Centre", "Y": "Gbégamey-Dodo-Ayidjè", "X_side_m": 45.0, "Y_side_m": 17.2, "split_t": 0.723}}, {"type": "Feature", "geometry": {"type": "Point", "coordinates": [2.415617449303316, 6.366354618740692]}, "properties": {"edge_length_m": 167.0, "X": "Yévèdo", "Y": "Gbégamey-Dodo-Ayidjè", "X_side_m": 80.6, "Y_side_m": 86.4, "split_t": 0.482}}, {"type": "Feature", "geometry": {"type": "Point", "coordinates": [2.4104874333742896, 6.3621796779038275]}, "properties": {"edge_length_m": 266.7, "X": "Gbégamey-Mifongou", "Y": "Gbégamey-Centre", "X_side_m": 96.1, "Y_side_m": 170.6, "split_t": 0.36}}, {"type": "Feature", "geometry": {"type": "Point", "coordinates": [2.4093744, 6.3610922]}, "properties": {"edge_length_m": 36.8, "X": "Gbégamey-Centre", "Y": "Gbégamey-Ahito", "X_side_m": 18.4, "Y_side_m": 18.4, "split_t": 0.5}}, {"type": "Feature", "geometry": {"type": "Point", "coordinates": [2.4046527781, 6.3720653745]}, "properties": {"edge_length_m": 233.1, "X": "Vodjè-Centre", "Y": "Vodjè-Ayidoté", "X_side_m": 0.2, "Y_side_m": 232.8, "split_t": 0.001}}, {"type": "Feature", "geometry": {"type": "Point", "coordinates": [2.4034520500000003, 6.3711205]}, "properties": {"edge_length_m": 337.5, "X": "Vodjè-Centre", "Y": "Vodjè-Finagnon", "X_side_m": 168.7, "Y_side_m": 168.7, "split_t": 0.5}}, {"type": "Feature", "geometry": {"type": "Point", "coordinates": [2.4043209179, 6.3725527551]}, "properties": {"edge_length_m": 297.3, "X": "Vodjè-Centre", "Y": "Vodjè-Ayidoté", "X_side_m": 0.3, "Y_side_m": 297.0, "split_t": 0.001}}, {"type": "Feature", "geometry": {"type": "Point", "coordinates": [2.4036018158, 6.373490400400001]}, "properties": {"edge_length_m": 253.6, "X": "Vodjè-Centre", "Y": "Agontinkon", "X_side_m": 0.3, "Y_side_m": 253.4, "split_t": 0.001}}, {"type": "Feature", "geometry": {"type": "Point", "coordinates": [2.4032572735, 6.3739294126]}, "properties": {"edge_length_m": 155.8, "X": "Vodjè-Centre", "Y": "Agontinkon", "X_side_m": 0.2, "Y_side_m": 155.7, "split_t": 0.001}}, {"type": "Feature", "geometry": {"type": "Point", "coordinates": [2.4092261941, 6.3642137803]}, "properties": {"edge_length_m": 198.8, "X": "Gbégamey-Centre", "Y": "Gbégamey-Dodo-Ayidjè", "X_side_m": 0.2, "Y_side_m": 198.6, "split_t": 0.001}}, {"type": "Feature", "geometry": {"type": "Point", "coordinates": [2.4079326078726417, 6.3629490380645555]}, "properties": {"edge_length_m": 66.2, "X": "Gbégamey-Dodo-Ayidjè", "Y": "Gbégamey-Centre", "X_side_m": 20.3, "Y_side_m": 45.9, "split_t": 0.306}}, {"type": "Feature", "geometry": {"type": "Point", "coordinates": [2.384766348105102, 6.385737861075405]}, "properties": {"edge_length_m": 67.3, "X": "Kouhounou", "Y": "Zogbo", "X_side_m": 46.0, "Y_side_m": 21.3, "split_t": 0.684}}, {"type": "Feature", "geometry": {"type": "Point", "coordinates": [2.399683392427076, 6.35627903356247]}, "properties": {"edge_length_m": 11.7, "X": "Cadjèhoun-Gare", "Y": "Haie-Vive-Cocotiers", "X_side_m": 2.2, "Y_side_m": 9.5, "split_t": 0.187}}, {"type": "Feature", "geometry": {"type": "Point", "coordinates": [2.384105812697531, 6.387512108384497]}, "properties": {"edge_length_m": 271.9, "X": "Kouhounou", "Y": "Zogbo", "X_side_m": 102.2, "Y_side_m": 169.7, "split_t": 0.376}}, {"type": "Feature", "geometry": {"type": "Point", "coordinates": [2.3854735662439084, 6.387746812353975]}, "properties": {"edge_length_m": 66.0, "X": "Kouhounou", "Y": "Zogbo", "X_side_m": 42.3, "Y_side_m": 23.6, "split_t": 0.642}}, {"type": "Feature", "geometry": {"type": "Point", "coordinates": [2.3839366217975817, 6.384830577730275]}, "properties": {"edge_length_m": 64.7, "X": "Zogbo", "Y": "Kouhounou", "X_side_m": 17.4, "Y_side_m": 47.3, "split_t": 0.269}}, {"type": "Feature", "geometry": {"type": "Point", "coordinates": [2.385759678740637, 6.387336003635244]}, "properties": {"edge_length_m": 127.9, "X": "Zogbo", "Y": "Kouhounou", "X_side_m": 42.9, "Y_side_m": 85.0, "split_t": 0.335}}, {"type": "Feature", "geometry": {"type": "Point", "coordinates": [2.427253902, 6.3703015506]}, "properties": {"edge_length_m": 35.5, "X": "Sèdjro-Saint-Michel", "Y": "Jéricho-Nord", "X_side_m": 35.5, "Y_side_m": 0.0, "split_t": 0.999}}, {"type": "Feature", "geometry": {"type": "Point", "coordinates": [2.4172933, 6.3652344]}, "properties": {"edge_length_m": 83.4, "X": "Yévèdo", "Y": "Saint-Jean-Gbèdiga", "X_side_m": 41.7, "Y_side_m": 41.7, "split_t": 0.5}}, {"type": "Feature", "geometry": {"type": "Point", "coordinates": [2.4173008572698147, 6.36670772966366]}, "properties": {"edge_length_m": 255.9, "X": "Saint-Jean-Gbèdiga", "Y": "Yévèdo", "X_side_m": 129.1, "Y_side_m": 126.7, "split_t": 0.505}}, {"type": "Feature", "geometry": {"type": "Point", "coordinates": [2.41677615, 6.3672632]}, "properties": {"edge_length_m": 270.9, "X": "Yévèdo", "Y": "Saint-Jean-Gbèdiga", "X_side_m": 135.4, "Y_side_m": 135.4, "split_t": 0.5}}, {"type": "Feature", "geometry": {"type": "Point", "coordinates": [2.4236920238, 6.3748313777]}, "properties": {"edge_length_m": 67.2, "X": "Aïdjèdo-Ahito", "Y": "Jéricho-Nord", "X_side_m": 0.1, "Y_side_m": 67.2, "split_t": 0.001}}, {"type": "Feature", "geometry": {"type": "Point", "coordinates": [2.4237886202, 6.374916732499999]}, "properties": {"edge_length_m": 200.9, "X": "Aïdjèdo-Ahito", "Y": "Aïdjèdo", "X_side_m": 0.2, "Y_side_m": 200.7, "split_t": 0.001}}, {"type": "Feature", "geometry": {"type": "Point", "coordinates": [2.4236024499999997, 6.37515125]}, "properties": {"edge_length_m": 66.2, "X": "Aïdjèdo-Ahito", "Y": "Jéricho-Nord", "X_side_m": 33.1, "Y_side_m": 33.1, "split_t": 0.5}}, {"type": "Feature", "geometry": {"type": "Point", "coordinates": [2.4021450370000004, 6.3700938688]}, "properties": {"edge_length_m": 65.6, "X": "Vodjè-Finagnon", "Y": "Vodjè-Centre", "X_side_m": 0.1, "Y_side_m": 65.5, "split_t": 0.001}}, {"type": "Feature", "geometry": {"type": "Point", "coordinates": [2.4022526372, 6.3701773700999995]}, "properties": {"edge_length_m": 65.7, "X": "Vodjè-Finagnon", "Y": "Vodjè-Centre", "X_side_m": 0.1, "Y_side_m": 65.6, "split_t": 0.001}}, {"type": "Feature", "geometry": {"type": "Point", "coordinates": [2.4059558812999997, 6.3745383675]}, "properties": {"edge_length_m": 64.7, "X": "Agontinkon", "Y": "Vodjè-Ayidoté", "X_side_m": 0.1, "Y_side_m": 64.6, "split_t": 0.001}}, {"type": "Feature", "geometry": {"type": "Point", "coordinates": [2.385249160574824, 6.386650222441555]}, "properties": {"edge_length_m": 50.3, "X": "Kouhounou", "Y": "Zogbo", "X_side_m": 4.7, "Y_side_m": 45.6, "split_t": 0.093}}, {"type": "Feature", "geometry": {"type": "Point", "coordinates": [2.41319169758335, 6.37867093895975]}, "properties": {"edge_length_m": 182.2, "X": "Minonkpô-Wologuèdè", "Y": "Houéhoun", "X_side_m": 33.2, "Y_side_m": 148.9, "split_t": 0.182}}, {"type": "Feature", "geometry": {"type": "Point", "coordinates": [2.4297046, 6.38302765]}, "properties": {"edge_length_m": 67.4, "X": "Djidjè", "Y": "Aïdjèdo", "X_side_m": 33.7, "Y_side_m": 33.7, "split_t": 0.5}}, {"type": "Feature", "geometry": {"type": "Point", "coordinates": [2.42092685, 6.3783425000000005]}, "properties": {"edge_length_m": 66.0, "X": "Gbèdjromèdè", "Y": "Gbèdjromèdè-Nord", "X_side_m": 33.0, "Y_side_m": 33.0, "split_t": 0.5}}, {"type": "Feature", "geometry": {"type": "Point", "coordinates": [2.421323624799735, 6.379026261143048]}, "properties": {"edge_length_m": 177.0, "X": "Aïdjèdo", "Y": "Gbèdjromèdè-Nord", "X_side_m": 134.0, "Y_side_m": 43.0, "split_t": 0.757}}, {"type": "Feature", "geometry": {"type": "Point", "coordinates": [2.421037, 6.3784234]}, "properties": {"edge_length_m": 64.9, "X": "Gbèdjromèdè-Nord", "Y": "Gbèdjromèdè", "X_side_m": 32.4, "Y_side_m": 32.4, "split_t": 0.5}}, {"type": "Feature", "geometry": {"type": "Point", "coordinates": [2.419169911621357, 6.378078567848419]}, "properties": {"edge_length_m": 332.3, "X": "Gbèdjromèdè-Nord", "Y": "Minonkpô-Wologuèdè", "X_side_m": 114.1, "Y_side_m": 218.2, "split_t": 0.343}}, {"type": "Feature", "geometry": {"type": "Point", "coordinates": [2.420645, 6.379406599999999]}, "properties": {"edge_length_m": 12.1, "X": "Gbèdjromèdè-Nord", "Y": "Gbèdjromèdè", "X_side_m": 6.1, "Y_side_m": 6.1, "split_t": 0.5}}, {"type": "Feature", "geometry": {"type": "Point", "coordinates": [2.4206205499999998, 6.3793083]}, "properties": {"edge_length_m": 10.3, "X": "Gbèdjromèdè", "Y": "Gbèdjromèdè-Nord", "X_side_m": 5.1, "Y_side_m": 5.1, "split_t": 0.5}}, {"type": "Feature", "geometry": {"type": "Point", "coordinates": [2.4240214194154746, 6.375866596572278]}, "properties": {"edge_length_m": 200.8, "X": "Jéricho-Nord", "Y": "Aïdjèdo", "X_side_m": 85.3, "Y_side_m": 115.5, "split_t": 0.425}}, {"type": "Feature", "geometry": {"type": "Point", "coordinates": [2.4266778251402568, 6.3710401197034106]}, "properties": {"edge_length_m": 40.0, "X": "Jéricho-Nord", "Y": "Sèdjro-Saint-Michel", "X_side_m": 14.7, "Y_side_m": 25.3, "split_t": 0.368}}, {"type": "Feature", "geometry": {"type": "Point", "coordinates": [2.4268635734397757, 6.370991932890209]}, "properties": {"edge_length_m": 81.6, "X": "Jéricho-Nord", "Y": "Sèdjro-Saint-Michel", "X_side_m": 32.1, "Y_side_m": 49.5, "split_t": 0.394}}, {"type": "Feature", "geometry": {"type": "Point", "coordinates": [2.4298879724326303, 6.373785044980857]}, "properties": {"edge_length_m": 292.3, "X": "Jéricho-Nord", "Y": "Hindé-Sud", "X_side_m": 194.3, "Y_side_m": 98.0, "split_t": 0.665}}, {"type": "Feature", "geometry": {"type": "Point", "coordinates": [2.4305842529, 6.3743355872]}, "properties": {"edge_length_m": 121.1, "X": "Hindé-Sud", "Y": "Dantôkpa", "X_side_m": 0.1, "Y_side_m": 121.0, "split_t": 0.001}}, {"type": "Feature", "geometry": {"type": "Point", "coordinates": [2.4305838908000004, 6.3743342847]}, "properties": {"edge_length_m": 87.0, "X": "Hindé-Sud", "Y": "Dantôkpa", "X_side_m": 0.1, "Y_side_m": 86.9, "split_t": 0.001}}, {"type": "Feature", "geometry": {"type": "Point", "coordinates": [2.4309707659999997, 6.3756101114]}, "properties": {"edge_length_m": 83.0, "X": "Dantôkpa", "Y": "Hindé-Sud", "X_side_m": 82.9, "Y_side_m": 0.1, "split_t": 0.999}}, {"type": "Feature", "geometry": {"type": "Point", "coordinates": [2.4290131500000003, 6.37115715]}, "properties": {"edge_length_m": 126.4, "X": "Sèdjro-Saint-Michel", "Y": "Dantôkpa", "X_side_m": 63.2, "Y_side_m": 63.2, "split_t": 0.5}}, {"type": "Feature", "geometry": {"type": "Point", "coordinates": [2.4289916705, 6.3720963145]}, "properties": {"edge_length_m": 83.1, "X": "Dantôkpa", "Y": "Jéricho-Nord", "X_side_m": 83.0, "Y_side_m": 0.1, "split_t": 0.999}}, {"type": "Feature", "geometry": {"type": "Point", "coordinates": [2.42913135, 6.3709986]}, "properties": {"edge_length_m": 128.3, "X": "Dantôkpa", "Y": "Sèdjro-Saint-Michel", "X_side_m": 64.1, "Y_side_m": 64.1, "split_t": 0.5}}, {"type": "Feature", "geometry": {"type": "Point", "coordinates": [2.4245954755, 6.3842781283]}, "properties": {"edge_length_m": 14.1, "X": "Aïdjèdo", "Y": "Ahouansouri-Agata", "X_side_m": 0.0, "Y_side_m": 14.1, "split_t": 0.001}}, {"type": "Feature", "geometry": {"type": "Point", "coordinates": [2.4244079, 6.38431545]}, "properties": {"edge_length_m": 14.1, "X": "Ahouansouri-Agata", "Y": "Aïdjèdo", "X_side_m": 7.1, "Y_side_m": 7.1, "split_t": 0.5}}, {"type": "Feature", "geometry": {"type": "Point", "coordinates": [2.4240897335, 6.384329107799999]}, "properties": {"edge_length_m": 77.9, "X": "Ahouansori-Towéta", "Y": "Aïdjèdo", "X_side_m": 0.1, "Y_side_m": 77.9, "split_t": 0.001}}, {"type": "Feature", "geometry": {"type": "Point", "coordinates": [2.4207646054367014, 6.384646708023444]}, "properties": {"edge_length_m": 59.0, "X": "Ahouansori-Towéta", "Y": "Gbèdjromèdè", "X_side_m": 50.9, "Y_side_m": 8.1, "split_t": 0.863}}, {"type": "Feature", "geometry": {"type": "Point", "coordinates": [2.4216912071917274, 6.378568508192959]}, "properties": {"edge_length_m": 200.2, "X": "Aïdjèdo", "Y": "Gbèdjromèdè", "X_side_m": 133.3, "Y_side_m": 66.8, "split_t": 0.666}}, {"type": "Feature", "geometry": {"type": "Point", "coordinates": [2.4214565148532596, 6.379874205352773]}, "properties": {"edge_length_m": 142.1, "X": "Gbèdjromèdè-Nord", "Y": "Aïdjèdo", "X_side_m": 77.7, "Y_side_m": 64.5, "split_t": 0.546}}, {"type": "Feature", "geometry": {"type": "Point", "coordinates": [2.4239534251, 6.3842919232]}, "properties": {"edge_length_m": 76.1, "X": "Aïdjèdo", "Y": "Ahouansori-Towéta", "X_side_m": 76.0, "Y_side_m": 0.1, "split_t": 0.999}}, {"type": "Feature", "geometry": {"type": "Point", "coordinates": [2.4238260499999997, 6.383489450000001]}, "properties": {"edge_length_m": 12.6, "X": "Aïdjèdo", "Y": "Ahouansouri-Agata", "X_side_m": 6.3, "Y_side_m": 6.3, "split_t": 0.5}}, {"type": "Feature", "geometry": {"type": "Point", "coordinates": [2.429416244357173, 6.3743702388506644]}, "properties": {"edge_length_m": 292.6, "X": "Jéricho-Nord", "Y": "Hindé-Sud", "X_side_m": 194.1, "Y_side_m": 98.5, "split_t": 0.663}}, {"type": "Feature", "geometry": {"type": "Point", "coordinates": [2.4289893486, 6.3720954427]}, "properties": {"edge_length_m": 260.6, "X": "Sèdjro-Saint-Michel", "Y": "Jéricho-Nord", "X_side_m": 260.3, "Y_side_m": 0.3, "split_t": 0.999}}, {"type": "Feature", "geometry": {"type": "Point", "coordinates": [2.428993283, 6.3720985227]}, "properties": {"edge_length_m": 292.0, "X": "Jéricho-Nord", "Y": "Dantôkpa", "X_side_m": 0.3, "Y_side_m": 291.7, "split_t": 0.001}}, {"type": "Feature", "geometry": {"type": "Point", "coordinates": [2.3872059772492915, 6.366024019412147]}, "properties": {"edge_length_m": 41.2, "X": "Gbèdégbé", "Y": "Missité", "X_side_m": 22.4, "Y_side_m": 18.8, "split_t": 0.544}}, {"type": "Feature", "geometry": {"type": "Point", "coordinates": [2.3871187258, 6.3670624609]}, "properties": {"edge_length_m": 50.5, "X": "Gbèdégbé", "Y": "Missité", "X_side_m": 50.4, "Y_side_m": 0.1, "split_t": 0.999}}, {"type": "Feature", "geometry": {"type": "Point", "coordinates": [2.3926577818, 6.367382925699999]}, "properties": {"edge_length_m": 24.4, "X": "Houéyihô", "Y": "Houénoussou", "X_side_m": 0.0, "Y_side_m": 24.4, "split_t": 0.001}}, {"type": "Feature", "geometry": {"type": "Point", "coordinates": [2.42675405555009, 6.360523836149875]}, "properties": {"edge_length_m": 298.4, "X": "Zongo-Nima", "Y": "Gbéto", "X_side_m": 148.5, "Y_side_m": 149.9, "split_t": 0.498}}, {"type": "Feature", "geometry": {"type": "Point", "coordinates": [2.4252135762, 6.3584807753]}, "properties": {"edge_length_m": 70.6, "X": "Zongo-Ehuzu", "Y": "Zongo-Nima", "X_side_m": 70.5, "Y_side_m": 0.1, "split_t": 0.999}}, {"type": "Feature", "geometry": {"type": "Point", "coordinates": [2.4277493902, 6.3547109044]}, "properties": {"edge_length_m": 10.0, "X": "Zongo-Ehuzu", "Y": "Guinkômey", "X_side_m": 0.0, "Y_side_m": 10.0, "split_t": 0.001}}, {"type": "Feature", "geometry": {"type": "Point", "coordinates": [2.4263655, 6.361023149999999]}, "properties": {"edge_length_m": 298.8, "X": "Zongo-Nima", "Y": "Gbéto", "X_side_m": 149.4, "Y_side_m": 149.4, "split_t": 0.5}}, {"type": "Feature", "geometry": {"type": "Point", "coordinates": [2.4266220462041863, 6.3628771580643155]}, "properties": {"edge_length_m": 69.4, "X": "Gbéto", "Y": "Sèdjro-Saint-Michel", "X_side_m": 4.9, "Y_side_m": 64.5, "split_t": 0.071}}, {"type": "Feature", "geometry": {"type": "Point", "coordinates": [2.4345643594, 6.365053376900001]}, "properties": {"edge_length_m": 257.3, "X": "Bocossi-Tokpa", "Y": "Missèbô", "X_side_m": 0.3, "Y_side_m": 257.1, "split_t": 0.001}}, {"type": "Feature", "geometry": {"type": "Point", "coordinates": [2.433988831521823, 6.365784770930497]}, "properties": {"edge_length_m": 71.7, "X": "Bocossi-Tokpa", "Y": "Missèbô", "X_side_m": 34.9, "Y_side_m": 36.8, "split_t": 0.487}}, {"type": "Feature", "geometry": {"type": "Point", "coordinates": [2.4334619077302273, 6.36498002592941]}, "properties": {"edge_length_m": 257.6, "X": "Bocossi-Tokpa", "Y": "Missèbô", "X_side_m": 100.9, "Y_side_m": 156.6, "split_t": 0.392}}, {"type": "Feature", "geometry": {"type": "Point", "coordinates": [2.3953461314, 6.3935303596]}, "properties": {"edge_length_m": 176.8, "X": "Zogbo", "Y": "Fifadji", "X_side_m": 0.2, "Y_side_m": 176.7, "split_t": 0.001}}, {"type": "Feature", "geometry": {"type": "Point", "coordinates": [2.3954650580498815, 6.391425735728287]}, "properties": {"edge_length_m": 176.8, "X": "Zogbo", "Y": "Fifadji", "X_side_m": 18.4, "Y_side_m": 158.4, "split_t": 0.104}}, {"type": "Feature", "geometry": {"type": "Point", "coordinates": [2.3951829095, 6.394111668]}, "properties": {"edge_length_m": 45.6, "X": "Zogbo", "Y": "Fifadji", "X_side_m": 0.0, "Y_side_m": 45.6, "split_t": 0.001}}, {"type": "Feature", "geometry": {"type": "Point", "coordinates": [2.395343054601224, 6.39203570681561]}, "properties": {"edge_length_m": 12.6, "X": "Fifadji", "Y": "Zogbo", "X_side_m": 10.8, "Y_side_m": 1.7, "split_t": 0.861}}, {"type": "Feature", "geometry": {"type": "Point", "coordinates": [2.4013641000000003, 6.3981845]}, "properties": {"edge_length_m": 43.0, "X": "Fifadji", "Y": "Vossa-Kpodji", "X_side_m": 21.5, "Y_side_m": 21.5, "split_t": 0.5}}, {"type": "Feature", "geometry": {"type": "Point", "coordinates": [2.4029551401, 6.375411989200001]}, "properties": {"edge_length_m": 74.5, "X": "Agontinkon", "Y": "Vodjè-Centre", "X_side_m": 74.5, "Y_side_m": 0.1, "split_t": 0.999}}, {"type": "Feature", "geometry": {"type": "Point", "coordinates": [2.4020505212, 6.376216404699999]}, "properties": {"edge_length_m": 66.4, "X": "Vodjè-Centre", "Y": "Vodjè-Finagnon", "X_side_m": 66.3, "Y_side_m": 0.1, "split_t": 0.999}}, {"type": "Feature", "geometry": {"type": "Point", "coordinates": [2.3978333362, 6.3599581368]}, "properties": {"edge_length_m": 106.7, "X": "Cadjèhoun-Azalokogon", "Y": "Cadjèhoun-Kpota", "X_side_m": 106.6, "Y_side_m": 0.1, "split_t": 0.999}}, {"type": "Feature", "geometry": {"type": "Point", "coordinates": [2.3966541927721576, 6.360024705791187]}, "properties": {"edge_length_m": 33.2, "X": "Cadjèhoun-Azalokogon", "Y": "Cadjèhoun-Kpota", "X_side_m": 3.4, "Y_side_m": 29.8, "split_t": 0.102}}, {"type": "Feature", "geometry": {"type": "Point", "coordinates": [2.4419275458244742, 6.372578325608042]}, "properties": {"edge_length_m": 190.0, "X": "Kpankpan", "Y": "Dédokpo", "X_side_m": 136.4, "Y_side_m": 53.6, "split_t": 0.718}}, {"type": "Feature", "geometry": {"type": "Point", "coordinates": [2.4418558153081813, 6.3730616704066785]}, "properties": {"edge_length_m": 192.1, "X": "Kpankpan", "Y": "Dédokpo", "X_side_m": 138.4, "Y_side_m": 53.8, "split_t": 0.72}}, {"type": "Feature", "geometry": {"type": "Point", "coordinates": [2.4444071000000003, 6.36375645]}, "properties": {"edge_length_m": 39.2, "X": "Abokicodji-Lagune", "Y": "Abokicodji-Centre", "X_side_m": 19.6, "Y_side_m": 19.6, "split_t": 0.5}}, {"type": "Feature", "geometry": {"type": "Point", "coordinates": [2.4443900000000003, 6.36405635]}, "properties": {"edge_length_m": 54.2, "X": "Abokicodji-Lagune", "Y": "Abokicodji-Centre", "X_side_m": 27.1, "Y_side_m": 27.1, "split_t": 0.5}}, {"type": "Feature", "geometry": {"type": "Point", "coordinates": [2.4447038, 6.364626149999999]}, "properties": {"edge_length_m": 133.7, "X": "Abokicodji-Centre", "Y": "Abokicodji-Lagune", "X_side_m": 66.8, "Y_side_m": 66.8, "split_t": 0.5}}, {"type": "Feature", "geometry": {"type": "Point", "coordinates": [2.4454846873859357, 6.36525563485526]}, "properties": {"edge_length_m": 155.7, "X": "Abokicodji-Lagune", "Y": "Gbèdjèwin", "X_side_m": 44.1, "Y_side_m": 111.6, "split_t": 0.283}}, {"type": "Feature", "geometry": {"type": "Point", "coordinates": [2.4445788999999998, 6.3632685]}, "properties": {"edge_length_m": 108.1, "X": "Abokicodji-Centre", "Y": "Abokicodji-Lagune", "X_side_m": 54.0, "Y_side_m": 54.0, "split_t": 0.5}}, {"type": "Feature", "geometry": {"type": "Point", "coordinates": [2.4428047023, 6.3698043677000005]}, "properties": {"edge_length_m": 59.8, "X": "Dédokpo", "Y": "Misséssin", "X_side_m": 0.1, "Y_side_m": 59.8, "split_t": 0.001}}, {"type": "Feature", "geometry": {"type": "Point", "coordinates": [2.4415207616999997, 6.3737075260000005]}, "properties": {"edge_length_m": 181.7, "X": "Midombo", "Y": "Kpankpan", "X_side_m": 181.5, "Y_side_m": 0.2, "split_t": 0.999}}, {"type": "Feature", "geometry": {"type": "Point", "coordinates": [2.44022225, 6.373984500000001]}, "properties": {"edge_length_m": 67.9, "X": "Kpankpan", "Y": "Midombo", "X_side_m": 34.0, "Y_side_m": 34.0, "split_t": 0.5}}, {"type": "Feature", "geometry": {"type": "Point", "coordinates": [2.4397349999999998, 6.373665600000001]}, "properties": {"edge_length_m": 108.0, "X": "Kpankpan", "Y": "Midombo", "X_side_m": 54.0, "Y_side_m": 54.0, "split_t": 0.5}}, {"type": "Feature", "geometry": {"type": "Point", "coordinates": [2.441457273494911, 6.372031059033565]}, "properties": {"edge_length_m": 81.2, "X": "Dédokpo", "Y": "Kpankpan", "X_side_m": 8.1, "Y_side_m": 73.1, "split_t": 0.1}}, {"type": "Feature", "geometry": {"type": "Point", "coordinates": [2.4425321, 6.37712]}, "properties": {"edge_length_m": 175.5, "X": "Sègbèya-Sud", "Y": "Midombo", "X_side_m": 87.7, "Y_side_m": 87.7, "split_t": 0.5}}, {"type": "Feature", "geometry": {"type": "Point", "coordinates": [2.4459023888496523, 6.388519379503425]}, "properties": {"edge_length_m": 247.4, "X": "Ayélawadjè-Agongbomè", "Y": "Sègbèya-Sud", "X_side_m": 115.7, "Y_side_m": 131.7, "split_t": 0.468}}, {"type": "Feature", "geometry": {"type": "Point", "coordinates": [2.4469205131993506, 6.387240228873726]}, "properties": {"edge_length_m": 211.3, "X": "Ayélawadjè-Agongbomè", "Y": "Sègbèya-Sud", "X_side_m": 66.6, "Y_side_m": 144.7, "split_t": 0.315}}, {"type": "Feature", "geometry": {"type": "Point", "coordinates": [2.4468614783, 6.3785074363000005]}, "properties": {"edge_length_m": 139.7, "X": "Sègbèya-Sud", "Y": "Ayélawadjè-Agongbomè", "X_side_m": 0.1, "Y_side_m": 139.6, "split_t": 0.001}}, {"type": "Feature", "geometry": {"type": "Point", "coordinates": [2.4433119082, 6.3772298077]}, "properties": {"edge_length_m": 176.1, "X": "Sègbèya-Sud", "Y": "Midombo", "X_side_m": 0.2, "Y_side_m": 175.9, "split_t": 0.001}}, {"type": "Feature", "geometry": {"type": "Point", "coordinates": [2.4458878851949195, 6.387853288258338]}, "properties": {"edge_length_m": 183.4, "X": "Sègbèya-Sud", "Y": "Ayélawadjè-Agongbomè", "X_side_m": 131.7, "Y_side_m": 51.7, "split_t": 0.718}}, {"type": "Feature", "geometry": {"type": "Point", "coordinates": [2.442588741943203, 6.3892448305123954]}, "properties": {"edge_length_m": 268.2, "X": "Agbatô", "Y": "Sègbèya-Sud", "X_side_m": 171.3, "Y_side_m": 96.9, "split_t": 0.639}}, {"type": "Feature", "geometry": {"type": "Point", "coordinates": [2.4496983500000002, 6.38524685]}, "properties": {"edge_length_m": 62.9, "X": "Kpondéhou", "Y": "Sègbèya-Sud", "X_side_m": 31.4, "Y_side_m": 31.4, "split_t": 0.5}}, {"type": "Feature", "geometry": {"type": "Point", "coordinates": [2.448982314089192, 6.385894086279125]}, "properties": {"edge_length_m": 217.7, "X": "Sègbèya-Sud", "Y": "Kpondéhou", "X_side_m": 137.6, "Y_side_m": 80.1, "split_t": 0.632}}, {"type": "Feature", "geometry": {"type": "Point", "coordinates": [2.446463109252931, 6.389721608389588]}, "properties": {"edge_length_m": 154.2, "X": "Agbodjèdo", "Y": "Ayélawadjè-Agongbomè", "X_side_m": 38.2, "Y_side_m": 116.0, "split_t": 0.248}}, {"type": "Feature", "geometry": {"type": "Point", "coordinates": [2.4583426434525704, 6.388369911065148]}, "properties": {"edge_length_m": 206.8, "X": "Kpondéhou", "Y": "Yénawa", "X_side_m": 103.2, "Y_side_m": 103.6, "split_t": 0.499}}, {"type": "Feature", "geometry": {"type": "Point", "coordinates": [2.4583179838679707, 6.3877689096625225]}, "properties": {"edge_length_m": 208.2, "X": "Kpondéhou", "Y": "Yénawa", "X_side_m": 103.9, "Y_side_m": 104.2, "split_t": 0.499}}, {"type": "Feature", "geometry": {"type": "Point", "coordinates": [2.44925121898302, 6.379111462414499]}, "properties": {"edge_length_m": 226.2, "X": "Sègbèya-Sud", "Y": "Ayélawadjè", "X_side_m": 182.2, "Y_side_m": 44.0, "split_t": 0.805}}, {"type": "Feature", "geometry": {"type": "Point", "coordinates": [2.449648, 6.3787933]}, "properties": {"edge_length_m": 69.2, "X": "Ayélawadjè", "Y": "Ayélawadjè-Agongbomè", "X_side_m": 34.6, "Y_side_m": 34.6, "split_t": 0.5}}, {"type": "Feature", "geometry": {"type": "Point", "coordinates": [2.4414329966, 6.3791577104]}, "properties": {"edge_length_m": 209.8, "X": "Midombo", "Y": "Sègbèya-Sud", "X_side_m": 0.2, "Y_side_m": 209.6, "split_t": 0.001}}, {"type": "Feature", "geometry": {"type": "Point", "coordinates": [2.4433212500000003, 6.37946345]}, "properties": {"edge_length_m": 65.3, "X": "Sègbèya-Sud", "Y": "Midombo", "X_side_m": 32.7, "Y_side_m": 32.7, "split_t": 0.5}}, {"type": "Feature", "geometry": {"type": "Point", "coordinates": [2.4433224994, 6.3785488988]}, "properties": {"edge_length_m": 199.2, "X": "Midombo", "Y": "Sègbèya-Sud", "X_side_m": 199.0, "Y_side_m": 0.2, "split_t": 0.999}}, {"type": "Feature", "geometry": {"type": "Point", "coordinates": [2.4475949090999998, 6.3778597566]}, "properties": {"edge_length_m": 72.6, "X": "Ayélawadjè-Agongbomè", "Y": "Sègbèya-Sud", "X_side_m": 0.1, "Y_side_m": 72.5, "split_t": 0.001}}, {"type": "Feature", "geometry": {"type": "Point", "coordinates": [2.4424664, 6.37788655]}, "properties": {"edge_length_m": 186.6, "X": "Midombo", "Y": "Sègbèya-Sud", "X_side_m": 93.3, "Y_side_m": 93.3, "split_t": 0.5}}, {"type": "Feature", "geometry": {"type": "Point", "coordinates": [2.4496446573000004, 6.3784802355000005]}, "properties": {"edge_length_m": 226.0, "X": "Sègbèya-Sud", "Y": "Ayélawadjè-Agongbomè", "X_side_m": 225.8, "Y_side_m": 0.2, "split_t": 0.999}}, {"type": "Feature", "geometry": {"type": "Point", "coordinates": [2.4566530216331124, 6.388384495724445]}, "properties": {"edge_length_m": 50.6, "X": "Kpondéhou", "Y": "Gankpodo", "X_side_m": 24.7, "Y_side_m": 25.9, "split_t": 0.488}}, {"type": "Feature", "geometry": {"type": "Point", "coordinates": [2.4509119755, 6.3778240859999995]}, "properties": {"edge_length_m": 218.6, "X": "Ayélawadjè", "Y": "Sènadé", "X_side_m": 0.2, "Y_side_m": 218.3, "split_t": 0.001}}, {"type": "Feature", "geometry": {"type": "Point", "coordinates": [2.4512569801497555, 6.378466746452735]}, "properties": {"edge_length_m": 214.0, "X": "Sènadé", "Y": "Ayélawadjè", "X_side_m": 176.0, "Y_side_m": 37.9, "split_t": 0.823}}, {"type": "Feature", "geometry": {"type": "Point", "coordinates": [2.450565919825859, 6.373795555376522]}, "properties": {"edge_length_m": 278.8, "X": "Fifatin", "Y": "Lom-Nava", "X_side_m": 156.4, "Y_side_m": 122.4, "split_t": 0.561}}, {"type": "Feature", "geometry": {"type": "Point", "coordinates": [2.447753106, 6.3731750128]}, "properties": {"edge_length_m": 155.5, "X": "Fifatin", "Y": "Ayélawadjè", "X_side_m": 155.4, "Y_side_m": 0.2, "split_t": 0.999}}, {"type": "Feature", "geometry": {"type": "Point", "coordinates": [2.4477641013, 6.3725893099999995]}, "properties": {"edge_length_m": 155.0, "X": "Fifatin", "Y": "Ayélawadjè", "X_side_m": 154.9, "Y_side_m": 0.2, "split_t": 0.999}}, {"type": "Feature", "geometry": {"type": "Point", "coordinates": [2.3511762048000002, 6.5023924555]}, "properties": {"edge_length_m": 77.1, "X": "Zopah-Kokpo", "Y": "Zopah-Akassato", "X_side_m": 77.0, "Y_side_m": 0.1, "split_t": 0.999}}, {"type": "Feature", "geometry": {"type": "Point", "coordinates": [2.3511941, 6.50207]}, "properties": {"edge_length_m": 71.4, "X": "Zopah-Akassato", "Y": "Zopah-Kokpo", "X_side_m": 35.7, "Y_side_m": 35.7, "split_t": 0.5}}, {"type": "Feature", "geometry": {"type": "Point", "coordinates": [2.3578045, 6.5217474]}, "properties": {"edge_length_m": 21.9, "X": "Akassato", "Y": "Misséssinto", "X_side_m": 11.0, "Y_side_m": 11.0, "split_t": 0.5}}, {"type": "Feature", "geometry": {"type": "Point", "coordinates": [2.3531478377, 6.504504868900001]}, "properties": {"edge_length_m": 159.2, "X": "Akassato", "Y": "Zopah-Akassato", "X_side_m": 159.1, "Y_side_m": 0.2, "split_t": 0.999}}, {"type": "Feature", "geometry": {"type": "Point", "coordinates": [2.3538277427767906, 6.505268235148937]}, "properties": {"edge_length_m": 80.0, "X": "Akassato", "Y": "Zopah-Akassato", "X_side_m": 78.5, "Y_side_m": 1.5, "split_t": 0.981}}, {"type": "Feature", "geometry": {"type": "Point", "coordinates": [2.38575195, 6.36399885]}, "properties": {"edge_length_m": 158.0, "X": "Fidjrossè-Centre", "Y": "Missité", "X_side_m": 79.0, "Y_side_m": 79.0, "split_t": 0.5}}, {"type": "Feature", "geometry": {"type": "Point", "coordinates": [2.385517613894586, 6.364759796211714]}, "properties": {"edge_length_m": 165.6, "X": "Fidjrossè-Centre", "Y": "Missité", "X_side_m": 153.6, "Y_side_m": 12.1, "split_t": 0.927}}, {"type": "Feature", "geometry": {"type": "Point", "coordinates": [2.3860192500000004, 6.3635516]}, "properties": {"edge_length_m": 84.4, "X": "Missité", "Y": "Fidjrossè-Centre", "X_side_m": 42.2, "Y_side_m": 42.2, "split_t": 0.5}}, {"type": "Feature", "geometry": {"type": "Point", "coordinates": [2.3732287390384137, 6.386070020394172]}, "properties": {"edge_length_m": 59.4, "X": "Mènontin", "Y": "Kouhounou", "X_side_m": 1.9, "Y_side_m": 57.5, "split_t": 0.032}}, {"type": "Feature", "geometry": {"type": "Point", "coordinates": [2.373980962671083, 6.386341358739634]}, "properties": {"edge_length_m": 212.0, "X": "Mènontin", "Y": "Kouhounou", "X_side_m": 143.5, "Y_side_m": 68.5, "split_t": 0.677}}, {"type": "Feature", "geometry": {"type": "Point", "coordinates": [2.4833821314149587, 6.367877993764767]}, "properties": {"edge_length_m": 174.5, "X": "Finagnon", "Y": "Tokplégbé", "X_side_m": 30.5, "Y_side_m": 143.9, "split_t": 0.175}}, {"type": "Feature", "geometry": {"type": "Point", "coordinates": [2.4831690936, 6.367243945199999]}, "properties": {"edge_length_m": 177.0, "X": "Finagnon", "Y": "Tokplégbé", "X_side_m": 0.2, "Y_side_m": 176.8, "split_t": 0.001}}, {"type": "Feature", "geometry": {"type": "Point", "coordinates": [2.4832255908, 6.3666741406]}, "properties": {"edge_length_m": 176.7, "X": "Finagnon", "Y": "Tokplégbé", "X_side_m": 0.2, "Y_side_m": 176.5, "split_t": 0.001}}, {"type": "Feature", "geometry": {"type": "Point", "coordinates": [2.483364636008935, 6.366104731532346]}, "properties": {"edge_length_m": 176.3, "X": "Finagnon", "Y": "Tokplégbé", "X_side_m": 9.3, "Y_side_m": 167.1, "split_t": 0.053}}, {"type": "Feature", "geometry": {"type": "Point", "coordinates": [2.4828597006121216, 6.368627049015528]}, "properties": {"edge_length_m": 340.7, "X": "Finagnon", "Y": "Tokplégbé", "X_side_m": 163.1, "Y_side_m": 177.6, "split_t": 0.479}}, {"type": "Feature", "geometry": {"type": "Point", "coordinates": [2.392474977, 6.3704131627]}, "properties": {"edge_length_m": 129.4, "X": "Houéyihô", "Y": "Védokô", "X_side_m": 129.3, "Y_side_m": 0.1, "split_t": 0.999}}, {"type": "Feature", "geometry": {"type": "Point", "coordinates": [2.3924751304000003, 6.3704144153]}, "properties": {"edge_length_m": 49.3, "X": "Védokô", "Y": "Houéyihô", "X_side_m": 0.0, "Y_side_m": 49.2, "split_t": 0.001}}, {"type": "Feature", "geometry": {"type": "Point", "coordinates": [2.3923783758, 6.3708809959]}, "properties": {"edge_length_m": 88.5, "X": "Védokô", "Y": "Houéyihô", "X_side_m": 0.1, "Y_side_m": 88.4, "split_t": 0.001}}, {"type": "Feature", "geometry": {"type": "Point", "coordinates": [2.3745499361951006, 6.360433471027481]}, "properties": {"edge_length_m": 52.9, "X": "Fidjrossè-Kpota", "Y": "Fidjrossè-Centre", "X_side_m": 30.5, "Y_side_m": 22.4, "split_t": 0.576}}, {"type": "Feature", "geometry": {"type": "Point", "coordinates": [2.3743629, 6.36004885]}, "properties": {"edge_length_m": 33.7, "X": "Fidjrossè-Kpota", "Y": "Fidjrossè-Centre", "X_side_m": 16.8, "Y_side_m": 16.8, "split_t": 0.5}}, {"type": "Feature", "geometry": {"type": "Point", "coordinates": [2.3786673034, 6.3580629953]}, "properties": {"edge_length_m": 65.1, "X": "Fidjrossè-Kpota", "Y": "Fidjrossè-Centre", "X_side_m": 0.1, "Y_side_m": 65.0, "split_t": 0.001}}, {"type": "Feature", "geometry": {"type": "Point", "coordinates": [2.378435591367115, 6.357243645635001]}, "properties": {"edge_length_m": 190.6, "X": "Fidjrossè-Kpota", "Y": "Fidjrossè-Centre", "X_side_m": 94.1, "Y_side_m": 96.4, "split_t": 0.494}}, {"type": "Feature", "geometry": {"type": "Point", "coordinates": [2.37336149670421, 6.361585102890084]}, "properties": {"edge_length_m": 65.8, "X": "Fidjrossè-Kpota", "Y": "Fidjrossè-Centre", "X_side_m": 46.2, "Y_side_m": 19.6, "split_t": 0.702}}, {"type": "Feature", "geometry": {"type": "Point", "coordinates": [2.34913865, 6.500555]}, "properties": {"edge_length_m": 69.9, "X": "Zopah-Akassato", "Y": "Zopah-Kokpo", "X_side_m": 34.9, "Y_side_m": 34.9, "split_t": 0.5}}, {"type": "Feature", "geometry": {"type": "Point", "coordinates": [2.34986505, 6.50028305]}, "properties": {"edge_length_m": 157.6, "X": "Zopah-Akassato", "Y": "Zopah-Kokpo", "X_side_m": 78.8, "Y_side_m": 78.8, "split_t": 0.5}}, {"type": "Feature", "geometry": {"type": "Point", "coordinates": [2.3534251421000003, 6.4996660763000005]}, "properties": {"edge_length_m": 86.1, "X": "Akassato", "Y": "Zopah-Kokpo", "X_side_m": 86.0, "Y_side_m": 0.1, "split_t": 0.999}}, {"type": "Feature", "geometry": {"type": "Point", "coordinates": [2.3537230884871163, 6.506855841126338]}, "properties": {"edge_length_m": 230.1, "X": "Akassato", "Y": "Zopah-Akassato", "X_side_m": 134.4, "Y_side_m": 95.7, "split_t": 0.584}}, {"type": "Feature", "geometry": {"type": "Point", "coordinates": [2.3611683, 6.49729055]}, "properties": {"edge_length_m": 36.6, "X": "Akassato", "Y": "Houèkè-Honou", "X_side_m": 18.3, "Y_side_m": 18.3, "split_t": 0.5}}, {"type": "Feature", "geometry": {"type": "Point", "coordinates": [2.3605875467, 6.4979823947]}, "properties": {"edge_length_m": 77.0, "X": "Houèkè-Honou", "Y": "Akassato", "X_side_m": 0.1, "Y_side_m": 76.9, "split_t": 0.001}}, {"type": "Feature", "geometry": {"type": "Point", "coordinates": [2.447786602563864, 6.371312537849465]}, "properties": {"edge_length_m": 127.8, "X": "Misséssin", "Y": "Ayélawadjè", "X_side_m": 39.2, "Y_side_m": 88.6, "split_t": 0.307}}, {"type": "Feature", "geometry": {"type": "Point", "coordinates": [2.448344572447889, 6.370949920936651]}, "properties": {"edge_length_m": 218.2, "X": "Misséssin", "Y": "Ayélawadjè", "X_side_m": 61.9, "Y_side_m": 156.4, "split_t": 0.284}}, {"type": "Feature", "geometry": {"type": "Point", "coordinates": [2.4489351843987963, 6.370588486392261]}, "properties": {"edge_length_m": 306.9, "X": "Misséssin", "Y": "Ayélawadjè", "X_side_m": 87.0, "Y_side_m": 219.9, "split_t": 0.284}}, {"type": "Feature", "geometry": {"type": "Point", "coordinates": [2.403415914, 6.3681072976]}, "properties": {"edge_length_m": 69.4, "X": "Vodjè-Finagnon", "Y": "Vodjè-Centre", "X_side_m": 69.4, "Y_side_m": 0.1, "split_t": 0.999}}, {"type": "Feature", "geometry": {"type": "Point", "coordinates": [2.3776294989691498, 6.360763388338994]}, "properties": {"edge_length_m": 169.5, "X": "Fidjrossè-Centre", "Y": "Fidjrossè-Kpota", "X_side_m": 132.0, "Y_side_m": 37.6, "split_t": 0.778}}, {"type": "Feature", "geometry": {"type": "Point", "coordinates": [2.374789907, 6.3610427886]}, "properties": {"edge_length_m": 66.3, "X": "Fidjrossè-Kpota", "Y": "Fidjrossè-Centre", "X_side_m": 0.1, "Y_side_m": 66.3, "split_t": 0.001}}, {"type": "Feature", "geometry": {"type": "Point", "coordinates": [2.4814656354, 6.3685927306]}, "properties": {"edge_length_m": 348.8, "X": "Finagnon", "Y": "Tokplégbé", "X_side_m": 0.3, "Y_side_m": 348.4, "split_t": 0.001}}, {"type": "Feature", "geometry": {"type": "Point", "coordinates": [2.4618532, 6.3762846]}, "properties": {"edge_length_m": 66.8, "X": "Sènadé", "Y": "Avotrou-Gbègo", "X_side_m": 33.4, "Y_side_m": 33.4, "split_t": 0.5}}, {"type": "Feature", "geometry": {"type": "Point", "coordinates": [2.4641254432, 6.3755989006]}, "properties": {"edge_length_m": 104.3, "X": "Avotrou-Gbègo", "Y": "Suru-Léré", "X_side_m": 0.1, "Y_side_m": 104.2, "split_t": 0.001}}, {"type": "Feature", "geometry": {"type": "Point", "coordinates": [2.477277936223946, 6.377563312047907]}, "properties": {"edge_length_m": 72.2, "X": "Avotrou-Gbègo", "Y": "Avotrou-Aïmonlonfidé", "X_side_m": 5.1, "Y_side_m": 67.1, "split_t": 0.071}}, {"type": "Feature", "geometry": {"type": "Point", "coordinates": [2.4772317899000003, 6.3775651941]}, "properties": {"edge_length_m": 154.1, "X": "Avotrou-Gbègo", "Y": "Avotrou-Aïmonlonfidé", "X_side_m": 0.2, "Y_side_m": 154.0, "split_t": 0.001}}, {"type": "Feature", "geometry": {"type": "Point", "coordinates": [2.47816165, 6.377554]}, "properties": {"edge_length_m": 61.4, "X": "Avotrou-Aïmonlonfidé", "Y": "Tchanhounkpamè", "X_side_m": 30.7, "Y_side_m": 30.7, "split_t": 0.5}}, {"type": "Feature", "geometry": {"type": "Point", "coordinates": [2.47876105, 6.3775477]}, "properties": {"edge_length_m": 71.2, "X": "Tchanhounkpamè", "Y": "Avotrou-Aïmonlonfidé", "X_side_m": 35.6, "Y_side_m": 35.6, "split_t": 0.5}}, {"type": "Feature", "geometry": {"type": "Point", "coordinates": [2.4650500177000003, 6.374932068100001]}, "properties": {"edge_length_m": 73.9, "X": "Suru-Léré", "Y": "Yagbé", "X_side_m": 73.8, "Y_side_m": 0.1, "split_t": 0.999}}, {"type": "Feature", "geometry": {"type": "Point", "coordinates": [2.4665228826092394, 6.374940304526688]}, "properties": {"edge_length_m": 76.4, "X": "Suru-Léré", "Y": "Yagbé", "X_side_m": 69.8, "Y_side_m": 6.6, "split_t": 0.913}}, {"type": "Feature", "geometry": {"type": "Point", "coordinates": [2.476653234, 6.3795464519000005]}, "properties": {"edge_length_m": 293.2, "X": "Avotrou-Aïmonlonfidé", "Y": "Avotrou-Gbègo", "X_side_m": 0.3, "Y_side_m": 292.9, "split_t": 0.001}}, {"type": "Feature", "geometry": {"type": "Point", "coordinates": [2.4766468978, 6.3789604954]}, "properties": {"edge_length_m": 77.9, "X": "Avotrou-Aïmonlonfidé", "Y": "Avotrou-Gbègo", "X_side_m": 0.1, "Y_side_m": 77.8, "split_t": 0.001}}, {"type": "Feature", "geometry": {"type": "Point", "coordinates": [2.4777616551999997, 6.3819188627]}, "properties": {"edge_length_m": 29.5, "X": "Avotrou-Gbègo", "Y": "Avotrou-Aïmonlonfidé", "X_side_m": 29.4, "Y_side_m": 0.0, "split_t": 0.999}}, {"type": "Feature", "geometry": {"type": "Point", "coordinates": [2.4773971481182584, 6.376983603305654]}, "properties": {"edge_length_m": 308.3, "X": "Avotrou-Gbègo", "Y": "Avotrou-Aïmonlonfidé", "X_side_m": 150.0, "Y_side_m": 158.3, "split_t": 0.487}}, {"type": "Feature", "geometry": {"type": "Point", "coordinates": [2.47781544420087, 6.37685486256263]}, "properties": {"edge_length_m": 150.1, "X": "Avotrou-Gbègo", "Y": "Avotrou-Aïmonlonfidé", "X_side_m": 126.6, "Y_side_m": 23.6, "split_t": 0.843}}, {"type": "Feature", "geometry": {"type": "Point", "coordinates": [2.47873375, 6.37829655]}, "properties": {"edge_length_m": 158.0, "X": "Avotrou-Aïmonlonfidé", "Y": "Tchanhounkpamè", "X_side_m": 79.0, "Y_side_m": 79.0, "split_t": 0.5}}, {"type": "Feature", "geometry": {"type": "Point", "coordinates": [2.460919655502049, 6.390221960895899]}, "properties": {"edge_length_m": 51.9, "X": "Gankpodo", "Y": "Yénawa", "X_side_m": 25.7, "Y_side_m": 26.2, "split_t": 0.496}}, {"type": "Feature", "geometry": {"type": "Point", "coordinates": [2.4588124336646353, 6.391437787249663]}, "properties": {"edge_length_m": 259.8, "X": "Gankpodo", "Y": "Yénawa", "X_side_m": 90.5, "Y_side_m": 169.2, "split_t": 0.349}}, {"type": "Feature", "geometry": {"type": "Point", "coordinates": [2.4611489021210122, 6.389076207579261]}, "properties": {"edge_length_m": 233.6, "X": "Gankpodo", "Y": "Yénawa", "X_side_m": 109.7, "Y_side_m": 123.9, "split_t": 0.47}}, {"type": "Feature", "geometry": {"type": "Point", "coordinates": [2.44085295, 6.3745709999999995]}, "properties": {"edge_length_m": 62.2, "X": "Kpankpan", "Y": "Midombo", "X_side_m": 31.1, "Y_side_m": 31.1, "split_t": 0.5}}, {"type": "Feature", "geometry": {"type": "Point", "coordinates": [2.44055875, 6.3742925]}, "properties": {"edge_length_m": 74.7, "X": "Kpankpan", "Y": "Midombo", "X_side_m": 37.3, "Y_side_m": 37.3, "split_t": 0.5}}, {"type": "Feature", "geometry": {"type": "Point", "coordinates": [2.3238456323, 6.4225388867]}, "properties": {"edge_length_m": 39.3, "X": "Tankpè-Togoudo", "Y": "Tankpê-Yoho", "X_side_m": 39.2, "Y_side_m": 0.0, "split_t": 0.999}}, {"type": "Feature", "geometry": {"type": "Point", "coordinates": [2.3223920945832677, 6.42360439222273]}, "properties": {"edge_length_m": 170.4, "X": "Tankpè-Togoudo", "Y": "Tankpê-Yoho", "X_side_m": 93.2, "Y_side_m": 77.3, "split_t": 0.547}}, {"type": "Feature", "geometry": {"type": "Point", "coordinates": [2.3235059176, 6.4228894329]}, "properties": {"edge_length_m": 122.0, "X": "Tankpè-Togoudo", "Y": "Tankpê-Yoho", "X_side_m": 121.9, "Y_side_m": 0.1, "split_t": 0.999}}, {"type": "Feature", "geometry": {"type": "Point", "coordinates": [2.3433752131, 6.4776896172]}, "properties": {"edge_length_m": 164.7, "X": "Zopah-Akassato", "Y": "Zopah-Kokpo", "X_side_m": 164.6, "Y_side_m": 0.2, "split_t": 0.999}}, {"type": "Feature", "geometry": {"type": "Point", "coordinates": [2.3618570569, 6.351178281099999]}, "properties": {"edge_length_m": 57.7, "X": "Fidjrossè-Kpota", "Y": "Fidjrossè-Centre", "X_side_m": 57.6, "Y_side_m": 0.1, "split_t": 0.999}}, {"type": "Feature", "geometry": {"type": "Point", "coordinates": [2.4162366649755116, 6.367767402051089]}, "properties": {"edge_length_m": 226.5, "X": "Yévèdo", "Y": "Saint-Jean-Gbèdiga", "X_side_m": 140.4, "Y_side_m": 86.0, "split_t": 0.62}}, {"type": "Feature", "geometry": {"type": "Point", "coordinates": [2.36457815, 6.3561931000000005]}, "properties": {"edge_length_m": 52.8, "X": "Fidjrossè-Kpota", "Y": "Fidjrossè-Centre", "X_side_m": 26.4, "Y_side_m": 26.4, "split_t": 0.5}}, {"type": "Feature", "geometry": {"type": "Point", "coordinates": [2.3647896262904813, 6.352902228199914]}, "properties": {"edge_length_m": 52.3, "X": "Fidjrossè-Kpota", "Y": "Fidjrossè-Centre", "X_side_m": 36.4, "Y_side_m": 15.9, "split_t": 0.697}}, {"type": "Feature", "geometry": {"type": "Point", "coordinates": [2.3642386560058286, 6.3510951934651]}, "properties": {"edge_length_m": 46.2, "X": "Fidjrossè-Centre", "Y": "Fidjrossè-Kpota", "X_side_m": 30.9, "Y_side_m": 15.3, "split_t": 0.669}}, {"type": "Feature", "geometry": {"type": "Point", "coordinates": [2.3645872627999998, 6.353453232400001]}, "properties": {"edge_length_m": 204.1, "X": "Fidjrossè-Centre", "Y": "Fidjrossè-Kpota", "X_side_m": 203.9, "Y_side_m": 0.2, "split_t": 0.999}}, {"type": "Feature", "geometry": {"type": "Point", "coordinates": [2.3646320654251927, 6.353032798911932]}, "properties": {"edge_length_m": 63.0, "X": "Fidjrossè-Kpota", "Y": "Fidjrossè-Centre", "X_side_m": 46.7, "Y_side_m": 16.2, "split_t": 0.742}}, {"type": "Feature", "geometry": {"type": "Point", "coordinates": [2.324140528708671, 6.421849433131105]}, "properties": {"edge_length_m": 54.2, "X": "Tankpè-Togoudo", "Y": "Tankpê-Yoho", "X_side_m": 8.3, "Y_side_m": 45.9, "split_t": 0.154}}, {"type": "Feature", "geometry": {"type": "Point", "coordinates": [2.3637238116000003, 6.350826673399999]}, "properties": {"edge_length_m": 32.0, "X": "Fidjrossè-Centre", "Y": "Fidjrossè-Kpota", "X_side_m": 0.0, "Y_side_m": 32.0, "split_t": 0.001}}, {"type": "Feature", "geometry": {"type": "Point", "coordinates": [2.3747677746916436, 6.36053684594879]}, "properties": {"edge_length_m": 82.0, "X": "Fidjrossè-Centre", "Y": "Fidjrossè-Kpota", "X_side_m": 16.9, "Y_side_m": 65.1, "split_t": 0.206}}, {"type": "Feature", "geometry": {"type": "Point", "coordinates": [2.3644284123, 6.4970653599]}, "properties": {"edge_length_m": 121.6, "X": "Houèkè-Honou", "Y": "Akassato", "X_side_m": 0.1, "Y_side_m": 121.5, "split_t": 0.001}}, {"type": "Feature", "geometry": {"type": "Point", "coordinates": [2.460250852400618, 6.375461853287649]}, "properties": {"edge_length_m": 93.5, "X": "Sènadé", "Y": "Irédé", "X_side_m": 92.8, "Y_side_m": 0.8, "split_t": 0.992}}, {"type": "Feature", "geometry": {"type": "Point", "coordinates": [2.4609103437290485, 6.375580128018608]}, "properties": {"edge_length_m": 110.1, "X": "Irédé", "Y": "Sènadé", "X_side_m": 31.6, "Y_side_m": 78.4, "split_t": 0.287}}, {"type": "Feature", "geometry": {"type": "Point", "coordinates": [2.422392451535111, 6.374581318174004]}, "properties": {"edge_length_m": 194.0, "X": "Aïdjèdo-Ahito", "Y": "Jéricho-Nord", "X_side_m": 64.0, "Y_side_m": 130.0, "split_t": 0.33}}, {"type": "Feature", "geometry": {"type": "Point", "coordinates": [2.429441814714311, 6.369748903880857]}, "properties": {"edge_length_m": 116.6, "X": "Sèdjro-Saint-Michel", "Y": "Dantôkpa", "X_side_m": 68.3, "Y_side_m": 48.3, "split_t": 0.586}}, {"type": "Feature", "geometry": {"type": "Point", "coordinates": [2.42394400607828, 6.3765769877305765]}, "properties": {"edge_length_m": 181.4, "X": "Aïdjèdo", "Y": "Jéricho-Nord", "X_side_m": 73.7, "Y_side_m": 107.7, "split_t": 0.406}}, {"type": "Feature", "geometry": {"type": "Point", "coordinates": [2.460412310012475, 6.3885566379243235]}, "properties": {"edge_length_m": 233.6, "X": "Gankpodo", "Y": "Yénawa", "X_side_m": 27.8, "Y_side_m": 205.8, "split_t": 0.119}}, {"type": "Feature", "geometry": {"type": "Point", "coordinates": [2.4599833156830875, 6.388561745500016]}, "properties": {"edge_length_m": 78.2, "X": "Gankpodo", "Y": "Yénawa", "X_side_m": 19.7, "Y_side_m": 58.5, "split_t": 0.252}}, {"type": "Feature", "geometry": {"type": "Point", "coordinates": [2.4269716822999996, 6.3706498516]}, "properties": {"edge_length_m": 49.6, "X": "Sèdjro-Saint-Michel", "Y": "Jéricho-Nord", "X_side_m": 0.0, "Y_side_m": 49.5, "split_t": 0.001}}, {"type": "Feature", "geometry": {"type": "Point", "coordinates": [2.4272536255, 6.37030176]}, "properties": {"edge_length_m": 9.4, "X": "Jéricho-Nord", "Y": "Sèdjro-Saint-Michel", "X_side_m": 0.0, "Y_side_m": 9.3, "split_t": 0.001}}, {"type": "Feature", "geometry": {"type": "Point", "coordinates": [2.389675684811743, 6.375086562895969]}, "properties": {"edge_length_m": 11.4, "X": "Védokô", "Y": "Houéyihô", "X_side_m": 6.2, "Y_side_m": 5.1, "split_t": 0.548}}, {"type": "Feature", "geometry": {"type": "Point", "coordinates": [2.3902490934814904, 6.375151553804529]}, "properties": {"edge_length_m": 59.7, "X": "Houéyihô", "Y": "Védokô", "X_side_m": 52.1, "Y_side_m": 7.6, "split_t": 0.873}}, {"type": "Feature", "geometry": {"type": "Point", "coordinates": [2.3915552725621594, 6.371076337325495]}, "properties": {"edge_length_m": 187.3, "X": "Houéyihô", "Y": "Védokô", "X_side_m": 164.5, "Y_side_m": 22.8, "split_t": 0.878}}, {"type": "Feature", "geometry": {"type": "Point", "coordinates": [2.3906183307, 6.3732982729000005]}, "properties": {"edge_length_m": 31.1, "X": "Védokô", "Y": "Houéyihô", "X_side_m": 0.0, "Y_side_m": 31.1, "split_t": 0.001}}, {"type": "Feature", "geometry": {"type": "Point", "coordinates": [2.2477202, 6.45759]}, "properties": {"edge_length_m": 26.6, "X": "Dossounou", "Y": "Hêvié", "X_side_m": 13.3, "Y_side_m": 13.3, "split_t": 0.5}}, {"type": "Feature", "geometry": {"type": "Point", "coordinates": [2.24765135, 6.452841449999999]}, "properties": {"edge_length_m": 110.3, "X": "Hêvié", "Y": "Dossounou", "X_side_m": 55.1, "Y_side_m": 55.1, "split_t": 0.5}}, {"type": "Feature", "geometry": {"type": "Point", "coordinates": [2.2490038961, 6.4550886379]}, "properties": {"edge_length_m": 45.9, "X": "Dossounou", "Y": "Hêvié", "X_side_m": 45.9, "Y_side_m": 0.0, "split_t": 0.999}}, {"type": "Feature", "geometry": {"type": "Point", "coordinates": [2.2465520000000003, 6.4591165]}, "properties": {"edge_length_m": 138.2, "X": "Dossounou", "Y": "Hêvié", "X_side_m": 69.1, "Y_side_m": 69.1, "split_t": 0.5}}, {"type": "Feature", "geometry": {"type": "Point", "coordinates": [2.456167064353432, 6.3880243503350105]}, "properties": {"edge_length_m": 69.9, "X": "Gankpodo", "Y": "Kpondéhou", "X_side_m": 40.3, "Y_side_m": 29.6, "split_t": 0.577}}, {"type": "Feature", "geometry": {"type": "Point", "coordinates": [2.3668500319181205, 6.498044094395692]}, "properties": {"edge_length_m": 44.4, "X": "Akassato", "Y": "Houèkè-Honou", "X_side_m": 17.2, "Y_side_m": 27.2, "split_t": 0.387}}, {"type": "Feature", "geometry": {"type": "Point", "coordinates": [2.3660128, 6.4974533]}, "properties": {"edge_length_m": 24.2, "X": "Akassato", "Y": "Houèkè-Honou", "X_side_m": 12.1, "Y_side_m": 12.1, "split_t": 0.5}}, {"type": "Feature", "geometry": {"type": "Point", "coordinates": [2.3674109332599254, 6.4985740629475925]}, "properties": {"edge_length_m": 21.8, "X": "Akassato", "Y": "Houèkè-Honou", "X_side_m": 7.4, "Y_side_m": 14.4, "split_t": 0.339}}, {"type": "Feature", "geometry": {"type": "Point", "coordinates": [2.3913467366, 6.3715088473999995]}, "properties": {"edge_length_m": 64.6, "X": "Houéyihô", "Y": "Védokô", "X_side_m": 64.5, "Y_side_m": 0.1, "split_t": 0.999}}, {"type": "Feature", "geometry": {"type": "Point", "coordinates": [2.4245706352422256, 6.3835978283309265]}, "properties": {"edge_length_m": 12.3, "X": "Aïdjèdo", "Y": "Ahouansouri-Agata", "X_side_m": 10.0, "Y_side_m": 2.3, "split_t": 0.814}}, {"type": "Feature", "geometry": {"type": "Point", "coordinates": [2.4245517927, 6.3836066291]}, "properties": {"edge_length_m": 12.3, "X": "Ahouansouri-Agata", "Y": "Aïdjèdo", "X_side_m": 0.0, "Y_side_m": 12.3, "split_t": 0.001}}, {"type": "Feature", "geometry": {"type": "Point", "coordinates": [2.3862685375000003, 6.3776249507000005]}, "properties": {"edge_length_m": 81.8, "X": "Ahogbohoué-Cité-Eucharistie", "Y": "Kouhounou", "X_side_m": 81.7, "Y_side_m": 0.1, "split_t": 0.999}}, {"type": "Feature", "geometry": {"type": "Point", "coordinates": [2.40004465, 6.3564722]}, "properties": {"edge_length_m": 8.1, "X": "Cadjèhoun-Gare", "Y": "Cadjèhoun-Azalokogon", "X_side_m": 4.1, "Y_side_m": 4.1, "split_t": 0.5}}, {"type": "Feature", "geometry": {"type": "Point", "coordinates": [2.3998810899, 6.3564109573000005]}, "properties": {"edge_length_m": 11.8, "X": "Cadjèhoun-Azalokogon", "Y": "Cadjèhoun-Gare", "X_side_m": 11.8, "Y_side_m": 0.0, "split_t": 0.999}}, {"type": "Feature", "geometry": {"type": "Point", "coordinates": [2.4062578500000003, 6.3744271]}, "properties": {"edge_length_m": 64.1, "X": "Vodjè-Ayidoté", "Y": "Agontinkon", "X_side_m": 32.0, "Y_side_m": 32.0, "split_t": 0.5}}]}