{"type": "FeatureCollection", "generator": "eya · build_gpoi_local_reassign.py", "note": "Per-POI local reassignment (pilot for Mènontin). For each POI matched to quartier X, road vertices within 50 m of the POI are checked; if X does not already own any, a Dijkstra path is sought through the current owner's territory only (barrier: third-party quartier vertices) until X's existing network is reached. The minimum connected branch (Y-seeds in the POI ring plus the path) is reassigned. Audit-only — do not embed in shipped datasets.", "seed_radius_m": 150.0, "pilot_target_quartiers": ["Mènontin"], "per_poi_counts": {"CONFIRMED_NEW": 4, "CONFIRMED_ALREADY": 10}, "n_edges_reassigned": 64, "features": [{"type": "Feature", "geometry": {"type": "LineString", "coordinates": [[2.3642846, 6.3929354], [2.3643086, 6.3922959]]}, "properties": {"target_quartier": "Mènontin", "target_color": "#93d64b", "from_owner": "Kindonou", "poi_anchor": "Menontin", "poi_anchors_all": ["Menontin", "Menontin", "BOUTIQUE DE MENONTIN", "BOUTIQUE DE MENONTIN"], "n_anchors": 4, "distance_from_poi_m": 121.6, "path_length_m": 146.7, "path_via": "Kindonou (147 m)", "stop_reason": "reached_X_network", "kind": "interior", "status": "CONFIRMED_NEW"}}, {"type": "Feature", "geometry": {"type": "LineString", "coordinates": [[2.3642846, 6.3929354], [2.3648119, 6.3928695]]}, "properties": {"target_quartier": "Mènontin", "target_color": "#93d64b", "from_owner": "Kindonou", "poi_anchor": "Menontin", "poi_anchors_all": ["Menontin", "Menontin", "BOUTIQUE DE MENONTIN", "BOUTIQUE DE MENONTIN"], "n_anchors": 4, "distance_from_poi_m": 86.4, "path_length_m": 146.7, "path_via": "Kindonou (147 m)", "stop_reason": "reached_X_network", "kind": "interior", "status": "CONFIRMED_NEW"}}, {"type": "Feature", "geometry": {"type": "LineString", "coordinates": [[2.3648119, 6.3928695], [2.3652932, 6.3928298]]}, "properties": {"target_quartier": "Mènontin", "target_color": "#93d64b", "from_owner": "Kindonou", "poi_anchor": "Menontin", "poi_anchors_all": ["Menontin", "Menontin", "BOUTIQUE DE MENONTIN", "BOUTIQUE DE MENONTIN"], "n_anchors": 4, "distance_from_poi_m": 34.8, "path_length_m": 146.7, "path_via": "Kindonou (147 m)", "stop_reason": "reached_X_network", "kind": "interior", "status": "CONFIRMED_NEW"}}, {"type": "Feature", "geometry": {"type": "LineString", "coordinates": [[2.3648119, 6.3928695], [2.3648202, 6.392246]]}, "properties": {"target_quartier": "Mènontin", "target_color": "#93d64b", "from_owner": "Kindonou", "poi_anchor": "Menontin", "poi_anchors_all": ["Menontin", "Menontin", "BOUTIQUE DE MENONTIN", "BOUTIQUE DE MENONTIN"], "n_anchors": 4, "distance_from_poi_m": 75.2, "path_length_m": 146.7, "path_via": "Kindonou (147 m)", "stop_reason": "reached_X_network", "kind": "interior", "status": "CONFIRMED_NEW"}}, {"type": "Feature", "geometry": {"type": "LineString", "coordinates": [[2.3648119, 6.3928695], [2.36478, 6.3932473]]}, "properties": {"target_quartier": "Mènontin", "target_color": "#93d64b", "from_owner": "Kindonou", "poi_anchor": "Menontin", "poi_anchors_all": ["Menontin", "Menontin", "BOUTIQUE DE MENONTIN", "BOUTIQUE DE MENONTIN"], "n_anchors": 4, "distance_from_poi_m": 58.3, "path_length_m": 146.7, "path_via": "Kindonou (147 m)", "stop_reason": "reached_X_network", "kind": "interior", "status": "CONFIRMED_NEW"}}, {"type": "Feature", "geometry": {"type": "LineString", "coordinates": [[2.3652932, 6.3928298], [2.366918, 6.3927551]]}, "properties": {"target_quartier": "Mènontin", "target_color": "#93d64b", "from_owner": "Kindonou", "poi_anchor": "BOUTIQUE DE MENONTIN", "poi_anchors_all": ["Menontin", "BOUTIQUE DE MENONTIN"], "n_anchors": 2, "distance_from_poi_m": 87.2, "path_length_m": 146.7, "path_via": "Kindonou (147 m)", "stop_reason": "reached_X_network", "kind": "rim_to_X", "status": "CONFIRMED_NEW"}}, {"type": "Feature", "geometry": {"type": "LineString", "coordinates": [[2.3652932, 6.3928298], [2.3652729, 6.3933514]]}, "properties": {"target_quartier": "Mènontin", "target_color": "#93d64b", "from_owner": "Kindonou", "poi_anchor": "Menontin", "poi_anchors_all": ["Menontin", "Menontin", "BOUTIQUE DE MENONTIN", "BOUTIQUE DE MENONTIN"], "n_anchors": 4, "distance_from_poi_m": 9.6, "path_length_m": 146.7, "path_via": "Kindonou (147 m)", "stop_reason": "reached_X_network", "kind": "interior", "status": "CONFIRMED_NEW"}}, {"type": "Feature", "geometry": {"type": "LineString", "coordinates": [[2.3643086, 6.3922959], [2.3648202, 6.392246]]}, "properties": {"target_quartier": "Mènontin", "target_color": "#93d64b", "from_owner": "Kindonou", "poi_anchor": "Menontin", "poi_anchors_all": ["Menontin", "Menontin", "BOUTIQUE DE MENONTIN", "BOUTIQUE DE MENONTIN"], "n_anchors": 4, "distance_from_poi_m": 117.2, "path_length_m": 146.7, "path_via": "Kindonou (147 m)", "stop_reason": "reached_X_network", "kind": "interior", "status": "CONFIRMED_NEW"}}, {"type": "Feature", "geometry": {"type": "LineString", "coordinates": [[2.364815, 6.3921571], [2.3648202, 6.392246]]}, "properties": {"target_quartier": "Mènontin", "target_color": "#93d64b", "from_owner": "Kindonou", "poi_anchor": "Menontin", "poi_anchors_all": ["Menontin", "Menontin", "BOUTIQUE DE MENONTIN", "BOUTIQUE DE MENONTIN"], "n_anchors": 4, "distance_from_poi_m": 105.6, "path_length_m": 146.7, "path_via": "Kindonou (147 m)", "stop_reason": "reached_X_network", "kind": "interior", "status": "CONFIRMED_NEW"}}, {"type": "Feature", "geometry": {"type": "LineString", "coordinates": [[2.3648202, 6.392246], [2.3671448, 6.3920353]]}, "properties": {"target_quartier": "Mènontin", "target_color": "#93d64b", "from_owner": "Kindonou", "poi_anchor": "BOUTIQUE DE MENONTIN", "poi_anchors_all": ["Menontin", "BOUTIQUE DE MENONTIN"], "n_anchors": 2, "distance_from_poi_m": 119.1, "path_length_m": 146.7, "path_via": "Kindonou (147 m)", "stop_reason": "reached_X_network", "kind": "rim_to_X", "status": "CONFIRMED_NEW"}}, {"type": "Feature", "geometry": {"type": "LineString", "coordinates": [[2.364815, 6.3921571], [2.3676188, 6.3918849]]}, "properties": {"target_quartier": "Mènontin", "target_color": "#93d64b", "from_owner": "Kindonou", "poi_anchor": "BOUTIQUE DE MENONTIN", "poi_anchors_all": ["Menontin", "BOUTIQUE DE MENONTIN"], "n_anchors": 2, "distance_from_poi_m": 145.6, "path_length_m": 146.7, "path_via": "Kindonou (147 m)", "stop_reason": "reached_X_network", "kind": "rim_to_X", "status": "CONFIRMED_NEW"}}, {"type": "Feature", "geometry": {"type": "LineString", "coordinates": [[2.3643114, 6.3921846], [2.364815, 6.3921571]]}, "properties": {"target_quartier": "Mènontin", "target_color": "#93d64b", "from_owner": "Kindonou", "poi_anchor": "Menontin", "poi_anchors_all": ["Menontin", "Menontin", "BOUTIQUE DE MENONTIN", "BOUTIQUE DE MENONTIN"], "n_anchors": 4, "distance_from_poi_m": 125.3, "path_length_m": 146.7, "path_via": "Kindonou (147 m)", "stop_reason": "reached_X_network", "kind": "interior", "status": "CONFIRMED_NEW"}}, {"type": "Feature", "geometry": {"type": "LineString", "coordinates": [[2.3643114, 6.3921846], [2.3643086, 6.3922959]]}, "properties": {"target_quartier": "Mènontin", "target_color": "#93d64b", "from_owner": "Kindonou", "poi_anchor": "Menontin", "poi_anchors_all": ["Menontin", "Menontin", "BOUTIQUE DE MENONTIN", "BOUTIQUE DE MENONTIN"], "n_anchors": 4, "distance_from_poi_m": 140.7, "path_length_m": 146.7, "path_via": "Kindonou (147 m)", "stop_reason": "reached_X_network", "kind": "interior", "status": "CONFIRMED_NEW"}}, {"type": "Feature", "geometry": {"type": "LineString", "coordinates": [[2.3652729, 6.3933514], [2.3652156, 6.3939327]]}, "properties": {"target_quartier": "Mènontin", "target_color": "#93d64b", "from_owner": "Kindonou", "poi_anchor": "Menontin", "poi_anchors_all": ["Menontin", "Menontin", "BOUTIQUE DE MENONTIN", "BOUTIQUE DE MENONTIN"], "n_anchors": 4, "distance_from_poi_m": 70.1, "path_length_m": 146.7, "path_via": "Kindonou (147 m)", "stop_reason": "reached_X_network", "kind": "interior", "status": "CONFIRMED_NEW"}}, {"type": "Feature", "geometry": {"type": "LineString", "coordinates": [[2.3652729, 6.3933514], [2.3667619, 6.3932454]]}, "properties": {"target_quartier": "Mènontin", "target_color": "#93d64b", "from_owner": "Kindonou", "poi_anchor": "BOUTIQUE DE MENONTIN", "poi_anchors_all": ["Menontin", "BOUTIQUE DE MENONTIN"], "n_anchors": 2, "distance_from_poi_m": 80.5, "path_length_m": 146.7, "path_via": "Kindonou (147 m)", "stop_reason": "reached_X_network", "kind": "rim_to_X", "status": "CONFIRMED_NEW"}}, {"type": "Feature", "geometry": {"type": "LineString", "coordinates": [[2.3652156, 6.3939327], [2.3651524, 6.3942962]]}, "properties": {"target_quartier": "Mènontin", "target_color": "#93d64b", "from_owner": "Kindonou", "poi_anchor": "Menontin", "poi_anchors_all": ["Menontin", "Menontin", "BOUTIQUE DE MENONTIN", "BOUTIQUE DE MENONTIN"], "n_anchors": 4, "distance_from_poi_m": 122.7, "path_length_m": 146.7, "path_via": "Kindonou (147 m)", "stop_reason": "reached_X_network", "kind": "interior", "status": "CONFIRMED_NEW"}}, {"type": "Feature", "geometry": {"type": "LineString", "coordinates": [[2.3652156, 6.3939327], [2.3665359, 6.3938127]]}, "properties": {"target_quartier": "Mènontin", "target_color": "#93d64b", "from_owner": "Kindonou", "poi_anchor": "BOUTIQUE DE MENONTIN", "poi_anchors_all": ["Menontin", "BOUTIQUE DE MENONTIN"], "n_anchors": 2, "distance_from_poi_m": 111.7, "path_length_m": 146.7, "path_via": "Kindonou (147 m)", "stop_reason": "reached_X_network", "kind": "rim_to_X", "status": "CONFIRMED_NEW"}}, {"type": "Feature", "geometry": {"type": "LineString", "coordinates": [[2.3670139, 6.3942434], [2.3651524, 6.3942962]]}, "properties": {"target_quartier": "Mènontin", "target_color": "#93d64b", "from_owner": "Kindonou", "poi_anchor": "BOUTIQUE DE MENONTIN", "poi_anchors_all": ["Menontin", "BOUTIQUE DE MENONTIN"], "n_anchors": 2, "distance_from_poi_m": 161.1, "path_length_m": 146.7, "path_via": "Kindonou (147 m)", "stop_reason": "reached_X_network", "kind": "rim_to_X", "status": "CONFIRMED_NEW"}}, {"type": "Feature", "geometry": {"type": "LineString", "coordinates": [[2.3636033, 6.3884382], [2.3635947, 6.3876615]]}, "properties": {"target_quartier": "Mènontin", "target_color": "#93d64b", "from_owner": "Kindonou", "poi_anchor": "Carrefour Menontin", "poi_anchors_all": ["Carrefour Menontin", "Carrefour Menontin", "Agence BOA MENONTIN", "Agence BOA MENONTIN"], "n_anchors": 4, "distance_from_poi_m": 72.2, "path_length_m": 125.8, "path_via": "Kindonou (126 m)", "stop_reason": "reached_X_network", "kind": "interior", "status": "CONFIRMED_NEW"}}, {"type": "Feature", "geometry": {"type": "LineString", "coordinates": [[2.3640354, 6.3883812], [2.3636033, 6.3884382]]}, "properties": {"target_quartier": "Mènontin", "target_color": "#93d64b", "from_owner": "Kindonou", "poi_anchor": "Carrefour Menontin", "poi_anchors_all": ["Carrefour Menontin", "Carrefour Menontin", "Agence BOA MENONTIN", "Agence BOA MENONTIN"], "n_anchors": 4, "distance_from_poi_m": 29.4, "path_length_m": 125.8, "path_via": "Kindonou (126 m)", "stop_reason": "reached_X_network", "kind": "interior", "status": "CONFIRMED_NEW"}}, {"type": "Feature", "geometry": {"type": "LineString", "coordinates": [[2.363053, 6.3885212], [2.3636033, 6.3884382]]}, "properties": {"target_quartier": "Mènontin", "target_color": "#93d64b", "from_owner": "Kindonou", "poi_anchor": "Carrefour Menontin", "poi_anchors_all": ["Carrefour Menontin", "Carrefour Menontin", "Agence BOA MENONTIN", "Agence BOA MENONTIN"], "n_anchors": 4, "distance_from_poi_m": 81.8, "path_length_m": 125.8, "path_via": "Kindonou (126 m)", "stop_reason": "reached_X_network", "kind": "interior", "status": "CONFIRMED_NEW"}}, {"type": "Feature", "geometry": {"type": "LineString", "coordinates": [[2.3641752, 6.3883498], [2.3648795, 6.3882173]]}, "properties": {"target_quartier": "Mènontin", "target_color": "#93d64b", "from_owner": "Kindonou", "poi_anchor": "Carrefour Menontin", "poi_anchors_all": ["Carrefour Menontin", "Carrefour Menontin", "Agence BOA MENONTIN", "Agence BOA MENONTIN"], "n_anchors": 4, "distance_from_poi_m": 56.5, "path_length_m": 125.8, "path_via": "Kindonou (126 m)", "stop_reason": "reached_X_network", "kind": "interior", "status": "CONFIRMED_NEW"}}, {"type": "Feature", "geometry": {"type": "LineString", "coordinates": [[2.3640354, 6.3883812], [2.3641752, 6.3883498]]}, "properties": {"target_quartier": "Mènontin", "target_color": "#93d64b", "from_owner": "Kindonou", "poi_anchor": "Carrefour Menontin", "poi_anchors_all": ["Carrefour Menontin", "Carrefour Menontin", "Agence BOA MENONTIN", "Agence BOA MENONTIN"], "n_anchors": 4, "distance_from_poi_m": 16.0, "path_length_m": 125.8, "path_via": "Kindonou (126 m)", "stop_reason": "reached_X_network", "kind": "interior", "status": "CONFIRMED_NEW"}}, {"type": "Feature", "geometry": {"type": "LineString", "coordinates": [[2.3641752, 6.3883498], [2.3640944, 6.3876375]]}, "properties": {"target_quartier": "Mènontin", "target_color": "#93d64b", "from_owner": "Kindonou", "poi_anchor": "Carrefour Menontin", "poi_anchors_all": ["Carrefour Menontin", "Carrefour Menontin", "Agence BOA MENONTIN", "Agence BOA MENONTIN"], "n_anchors": 4, "distance_from_poi_m": 57.0, "path_length_m": 125.8, "path_via": "Kindonou (126 m)", "stop_reason": "reached_X_network", "kind": "interior", "status": "CONFIRMED_NEW"}}, {"type": "Feature", "geometry": {"type": "LineString", "coordinates": [[2.3648795, 6.3882173], [2.365353, 6.3881106]]}, "properties": {"target_quartier": "Mènontin", "target_color": "#93d64b", "from_owner": "Kindonou", "poi_anchor": "Agence BOA MENONTIN", "poi_anchors_all": ["Carrefour Menontin", "Carrefour Menontin", "Agence BOA MENONTIN", "Agence BOA MENONTIN"], "n_anchors": 4, "distance_from_poi_m": 114.6, "path_length_m": 107.9, "path_via": "Kindonou (108 m)", "stop_reason": "reached_X_network", "kind": "interior", "status": "CONFIRMED_NEW"}}, {"type": "Feature", "geometry": {"type": "LineString", "coordinates": [[2.3630633, 6.3885948], [2.3635542, 6.3885335]]}, "properties": {"target_quartier": "Mènontin", "target_color": "#93d64b", "from_owner": "Kindonou", "poi_anchor": "Carrefour Menontin", "poi_anchors_all": ["Carrefour Menontin", "Carrefour Menontin", "Agence BOA MENONTIN", "Agence BOA MENONTIN"], "n_anchors": 4, "distance_from_poi_m": 84.2, "path_length_m": 125.8, "path_via": "Kindonou (126 m)", "stop_reason": "reached_X_network", "kind": "interior", "status": "CONFIRMED_NEW"}}, {"type": "Feature", "geometry": {"type": "LineString", "coordinates": [[2.3635542, 6.3885335], [2.3640556, 6.3884643]]}, "properties": {"target_quartier": "Mènontin", "target_color": "#93d64b", "from_owner": "Kindonou", "poi_anchor": "Carrefour Menontin", "poi_anchors_all": ["Carrefour Menontin", "Carrefour Menontin", "Agence BOA MENONTIN", "Agence BOA MENONTIN"], "n_anchors": 4, "distance_from_poi_m": 29.0, "path_length_m": 125.8, "path_via": "Kindonou (126 m)", "stop_reason": "reached_X_network", "kind": "interior", "status": "CONFIRMED_NEW"}}, {"type": "Feature", "geometry": {"type": "LineString", "coordinates": [[2.3640556, 6.3884643], [2.3648981, 6.3882816]]}, "properties": {"target_quartier": "Mènontin", "target_color": "#93d64b", "from_owner": "Kindonou", "poi_anchor": "Agence BOA MENONTIN", "poi_anchors_all": ["Carrefour Menontin", "Carrefour Menontin", "Agence BOA MENONTIN", "Agence BOA MENONTIN"], "n_anchors": 4, "distance_from_poi_m": 47.6, "path_length_m": 107.9, "path_via": "Kindonou (108 m)", "stop_reason": "reached_X_network", "kind": "interior", "status": "CONFIRMED_NEW"}}, {"type": "Feature", "geometry": {"type": "LineString", "coordinates": [[2.3640556, 6.3884643], [2.3640876, 6.3885653]]}, "properties": {"target_quartier": "Mènontin", "target_color": "#93d64b", "from_owner": "Kindonou", "poi_anchor": "Carrefour Menontin", "poi_anchors_all": ["Carrefour Menontin", "Carrefour Menontin", "Agence BOA MENONTIN", "Agence BOA MENONTIN"], "n_anchors": 4, "distance_from_poi_m": 1.2, "path_length_m": 125.8, "path_via": "Kindonou (126 m)", "stop_reason": "reached_X_network", "kind": "interior", "status": "CONFIRMED_NEW"}}, {"type": "Feature", "geometry": {"type": "LineString", "coordinates": [[2.3640556, 6.3884643], [2.3640354, 6.3883812]]}, "properties": {"target_quartier": "Mènontin", "target_color": "#93d64b", "from_owner": "Kindonou", "poi_anchor": "Carrefour Menontin", "poi_anchors_all": ["Carrefour Menontin", "Carrefour Menontin", "Agence BOA MENONTIN", "Agence BOA MENONTIN"], "n_anchors": 4, "distance_from_poi_m": 9.4, "path_length_m": 125.8, "path_via": "Kindonou (126 m)", "stop_reason": "reached_X_network", "kind": "interior", "status": "CONFIRMED_NEW"}}, {"type": "Feature", "geometry": {"type": "LineString", "coordinates": [[2.3648981, 6.3882816], [2.3653784, 6.3881747]]}, "properties": {"target_quartier": "Mènontin", "target_color": "#93d64b", "from_owner": "Kindonou", "poi_anchor": "Agence BOA MENONTIN", "poi_anchors_all": ["Carrefour Menontin", "Carrefour Menontin", "Agence BOA MENONTIN", "Agence BOA MENONTIN"], "n_anchors": 4, "distance_from_poi_m": 112.9, "path_length_m": 107.9, "path_via": "Kindonou (108 m)", "stop_reason": "reached_X_network", "kind": "interior", "status": "CONFIRMED_NEW"}}, {"type": "Feature", "geometry": {"type": "LineString", "coordinates": [[2.3653784, 6.3881747], [2.36577, 6.3880787]]}, "properties": {"target_quartier": "Mènontin", "target_color": "#93d64b", "from_owner": "Kindonou", "poi_anchor": "Carrefour Menontin", "poi_anchors_all": ["Carrefour Menontin", "Carrefour Menontin"], "n_anchors": 2, "distance_from_poi_m": 171.9, "path_length_m": 125.8, "path_via": "Kindonou (126 m)", "stop_reason": "reached_X_network", "kind": "interior", "status": "CONFIRMED_NEW"}}, {"type": "Feature", "geometry": {"type": "LineString", "coordinates": [[2.36577, 6.3880787], [2.3664784, 6.3878878]]}, "properties": {"target_quartier": "Mènontin", "target_color": "#93d64b", "from_owner": "Kindonou", "poi_anchor": "Carrefour Menontin", "poi_anchors_all": ["Carrefour Menontin"], "n_anchors": 1, "distance_from_poi_m": 234.8, "path_length_m": 125.8, "path_via": "Kindonou (126 m)", "stop_reason": "reached_X_network", "kind": "rim_to_X", "status": "CONFIRMED_NEW"}}, {"type": "Feature", "geometry": {"type": "LineString", "coordinates": [[2.3628626, 6.3888131], [2.3630372, 6.388788]]}, "properties": {"target_quartier": "Mènontin", "target_color": "#93d64b", "from_owner": "Kindonou", "poi_anchor": "Carrefour Menontin", "poi_anchors_all": ["Carrefour Menontin", "Carrefour Menontin"], "n_anchors": 2, "distance_from_poi_m": 127.8, "path_length_m": 125.8, "path_via": "Kindonou (126 m)", "stop_reason": "reached_X_network", "kind": "interior", "status": "CONFIRMED_NEW"}}, {"type": "Feature", "geometry": {"type": "LineString", "coordinates": [[2.3642171, 6.3895411], [2.3641464, 6.389603]]}, "properties": {"target_quartier": "Mènontin", "target_color": "#93d64b", "from_owner": "Kindonou", "poi_anchor": "Agence BOA MENONTIN", "poi_anchors_all": ["Carrefour Menontin", "Carrefour Menontin", "Agence BOA MENONTIN", "Agence BOA MENONTIN"], "n_anchors": 4, "distance_from_poi_m": 92.0, "path_length_m": 107.9, "path_via": "Kindonou (108 m)", "stop_reason": "reached_X_network", "kind": "interior", "status": "CONFIRMED_NEW"}}, {"type": "Feature", "geometry": {"type": "LineString", "coordinates": [[2.3642171, 6.3895411], [2.3641786, 6.3891592]]}, "properties": {"target_quartier": "Mènontin", "target_color": "#93d64b", "from_owner": "Kindonou", "poi_anchor": "Agence BOA MENONTIN", "poi_anchors_all": ["Carrefour Menontin", "Carrefour Menontin", "Agence BOA MENONTIN", "Agence BOA MENONTIN"], "n_anchors": 4, "distance_from_poi_m": 67.4, "path_length_m": 107.9, "path_via": "Kindonou (108 m)", "stop_reason": "reached_X_network", "kind": "interior", "status": "CONFIRMED_NEW"}}, {"type": "Feature", "geometry": {"type": "LineString", "coordinates": [[2.3641786, 6.3891592], [2.3641132, 6.3886813]]}, "properties": {"target_quartier": "Mènontin", "target_color": "#93d64b", "from_owner": "Kindonou", "poi_anchor": "Agence BOA MENONTIN", "poi_anchors_all": ["Carrefour Menontin", "Carrefour Menontin", "Agence BOA MENONTIN", "Agence BOA MENONTIN"], "n_anchors": 4, "distance_from_poi_m": 23.1, "path_length_m": 107.9, "path_via": "Kindonou (108 m)", "stop_reason": "reached_X_network", "kind": "interior", "status": "CONFIRMED_NEW"}}, {"type": "Feature", "geometry": {"type": "LineString", "coordinates": [[2.3641786, 6.3891592], [2.3649361, 6.3890006]]}, "properties": {"target_quartier": "Mènontin", "target_color": "#93d64b", "from_owner": "Kindonou", "poi_anchor": "Agence BOA MENONTIN", "poi_anchors_all": ["Carrefour Menontin", "Carrefour Menontin", "Agence BOA MENONTIN", "Agence BOA MENONTIN"], "n_anchors": 4, "distance_from_poi_m": 49.9, "path_length_m": 107.9, "path_via": "Kindonou (108 m)", "stop_reason": "reached_X_network", "kind": "interior", "status": "CONFIRMED_NEW"}}, {"type": "Feature", "geometry": {"type": "LineString", "coordinates": [[2.3641132, 6.3886813], [2.3641009, 6.3886176]]}, "properties": {"target_quartier": "Mènontin", "target_color": "#93d64b", "from_owner": "Kindonou", "poi_anchor": "Carrefour Menontin", "poi_anchors_all": ["Carrefour Menontin", "Carrefour Menontin", "Agence BOA MENONTIN", "Agence BOA MENONTIN"], "n_anchors": 4, "distance_from_poi_m": 16.6, "path_length_m": 125.8, "path_via": "Kindonou (126 m)", "stop_reason": "reached_X_network", "kind": "interior", "status": "CONFIRMED_NEW"}}, {"type": "Feature", "geometry": {"type": "LineString", "coordinates": [[2.3641009, 6.3886176], [2.3640876, 6.3885653]]}, "properties": {"target_quartier": "Mènontin", "target_color": "#93d64b", "from_owner": "Kindonou", "poi_anchor": "Carrefour Menontin", "poi_anchors_all": ["Carrefour Menontin", "Carrefour Menontin", "Agence BOA MENONTIN", "Agence BOA MENONTIN"], "n_anchors": 4, "distance_from_poi_m": 10.0, "path_length_m": 125.8, "path_via": "Kindonou (126 m)", "stop_reason": "reached_X_network", "kind": "interior", "status": "CONFIRMED_NEW"}}, {"type": "Feature", "geometry": {"type": "LineString", "coordinates": [[2.3641009, 6.3886176], [2.3645493, 6.3885402]]}, "properties": {"target_quartier": "Mènontin", "target_color": "#93d64b", "from_owner": "Kindonou", "poi_anchor": "Agence BOA MENONTIN", "poi_anchors_all": ["Carrefour Menontin", "Carrefour Menontin", "Agence BOA MENONTIN", "Agence BOA MENONTIN"], "n_anchors": 4, "distance_from_poi_m": 19.7, "path_length_m": 107.9, "path_via": "Kindonou (108 m)", "stop_reason": "reached_X_network", "kind": "interior", "status": "CONFIRMED_NEW"}}, {"type": "Feature", "geometry": {"type": "LineString", "coordinates": [[2.3641009, 6.3886176], [2.3636829, 6.3887001]]}, "properties": {"target_quartier": "Mènontin", "target_color": "#93d64b", "from_owner": "Kindonou", "poi_anchor": "Carrefour Menontin", "poi_anchors_all": ["Carrefour Menontin", "Carrefour Menontin", "Agence BOA MENONTIN", "Agence BOA MENONTIN"], "n_anchors": 4, "distance_from_poi_m": 25.8, "path_length_m": 125.8, "path_via": "Kindonou (126 m)", "stop_reason": "reached_X_network", "kind": "interior", "status": "CONFIRMED_NEW"}}, {"type": "Feature", "geometry": {"type": "LineString", "coordinates": [[2.3640876, 6.3885653], [2.3638898, 6.3885973]]}, "properties": {"target_quartier": "Mènontin", "target_color": "#93d64b", "from_owner": "Kindonou", "poi_anchor": "Carrefour Menontin", "poi_anchors_all": ["Carrefour Menontin", "Carrefour Menontin", "Agence BOA MENONTIN", "Agence BOA MENONTIN"], "n_anchors": 4, "distance_from_poi_m": 12.1, "path_length_m": 125.8, "path_via": "Kindonou (126 m)", "stop_reason": "reached_X_network", "kind": "interior", "status": "CONFIRMED_NEW"}}, {"type": "Feature", "geometry": {"type": "LineString", "coordinates": [[2.3640876, 6.3885653], [2.3649493, 6.3883812]]}, "properties": {"target_quartier": "Mènontin", "target_color": "#93d64b", "from_owner": "Kindonou", "poi_anchor": "Agence BOA MENONTIN", "poi_anchors_all": ["Carrefour Menontin", "Carrefour Menontin", "Agence BOA MENONTIN", "Agence BOA MENONTIN"], "n_anchors": 4, "distance_from_poi_m": 41.6, "path_length_m": 107.9, "path_via": "Kindonou (108 m)", "stop_reason": "reached_X_network", "kind": "interior", "status": "CONFIRMED_NEW"}}, {"type": "Feature", "geometry": {"type": "LineString", "coordinates": [[2.3636242, 6.3893475], [2.3635572, 6.3894461]]}, "properties": {"target_quartier": "Mènontin", "target_color": "#93d64b", "from_owner": "Kindonou", "poi_anchor": "Agence BOA MENONTIN", "poi_anchors_all": ["Carrefour Menontin", "Carrefour Menontin", "Agence BOA MENONTIN", "Agence BOA MENONTIN"], "n_anchors": 4, "distance_from_poi_m": 103.2, "path_length_m": 107.9, "path_via": "Kindonou (108 m)", "stop_reason": "reached_X_network", "kind": "interior", "status": "CONFIRMED_NEW"}}, {"type": "Feature", "geometry": {"type": "LineString", "coordinates": [[2.3634902, 6.3895394], [2.3635572, 6.3894461]]}, "properties": {"target_quartier": "Mènontin", "target_color": "#93d64b", "from_owner": "Kindonou", "poi_anchor": "Agence BOA MENONTIN", "poi_anchors_all": ["Carrefour Menontin", "Carrefour Menontin", "Agence BOA MENONTIN", "Agence BOA MENONTIN"], "n_anchors": 4, "distance_from_poi_m": 116.0, "path_length_m": 107.9, "path_via": "Kindonou (108 m)", "stop_reason": "reached_X_network", "kind": "interior", "status": "CONFIRMED_NEW"}}, {"type": "Feature", "geometry": {"type": "LineString", "coordinates": [[2.3649361, 6.3890006], [2.3648686, 6.388471]]}, "properties": {"target_quartier": "Mènontin", "target_color": "#93d64b", "from_owner": "Kindonou", "poi_anchor": "Agence BOA MENONTIN", "poi_anchors_all": ["Carrefour Menontin", "Carrefour Menontin", "Agence BOA MENONTIN", "Agence BOA MENONTIN"], "n_anchors": 4, "distance_from_poi_m": 71.4, "path_length_m": 107.9, "path_via": "Kindonou (108 m)", "stop_reason": "reached_X_network", "kind": "interior", "status": "CONFIRMED_NEW"}}, {"type": "Feature", "geometry": {"type": "LineString", "coordinates": [[2.3648686, 6.388471], [2.3645493, 6.3885402]]}, "properties": {"target_quartier": "Mènontin", "target_color": "#93d64b", "from_owner": "Kindonou", "poi_anchor": "Agence BOA MENONTIN", "poi_anchors_all": ["Carrefour Menontin", "Carrefour Menontin", "Agence BOA MENONTIN", "Agence BOA MENONTIN"], "n_anchors": 4, "distance_from_poi_m": 56.5, "path_length_m": 107.9, "path_via": "Kindonou (108 m)", "stop_reason": "reached_X_network", "kind": "interior", "status": "CONFIRMED_NEW"}}, {"type": "Feature", "geometry": {"type": "LineString", "coordinates": [[2.3648686, 6.388471], [2.3653483, 6.3883874]]}, "properties": {"target_quartier": "Mènontin", "target_color": "#93d64b", "from_owner": "Kindonou", "poi_anchor": "Agence BOA MENONTIN", "poi_anchors_all": ["Carrefour Menontin", "Carrefour Menontin", "Agence BOA MENONTIN", "Agence BOA MENONTIN"], "n_anchors": 4, "distance_from_poi_m": 100.4, "path_length_m": 107.9, "path_via": "Kindonou (108 m)", "stop_reason": "reached_X_network", "kind": "interior", "status": "CONFIRMED_NEW"}}, {"type": "Feature", "geometry": {"type": "LineString", "coordinates": [[2.3653483, 6.3883874], [2.3666883, 6.3880152]]}, "properties": {"target_quartier": "Mènontin", "target_color": "#93d64b", "from_owner": "Kindonou", "poi_anchor": "Agence BOA MENONTIN", "poi_anchors_all": ["Carrefour Menontin", "Agence BOA MENONTIN"], "n_anchors": 2, "distance_from_poi_m": 203.8, "path_length_m": 107.9, "path_via": "Kindonou (108 m)", "stop_reason": "reached_X_network", "kind": "rim_to_X", "status": "CONFIRMED_NEW"}}, {"type": "Feature", "geometry": {"type": "LineString", "coordinates": [[2.3638898, 6.3885973], [2.3635559, 6.3886345]]}, "properties": {"target_quartier": "Mènontin", "target_color": "#93d64b", "from_owner": "Kindonou", "poi_anchor": "Carrefour Menontin", "poi_anchors_all": ["Carrefour Menontin", "Carrefour Menontin", "Agence BOA MENONTIN", "Agence BOA MENONTIN"], "n_anchors": 4, "distance_from_poi_m": 40.0, "path_length_m": 125.8, "path_via": "Kindonou (126 m)", "stop_reason": "reached_X_network", "kind": "interior", "status": "CONFIRMED_NEW"}}, {"type": "Feature", "geometry": {"type": "LineString", "coordinates": [[2.3635559, 6.3886345], [2.3630812, 6.3886944]]}, "properties": {"target_quartier": "Mènontin", "target_color": "#93d64b", "from_owner": "Kindonou", "poi_anchor": "Carrefour Menontin", "poi_anchors_all": ["Carrefour Menontin", "Carrefour Menontin", "Agence BOA MENONTIN", "Agence BOA MENONTIN"], "n_anchors": 4, "distance_from_poi_m": 84.7, "path_length_m": 125.8, "path_via": "Kindonou (126 m)", "stop_reason": "reached_X_network", "kind": "interior", "status": "CONFIRMED_NEW"}}, {"type": "Feature", "geometry": {"type": "LineString", "coordinates": [[2.3636829, 6.3887001], [2.3631653, 6.3887694]]}, "properties": {"target_quartier": "Mènontin", "target_color": "#93d64b", "from_owner": "Kindonou", "poi_anchor": "Carrefour Menontin", "poi_anchors_all": ["Carrefour Menontin", "Carrefour Menontin", "Agence BOA MENONTIN", "Agence BOA MENONTIN"], "n_anchors": 4, "distance_from_poi_m": 75.5, "path_length_m": 125.8, "path_via": "Kindonou (126 m)", "stop_reason": "reached_X_network", "kind": "interior", "status": "CONFIRMED_NEW"}}, {"type": "Feature", "geometry": {"type": "LineString", "coordinates": [[2.3631653, 6.3887694], [2.3630372, 6.388788]]}, "properties": {"target_quartier": "Mènontin", "target_color": "#93d64b", "from_owner": "Kindonou", "poi_anchor": "Carrefour Menontin", "poi_anchors_all": ["Carrefour Menontin", "Carrefour Menontin", "Agence BOA MENONTIN", "Agence BOA MENONTIN"], "n_anchors": 4, "distance_from_poi_m": 111.1, "path_length_m": 125.8, "path_via": "Kindonou (126 m)", "stop_reason": "reached_X_network", "kind": "interior", "status": "CONFIRMED_NEW"}}, {"type": "Feature", "geometry": {"type": "LineString", "coordinates": [[2.3642171, 6.3895411], [2.3647653, 6.3896724]]}, "properties": {"target_quartier": "Mènontin", "target_color": "#93d64b", "from_owner": "Kindonou", "poi_anchor": "Agence BOA MENONTIN", "poi_anchors_all": ["Agence BOA MENONTIN", "Agence BOA MENONTIN"], "n_anchors": 2, "distance_from_poi_m": 98.9, "path_length_m": 107.9, "path_via": "Kindonou (108 m)", "stop_reason": "reached_X_network", "kind": "interior", "status": "CONFIRMED_NEW"}}, {"type": "Feature", "geometry": {"type": "LineString", "coordinates": [[2.3649361, 6.3890006], [2.3649693, 6.3897454]]}, "properties": {"target_quartier": "Mènontin", "target_color": "#93d64b", "from_owner": "Kindonou", "poi_anchor": "Agence BOA MENONTIN", "poi_anchors_all": ["Agence BOA MENONTIN", "Agence BOA MENONTIN"], "n_anchors": 2, "distance_from_poi_m": 103.8, "path_length_m": 107.9, "path_via": "Kindonou (108 m)", "stop_reason": "reached_X_network", "kind": "interior", "status": "CONFIRMED_NEW"}}, {"type": "Feature", "geometry": {"type": "LineString", "coordinates": [[2.3649693, 6.3897454], [2.3647653, 6.3896724]]}, "properties": {"target_quartier": "Mènontin", "target_color": "#93d64b", "from_owner": "Kindonou", "poi_anchor": "Agence BOA MENONTIN", "poi_anchors_all": ["Agence BOA MENONTIN", "Agence BOA MENONTIN"], "n_anchors": 2, "distance_from_poi_m": 126.3, "path_length_m": 107.9, "path_via": "Kindonou (108 m)", "stop_reason": "reached_X_network", "kind": "interior", "status": "CONFIRMED_NEW"}}, {"type": "Feature", "geometry": {"type": "LineString", "coordinates": [[2.3653875, 6.3888915], [2.3653483, 6.3883874]]}, "properties": {"target_quartier": "Mènontin", "target_color": "#93d64b", "from_owner": "Kindonou", "poi_anchor": "Agence BOA MENONTIN", "poi_anchors_all": ["Agence BOA MENONTIN", "Agence BOA MENONTIN"], "n_anchors": 2, "distance_from_poi_m": 123.4, "path_length_m": 107.9, "path_via": "Kindonou (108 m)", "stop_reason": "reached_X_network", "kind": "interior", "status": "CONFIRMED_NEW"}}, {"type": "Feature", "geometry": {"type": "LineString", "coordinates": [[2.3654066, 6.3882866], [2.3649493, 6.3883812]]}, "properties": {"target_quartier": "Mènontin", "target_color": "#93d64b", "from_owner": "Kindonou", "poi_anchor": "Agence BOA MENONTIN", "poi_anchors_all": ["Agence BOA MENONTIN", "Agence BOA MENONTIN"], "n_anchors": 2, "distance_from_poi_m": 111.5, "path_length_m": 107.9, "path_via": "Kindonou (108 m)", "stop_reason": "reached_X_network", "kind": "interior", "status": "CONFIRMED_NEW"}}, {"type": "Feature", "geometry": {"type": "LineString", "coordinates": [[2.3653875, 6.3888915], [2.3668227, 6.3885306]]}, "properties": {"target_quartier": "Mènontin", "target_color": "#93d64b", "from_owner": "Kindonou", "poi_anchor": "Agence BOA MENONTIN", "poi_anchors_all": ["Agence BOA MENONTIN"], "n_anchors": 1, "distance_from_poi_m": 204.5, "path_length_m": 107.9, "path_via": "Kindonou (108 m)", "stop_reason": "reached_X_network", "kind": "rim_to_X", "status": "CONFIRMED_NEW"}}, {"type": "Feature", "geometry": {"type": "LineString", "coordinates": [[2.3653875, 6.3888915], [2.3654314, 6.3893922]]}, "properties": {"target_quartier": "Mènontin", "target_color": "#93d64b", "from_owner": "Kindonou", "poi_anchor": "Agence BOA MENONTIN", "poi_anchors_all": ["Agence BOA MENONTIN", "Agence BOA MENONTIN"], "n_anchors": 2, "distance_from_poi_m": 134.9, "path_length_m": 107.9, "path_via": "Kindonou (108 m)", "stop_reason": "reached_X_network", "kind": "interior", "status": "CONFIRMED_NEW"}}, {"type": "Feature", "geometry": {"type": "LineString", "coordinates": [[2.3654314, 6.3893922], [2.3658879, 6.389285]]}, "properties": {"target_quartier": "Mènontin", "target_color": "#93d64b", "from_owner": "Kindonou", "poi_anchor": "Agence BOA MENONTIN", "poi_anchors_all": ["Agence BOA MENONTIN", "Agence BOA MENONTIN"], "n_anchors": 2, "distance_from_poi_m": 168.6, "path_length_m": 107.9, "path_via": "Kindonou (108 m)", "stop_reason": "reached_X_network", "kind": "interior", "status": "CONFIRMED_NEW"}}, {"type": "Feature", "geometry": {"type": "LineString", "coordinates": [[2.3658879, 6.389285], [2.3660664, 6.3900439]]}, "properties": {"target_quartier": "Mènontin", "target_color": "#93d64b", "from_owner": "Kindonou", "poi_anchor": "Agence BOA MENONTIN", "poi_anchors_all": ["Agence BOA MENONTIN"], "n_anchors": 1, "distance_from_poi_m": 215.8, "path_length_m": 107.9, "path_via": "Kindonou (108 m)", "stop_reason": "reached_X_network", "kind": "rim_to_X", "status": "CONFIRMED_NEW"}}, {"type": "Feature", "geometry": {"type": "LineString", "coordinates": [[2.3663765, 6.3891504], [2.3658879, 6.389285]]}, "properties": {"target_quartier": "Mènontin", "target_color": "#93d64b", "from_owner": "Kindonou", "poi_anchor": "Agence BOA MENONTIN", "poi_anchors_all": ["Agence BOA MENONTIN"], "n_anchors": 1, "distance_from_poi_m": 214.0, "path_length_m": 107.9, "path_via": "Kindonou (108 m)", "stop_reason": "reached_X_network", "kind": "rim_to_X", "status": "CONFIRMED_NEW"}}]}