{"type": "FeatureCollection", "features": [{"type": "Feature", "geometry": {"type": "Point", "coordinates": [2.3432435, 6.4145276]}, "properties": {"component_size": 263, "commune": "ABOMEY-CALAVI", "centroid_lat": 6.4145276, "centroid_lon": 2.3432435, "nearest_quartiers": ["Tokpa-Zoungo-Sud\n"], "disposition": "MISSING_CHEF_LIEU_CANDIDATE"}}, {"type": "Feature", "geometry": {"type": "Point", "coordinates": [2.4177673, 6.6245914]}, "properties": {"component_size": 123, "commune": "ABOMEY-CALAVI", "centroid_lat": 6.6245914, "centroid_lon": 2.4177673, "nearest_quartiers": ["Yèvié", "Yèvié-Nougo", "Zinvié-Fandji", "Kpotomey", "Sokan"], "disposition": "MISSING_CHEF_LIEU_CANDIDATE"}}, {"type": "Feature", "geometry": {"type": "Point", "coordinates": [2.3563018, 6.4720101]}, "properties": {"component_size": 80, "commune": "ABOMEY-CALAVI", "centroid_lat": 6.4720101, "centroid_lon": 2.3563018, "nearest_quartiers": ["Gbodjo"], "disposition": "MISSING_CHEF_LIEU_CANDIDATE"}}, {"type": "Feature", "geometry": {"type": "Point", "coordinates": [2.4022347, 6.504738]}, "properties": {"component_size": 77, "commune": "ABOMEY-CALAVI", "centroid_lat": 6.504738, "centroid_lon": 2.4022347, "nearest_quartiers": ["Akassato", "Houèkè-Gbo", "Misséssinto", "Glo-Tokpa", "Houèkè-Honou"], "disposition": "MISSING_CHEF_LIEU_CANDIDATE"}}, {"type": "Feature", "geometry": {"type": "Point", "coordinates": [2.3579196, 6.3889711]}, "properties": {"component_size": 52, "commune": "ABOMEY-CALAVI", "centroid_lat": 6.3889711, "centroid_lon": 2.3579196, "nearest_quartiers": ["Sèdjannako\n"], "disposition": "MISSING_CHEF_LIEU_CANDIDATE"}}, {"type": "Feature", "geometry": {"type": "Point", "coordinates": [2.2984962, 6.3693542]}, "properties": {"component_size": 48, "commune": "ABOMEY-CALAVI", "centroid_lat": 6.3693542, "centroid_lon": 2.2984962, "nearest_quartiers": ["Ganganzounmè\n"], "disposition": "MISSING_CHEF_LIEU_CANDIDATE"}}, {"type": "Feature", "geometry": {"type": "Point", "coordinates": [2.3997157, 6.6670493]}, "properties": {"component_size": 44, "commune": "ABOMEY-CALAVI", "centroid_lat": 6.6670493, "centroid_lon": 2.3997157, "nearest_quartiers": ["Bozoun", "Hadjanaho", "Avagbé", "Djigbo", "Kpanroun"], "disposition": "MISSING_CHEF_LIEU_CANDIDATE"}}, {"type": "Feature", "geometry": {"type": "Point", "coordinates": [2.3983245, 6.488299]}, "properties": {"component_size": 37, "commune": "ABOMEY-CALAVI", "centroid_lat": 6.488299, "centroid_lon": 2.3983245, "nearest_quartiers": ["Houèkè-Gbo", "Gbodjo", "Zopah-Kokpo", "Akassato", "Agamandin"], "disposition": "MISSING_CHEF_LIEU_CANDIDATE"}}, {"type": "Feature", "geometry": {"type": "Point", "coordinates": [2.3253793, 6.4983911]}, "properties": {"component_size": 32, "commune": "ABOMEY-CALAVI", "centroid_lat": 6.4983911, "centroid_lon": 2.3253793, "nearest_quartiers": ["Zoundja\n", "Kansounkpa", "Ouéga-Agué", "Zopah-Akassato", "Cité-les-Palmiers\n"], "disposition": "MISSING_CHEF_LIEU_CANDIDATE"}}, {"type": "Feature", "geometry": {"type": "Point", "coordinates": [2.3537913, 6.3905479]}, "properties": {"component_size": 31, "commune": "ABOMEY-CALAVI", "centroid_lat": 6.3905479, "centroid_lon": 2.3537913, "nearest_quartiers": ["Sèdjannako\n", "Hlouacomey"], "disposition": "MISSING_CHEF_LIEU_CANDIDATE"}}, {"type": "Feature", "geometry": {"type": "Point", "coordinates": [2.3525621, 6.3894483]}, "properties": {"component_size": 20, "commune": "ABOMEY-CALAVI", "centroid_lat": 6.3894483, "centroid_lon": 2.3525621, "nearest_quartiers": ["Sèdjannako\n", "Hlouacomey"], "disposition": "MISSING_CHEF_LIEU_CANDIDATE"}}, {"type": "Feature", "geometry": {"type": "Point", "coordinates": [2.355639, 6.3897329]}, "properties": {"component_size": 19, "commune": "ABOMEY-CALAVI", "centroid_lat": 6.3897329, "centroid_lon": 2.355639, "nearest_quartiers": ["Sèdjannako\n"], "disposition": "MISSING_CHEF_LIEU_CANDIDATE"}}, {"type": "Feature", "geometry": {"type": "Point", "coordinates": [2.4456947, 6.397495]}, "properties": {"component_size": 18, "commune": "COTONOU", "centroid_lat": 6.397495, "centroid_lon": 2.4456947, "nearest_quartiers": ["Agbodjèdo", "Agbatô", "Minontchou"], "disposition": "MISSING_CHEF_LIEU_CANDIDATE"}}, {"type": "Feature", "geometry": {"type": "Point", "coordinates": [2.444983, 6.3968563]}, "properties": {"component_size": 15, "commune": "COTONOU", "centroid_lat": 6.3968563, "centroid_lon": 2.444983, "nearest_quartiers": ["Agbodjèdo", "Agbatô", "Minontchou"], "disposition": "MISSING_CHEF_LIEU_CANDIDATE"}}, {"type": "Feature", "geometry": {"type": "Point", "coordinates": [2.3614389, 6.6845473]}, "properties": {"component_size": 14, "commune": "ABOMEY-CALAVI", "centroid_lat": 6.6845473, "centroid_lon": 2.3614389, "nearest_quartiers": ["Kpanroun", "Djigbo", "Ahowégodo", "Avagbé", "Anagbo"], "disposition": "MISSING_CHEF_LIEU_CANDIDATE"}}, {"type": "Feature", "geometry": {"type": "Point", "coordinates": [2.2422865, 6.3627673]}, "properties": {"component_size": 13, "commune": "ABOMEY-CALAVI", "centroid_lat": 6.3627673, "centroid_lon": 2.2422865, "nearest_quartiers": ["Cococodji", "Djèkpota", "Akossavié", "Sogan", "Amahoun\n"], "disposition": "MISSING_CHEF_LIEU_CANDIDATE"}}, {"type": "Feature", "geometry": {"type": "Point", "coordinates": [2.405166, 6.6675422]}, "properties": {"component_size": 12, "commune": "ABOMEY-CALAVI", "centroid_lat": 6.6675422, "centroid_lon": 2.405166, "nearest_quartiers": ["Bozoun", "Hadjanaho", "Avagbé", "Djigbo", "Kpanroun"], "disposition": "MISSING_CHEF_LIEU_CANDIDATE"}}, {"type": "Feature", "geometry": {"type": "Point", "coordinates": [2.4251916, 6.3443494]}, "properties": {"component_size": 12, "commune": "COTONOU", "centroid_lat": 6.3443494, "centroid_lon": 2.4251916, "nearest_quartiers": ["Zongo-Ehuzu", "Zongo-Nima", "Gbèdiga-Guêdêhounguè", "Xwlacôdji-Kpodji", "Gbéto"], "disposition": "MISSING_CHEF_LIEU_CANDIDATE"}}, {"type": "Feature", "geometry": {"type": "Point", "coordinates": [2.4074838, 6.5451569]}, "properties": {"component_size": 11, "commune": "ABOMEY-CALAVI", "centroid_lat": 6.5451569, "centroid_lon": 2.4074838, "nearest_quartiers": ["Agassa-Godomey", "Glo-Tokpa", "Kpodji-Les-Monts", "Dokomè", "Misséssinto"], "disposition": "MISSING_CHEF_LIEU_CANDIDATE"}}, {"type": "Feature", "geometry": {"type": "Point", "coordinates": [2.4060374, 6.5424624]}, "properties": {"component_size": 11, "commune": "ABOMEY-CALAVI", "centroid_lat": 6.5424624, "centroid_lon": 2.4060374, "nearest_quartiers": ["Agassa-Godomey", "Glo-Tokpa", "Kpodji-Les-Monts", "Misséssinto", "Dokomè"], "disposition": "MISSING_CHEF_LIEU_CANDIDATE"}}, {"type": "Feature", "geometry": {"type": "Point", "coordinates": [2.4024342, 6.386449]}, "properties": {"component_size": 10, "commune": "COTONOU", "centroid_lat": 6.386449, "centroid_lon": 2.4024342, "nearest_quartiers": ["Missèkplé", "Yénawa-Fifadji", "Fifadji", "Gbénonkpô"], "disposition": "MISSING_CHEF_LIEU_CANDIDATE"}}, {"type": "Feature", "geometry": {"type": "Point", "coordinates": [2.2992191, 6.5686872]}, "properties": {"component_size": 10, "commune": "ABOMEY-CALAVI", "centroid_lat": 6.5686872, "centroid_lon": 2.2992191, "nearest_quartiers": ["Adjamè\n", "Espace-Saint"], "disposition": "MISSING_CHEF_LIEU_CANDIDATE"}}, {"type": "Feature", "geometry": {"type": "Point", "coordinates": [2.4102704, 6.3720298]}, "properties": {"component_size": 10, "commune": "COTONOU", "centroid_lat": 6.3720298, "centroid_lon": 2.4102704, "nearest_quartiers": ["Gbégamey-Gbagoudo", "Agbondjèdo", "Dagbédji-Sikê", "Vodjè-Allobatin", "Gbégamey-Dodo-Ayidjè"], "disposition": "MISSING_CHEF_LIEU_CANDIDATE"}}, {"type": "Feature", "geometry": {"type": "Point", "coordinates": [2.4191226, 6.344302]}, "properties": {"component_size": 10, "commune": "COTONOU", "centroid_lat": 6.344302, "centroid_lon": 2.4191226, "nearest_quartiers": ["Zongo-Ehuzu", "Zongo-Nima", "Gbèdiga-Guêdêhounguè", "Ahouanlèko", "Gbéto"], "disposition": "MISSING_CHEF_LIEU_CANDIDATE"}}, {"type": "Feature", "geometry": {"type": "Point", "coordinates": [2.3999088, 6.4967458]}, "properties": {"component_size": 10, "commune": "ABOMEY-CALAVI", "centroid_lat": 6.4967458, "centroid_lon": 2.3999088, "nearest_quartiers": ["Houèkè-Gbo", "Akassato", "Misséssinto", "Houèkè-Honou", "Zopah-Kokpo"], "disposition": "MISSING_CHEF_LIEU_CANDIDATE"}}, {"type": "Feature", "geometry": {"type": "Point", "coordinates": [2.444421, 6.3969552]}, "properties": {"component_size": 9, "commune": "COTONOU", "centroid_lat": 6.3969552, "centroid_lon": 2.444421, "nearest_quartiers": ["Agbodjèdo", "Agbatô", "Minontchou"], "disposition": "MISSING_CHEF_LIEU_CANDIDATE"}}, {"type": "Feature", "geometry": {"type": "Point", "coordinates": [2.4097295, 6.3721996]}, "properties": {"component_size": 9, "commune": "COTONOU", "centroid_lat": 6.3721996, "centroid_lon": 2.4097295, "nearest_quartiers": ["Gbégamey-Gbagoudo", "Agbondjèdo", "Dagbédji-Sikê", "Vodjè-Allobatin", "Gbégamey-Dodo-Ayidjè"], "disposition": "MISSING_CHEF_LIEU_CANDIDATE"}}, {"type": "Feature", "geometry": {"type": "Point", "coordinates": [2.3877694, 6.3566297]}, "properties": {"component_size": 9, "commune": "COTONOU", "centroid_lat": 6.3566297, "centroid_lon": 2.3877694, "nearest_quartiers": ["Aïbatin-Dodo"], "disposition": "MISSING_CHEF_LIEU_CANDIDATE"}}, {"type": "Feature", "geometry": {"type": "Point", "coordinates": [2.4029867, 6.6739932]}, "properties": {"component_size": 8, "commune": "ABOMEY-CALAVI", "centroid_lat": 6.6739932, "centroid_lon": 2.4029867, "nearest_quartiers": ["Bozoun", "Hadjanaho", "Avagbé", "Djigbo", "Kpanroun"], "disposition": "MISSING_CHEF_LIEU_CANDIDATE"}}, {"type": "Feature", "geometry": {"type": "Point", "coordinates": [2.3362428, 6.6285901]}, "properties": {"component_size": 8, "commune": "ABOMEY-CALAVI", "centroid_lat": 6.6285901, "centroid_lon": 2.3362428, "nearest_quartiers": ["Houégoudo\n"], "disposition": "MISSING_CHEF_LIEU_CANDIDATE"}}, {"type": "Feature", "geometry": {"type": "Point", "coordinates": [2.3838599, 6.6497288]}, "properties": {"component_size": 7, "commune": "ABOMEY-CALAVI", "centroid_lat": 6.6497288, "centroid_lon": 2.3838599, "nearest_quartiers": ["Avagbé", "Hadjanaho", "Kpé", "Kpanroun", "Kpotomey"], "disposition": "MISSING_CHEF_LIEU_CANDIDATE"}}, {"type": "Feature", "geometry": {"type": "Point", "coordinates": [2.3990037, 6.3577125]}, "properties": {"component_size": 6, "commune": "COTONOU", "centroid_lat": 6.3577125, "centroid_lon": 2.3990037, "nearest_quartiers": ["Cadjèhoun-Azalokogon", "Haie-Vive-Cocotiers", "Cadjèhoun-Agonga", "Cadjèhoun-Aupiais", "Cadjèhoun-Kpota"], "disposition": "MISSING_CHEF_LIEU_CANDIDATE"}}, {"type": "Feature", "geometry": {"type": "Point", "coordinates": [2.3908678, 6.4746918]}, "properties": {"component_size": 6, "commune": "ABOMEY-CALAVI", "centroid_lat": 6.4746918, "centroid_lon": 2.3908678, "nearest_quartiers": ["Houèkè-Gbo", "Gbodjo", "Zopah-Kokpo", "Agamandin", "Akassato"], "disposition": "MISSING_CHEF_LIEU_CANDIDATE"}}, {"type": "Feature", "geometry": {"type": "Point", "coordinates": [2.3245176, 6.5875834]}, "properties": {"component_size": 6, "commune": "ABOMEY-CALAVI", "centroid_lat": 6.5875834, "centroid_lon": 2.3245176, "nearest_quartiers": ["Gbodjoko"], "disposition": "MISSING_CHEF_LIEU_CANDIDATE"}}, {"type": "Feature", "geometry": {"type": "Point", "coordinates": [2.3555482, 6.3893116]}, "properties": {"component_size": 5, "commune": "ABOMEY-CALAVI", "centroid_lat": 6.3893116, "centroid_lon": 2.3555482, "nearest_quartiers": ["Sèdjannako\n"], "disposition": "MISSING_CHEF_LIEU_CANDIDATE"}}, {"type": "Feature", "geometry": {"type": "Point", "coordinates": [2.4105255, 6.3715993]}, "properties": {"component_size": 5, "commune": "COTONOU", "centroid_lat": 6.3715993, "centroid_lon": 2.4105255, "nearest_quartiers": ["Gbégamey-Gbagoudo", "Dagbédji-Sikê", "Agbondjèdo", "Gbégamey-Dodo-Ayidjè", "Vodjè-Allobatin"], "disposition": "MISSING_CHEF_LIEU_CANDIDATE"}}, {"type": "Feature", "geometry": {"type": "Point", "coordinates": [2.3838272, 6.636956]}, "properties": {"component_size": 5, "commune": "ABOMEY-CALAVI", "centroid_lat": 6.636956, "centroid_lon": 2.3838272, "nearest_quartiers": ["Kpotomey", "Kpé", "Avagbé", "Yèvié-Nougo", "Zinvié-Fandji"], "disposition": "MISSING_CHEF_LIEU_CANDIDATE"}}, {"type": "Feature", "geometry": {"type": "Point", "coordinates": [2.4139537, 6.3619624]}, "properties": {"component_size": 4, "commune": "COTONOU", "centroid_lat": 6.3619624, "centroid_lon": 2.4139537, "nearest_quartiers": ["Gbégamey-Centre", "Gbégamey-Mifongou", "Saint-Jean-Gbèdiga", "Todoté", "Gbèdiga-Guêdêhounguè"], "disposition": "MISSING_CHEF_LIEU_CANDIDATE"}}, {"type": "Feature", "geometry": {"type": "Point", "coordinates": [2.3539978, 6.3893848]}, "properties": {"component_size": 4, "commune": "ABOMEY-CALAVI", "centroid_lat": 6.3893848, "centroid_lon": 2.3539978, "nearest_quartiers": ["Sèdjannako\n", "Hlouacomey"], "disposition": "MISSING_CHEF_LIEU_CANDIDATE"}}, {"type": "Feature", "geometry": {"type": "Point", "coordinates": [2.4469914, 6.3954835]}, "properties": {"component_size": 4, "commune": "COTONOU", "centroid_lat": 6.3954835, "centroid_lon": 2.4469914, "nearest_quartiers": ["Agbodjèdo", "Minontchou", "Agbatô"], "disposition": "MISSING_CHEF_LIEU_CANDIDATE"}}, {"type": "Feature", "geometry": {"type": "Point", "coordinates": [2.3566202, 6.3929536]}, "properties": {"component_size": 4, "commune": "ABOMEY-CALAVI", "centroid_lat": 6.3929536, "centroid_lon": 2.3566202, "nearest_quartiers": ["Sèdjannako\n"], "disposition": "MISSING_CHEF_LIEU_CANDIDATE"}}, {"type": "Feature", "geometry": {"type": "Point", "coordinates": [2.2248756, 6.4235447]}, "properties": {"component_size": 4, "commune": "ABOMEY-CALAVI", "centroid_lat": 6.4235447, "centroid_lon": 2.2248756, "nearest_quartiers": ["Houinmè"], "disposition": "MISSING_CHEF_LIEU_CANDIDATE"}}, {"type": "Feature", "geometry": {"type": "Point", "coordinates": [2.4000487, 6.4960489]}, "properties": {"component_size": 4, "commune": "ABOMEY-CALAVI", "centroid_lat": 6.4960489, "centroid_lon": 2.4000487, "nearest_quartiers": ["Houèkè-Gbo", "Akassato", "Misséssinto", "Zopah-Kokpo", "Houèkè-Honou"], "disposition": "MISSING_CHEF_LIEU_CANDIDATE"}}, {"type": "Feature", "geometry": {"type": "Point", "coordinates": [2.3553054, 6.388813]}, "properties": {"component_size": 3, "commune": "ABOMEY-CALAVI", "centroid_lat": 6.388813, "centroid_lon": 2.3553054, "nearest_quartiers": ["Sèdjannako\n"], "disposition": "MISSING_CHEF_LIEU_CANDIDATE"}}, {"type": "Feature", "geometry": {"type": "Point", "coordinates": [2.355988, 6.3879507]}, "properties": {"component_size": 3, "commune": "ABOMEY-CALAVI", "centroid_lat": 6.3879507, "centroid_lon": 2.355988, "nearest_quartiers": ["Sèdjannako\n"], "disposition": "MISSING_CHEF_LIEU_CANDIDATE"}}, {"type": "Feature", "geometry": {"type": "Point", "coordinates": [2.3567881, 6.3899812]}, "properties": {"component_size": 3, "commune": "ABOMEY-CALAVI", "centroid_lat": 6.3899812, "centroid_lon": 2.3567881, "nearest_quartiers": ["Sèdjannako\n"], "disposition": "MISSING_CHEF_LIEU_CANDIDATE"}}, {"type": "Feature", "geometry": {"type": "Point", "coordinates": [2.4292289, 6.3771003]}, "properties": {"component_size": 2, "commune": "COTONOU", "centroid_lat": 6.3771003, "centroid_lon": 2.4292289, "nearest_quartiers": ["Aïdjèdo-Vignon", "Hindé-Nord", "Jéricho-Nord", "Djidjè", "Hindé-Sud"], "disposition": "MISSING_CHEF_LIEU_CANDIDATE"}}, {"type": "Feature", "geometry": {"type": "Point", "coordinates": [2.4593403, 6.3784264]}, "properties": {"component_size": 2, "commune": "COTONOU", "centroid_lat": 6.3784264, "centroid_lon": 2.4593403, "nearest_quartiers": ["Sènadé", "Sènadé-Sèkon", "Ahouassa", "Suru-Léré", "Lom-Nava"], "disposition": "MISSING_CHEF_LIEU_CANDIDATE"}}, {"type": "Feature", "geometry": {"type": "Point", "coordinates": [2.4423221, 6.3824397]}, "properties": {"component_size": 2, "commune": "COTONOU", "centroid_lat": 6.3824397, "centroid_lon": 2.4423221, "nearest_quartiers": ["Sègbèya-Sud", "Adôgléta", "Midombo", "Kpankpan", "Hlacômey"], "disposition": "MISSING_CHEF_LIEU_CANDIDATE"}}, {"type": "Feature", "geometry": {"type": "Point", "coordinates": [2.4418388, 6.3824423]}, "properties": {"component_size": 2, "commune": "COTONOU", "centroid_lat": 6.3824423, "centroid_lon": 2.4418388, "nearest_quartiers": ["Sègbèya-Sud", "Adôgléta", "Kpankpan", "Midombo", "Hlacômey"], "disposition": "MISSING_CHEF_LIEU_CANDIDATE"}}, {"type": "Feature", "geometry": {"type": "Point", "coordinates": [2.4681379, 6.3749302]}, "properties": {"component_size": 2, "commune": "COTONOU", "centroid_lat": 6.3749302, "centroid_lon": 2.4681379, "nearest_quartiers": ["Avotrou-Gbègo", "Yagbé", "Nvènamèdé", "Suru-Léré"], "disposition": "MISSING_CHEF_LIEU_CANDIDATE"}}, {"type": "Feature", "geometry": {"type": "Point", "coordinates": [2.4418093, 6.3962725]}, "properties": {"component_size": 2, "commune": "COTONOU", "centroid_lat": 6.3962725, "centroid_lon": 2.4418093, "nearest_quartiers": ["Agbatô", "Agbodjèdo"], "disposition": "MISSING_CHEF_LIEU_CANDIDATE"}}, {"type": "Feature", "geometry": {"type": "Point", "coordinates": [2.3968611, 6.3774672]}, "properties": {"component_size": 2, "commune": "COTONOU", "centroid_lat": 6.3774672, "centroid_lon": 2.3968611, "nearest_quartiers": ["Tonato", "Gbénonkpô", "Houéyihô-Tannou", "Missogbé", "Vodjè-Finagnon"], "disposition": "MISSING_CHEF_LIEU_CANDIDATE"}}, {"type": "Feature", "geometry": {"type": "Point", "coordinates": [2.3985538, 6.3789259]}, "properties": {"component_size": 2, "commune": "COTONOU", "centroid_lat": 6.3789259, "centroid_lon": 2.3985538, "nearest_quartiers": ["Tonato", "Gbénonkpô", "Houénoussou-Sainte-Rita", "Vodjè-Ayidoté", "Vodjè-Finagnon"], "disposition": "MISSING_CHEF_LIEU_CANDIDATE"}}, {"type": "Feature", "geometry": {"type": "Point", "coordinates": [2.3991983, 6.3811697]}, "properties": {"component_size": 2, "commune": "COTONOU", "centroid_lat": 6.3811697, "centroid_lon": 2.3991983, "nearest_quartiers": ["Gbénonkpô", "Tonato", "Houénoussou-Sainte-Rita"], "disposition": "MISSING_CHEF_LIEU_CANDIDATE"}}, {"type": "Feature", "geometry": {"type": "Point", "coordinates": [2.279309, 6.3562456]}, "properties": {"component_size": 2, "commune": "ABOMEY-CALAVI", "centroid_lat": 6.3562456, "centroid_lon": 2.279309, "nearest_quartiers": ["Djèkpota", "Amahoun\n", "Togbin-Daho", "Zounga\n", "Ganganzounmè\n"], "disposition": "MISSING_CHEF_LIEU_CANDIDATE"}}, {"type": "Feature", "geometry": {"type": "Point", "coordinates": [2.4330944, 6.3700339]}, "properties": {"component_size": 2, "commune": "COTONOU", "centroid_lat": 6.3700339, "centroid_lon": 2.4330944, "nearest_quartiers": ["Dantôkpa", "Nouveau-Pont", "Bocossi-Tokpa", "Jéricho-Sud", "Sèdjro-Saint-Michel"], "disposition": "MISSING_CHEF_LIEU_CANDIDATE"}}, {"type": "Feature", "geometry": {"type": "Point", "coordinates": [2.468201, 6.3777485]}, "properties": {"component_size": 2, "commune": "COTONOU", "centroid_lat": 6.3777485, "centroid_lon": 2.468201, "nearest_quartiers": ["Avotrou-Gbègo", "Suru-Léré", "Yagbé", "Kowégbo", "Avotrou-Aïmonlonfidé"], "disposition": "MISSING_CHEF_LIEU_CANDIDATE"}}, {"type": "Feature", "geometry": {"type": "Point", "coordinates": [2.4458288, 6.3583366]}, "properties": {"component_size": 2, "commune": "COTONOU", "centroid_lat": 6.3583366, "centroid_lon": 2.4458288, "nearest_quartiers": ["Akpakpa-Dodomè", "Ohé", "Tokpa-Hoho", "Abokicodji-Lagune"], "disposition": "MISSING_CHEF_LIEU_CANDIDATE"}}, {"type": "Feature", "geometry": {"type": "Point", "coordinates": [2.2509098, 6.4564669]}, "properties": {"component_size": 2, "commune": "ABOMEY-CALAVI", "centroid_lat": 6.4564669, "centroid_lon": 2.2509098, "nearest_quartiers": ["Zoungo"], "disposition": "MISSING_CHEF_LIEU_CANDIDATE"}}, {"type": "Feature", "geometry": {"type": "Point", "coordinates": [2.359019, 6.3829583]}, "properties": {"component_size": 2, "commune": "ABOMEY-CALAVI", "centroid_lat": 6.3829583, "centroid_lon": 2.359019, "nearest_quartiers": ["Sèdjannako\n", "Plateau\n"], "disposition": "MISSING_CHEF_LIEU_CANDIDATE"}}, {"type": "Feature", "geometry": {"type": "Point", "coordinates": [2.2437165, 6.3748537]}, "properties": {"component_size": 2, "commune": "ABOMEY-CALAVI", "centroid_lat": 6.3748537, "centroid_lon": 2.2437165, "nearest_quartiers": ["Cococodji", "Akossavié", "Houinmè-Daho", "Sogan", "Djèkpota"], "disposition": "MISSING_CHEF_LIEU_CANDIDATE"}}, {"type": "Feature", "geometry": {"type": "Point", "coordinates": [2.4433193, 6.3599573]}, "properties": {"component_size": 2, "commune": "COTONOU", "centroid_lat": 6.3599573, "centroid_lon": 2.4433193, "nearest_quartiers": ["Tokpa-Hoho", "Akpakpa-Dodomè", "Abokicodji-Lagune", "Ohé", "Guinkômey"], "disposition": "MISSING_CHEF_LIEU_CANDIDATE"}}, {"type": "Feature", "geometry": {"type": "Point", "coordinates": [2.4432193, 6.3798261]}, "properties": {"component_size": 2, "commune": "COTONOU", "centroid_lat": 6.3798261, "centroid_lon": 2.4432193, "nearest_quartiers": ["Sègbèya-Sud", "Midombo", "Kpankpan", "Adjégounlè", "Adôgléta"], "disposition": "MISSING_CHEF_LIEU_CANDIDATE"}}, {"type": "Feature", "geometry": {"type": "Point", "coordinates": [2.3993272, 6.3830149]}, "properties": {"component_size": 2, "commune": "COTONOU", "centroid_lat": 6.3830149, "centroid_lon": 2.3993272, "nearest_quartiers": ["Gbénonkpô", "Tonato", "Houénoussou-Sainte-Rita", "Missèkplé", "Yénawa-Fifadji"], "disposition": "MISSING_CHEF_LIEU_CANDIDATE"}}, {"type": "Feature", "geometry": {"type": "Point", "coordinates": [2.2700019, 6.3969966]}, "properties": {"component_size": 2, "commune": "ABOMEY-CALAVI", "centroid_lat": 6.3969966, "centroid_lon": 2.2700019, "nearest_quartiers": ["Sogan"], "disposition": "MISSING_CHEF_LIEU_CANDIDATE"}}, {"type": "Feature", "geometry": {"type": "Point", "coordinates": [2.3984067, 6.375029]}, "properties": {"component_size": 2, "commune": "COTONOU", "centroid_lat": 6.375029, "centroid_lon": 2.3984067, "nearest_quartiers": ["Tonato", "Vodjè-Finagnon", "Vodjè-Ayidoté", "Vodjè-Kpota", "Houénoussou-Sainte-Rita"], "disposition": "MISSING_CHEF_LIEU_CANDIDATE"}}, {"type": "Feature", "geometry": {"type": "Point", "coordinates": [2.3567337, 6.3782587]}, "properties": {"component_size": 1, "commune": "ABOMEY-CALAVI", "centroid_lat": 6.3782587, "centroid_lon": 2.3567337, "nearest_quartiers": ["Plateau\n", "Sèdjannako\n"], "disposition": "MISSING_CHEF_LIEU_CANDIDATE"}}, {"type": "Feature", "geometry": {"type": "Point", "coordinates": [2.4521474, 6.3943264]}, "properties": {"component_size": 1, "commune": "COTONOU", "centroid_lat": 6.3943264, "centroid_lon": 2.4521474, "nearest_quartiers": ["Minontchou", "Gankpodo", "Agbodjèdo"], "disposition": "MISSING_CHEF_LIEU_CANDIDATE"}}, {"type": "Feature", "geometry": {"type": "Point", "coordinates": [2.3521753, 6.4316533]}, "properties": {"component_size": 1, "commune": "ABOMEY-CALAVI", "centroid_lat": 6.4316533, "centroid_lon": 2.3521753, "nearest_quartiers": ["Tokpa-Zoungo-Nord\n"], "disposition": "MISSING_CHEF_LIEU_CANDIDATE"}}, {"type": "Feature", "geometry": {"type": "Point", "coordinates": [2.3909453, 6.4743368]}, "properties": {"component_size": 1, "commune": "ABOMEY-CALAVI", "centroid_lat": 6.4743368, "centroid_lon": 2.3909453, "nearest_quartiers": ["Gbodjo", "Houèkè-Gbo", "Zopah-Kokpo", "Agamandin", "Akassato"], "disposition": "MISSING_CHEF_LIEU_CANDIDATE"}}, {"type": "Feature", "geometry": {"type": "Point", "coordinates": [2.4188777, 6.344442]}, "properties": {"component_size": 1, "commune": "COTONOU", "centroid_lat": 6.344442, "centroid_lon": 2.4188777, "nearest_quartiers": ["Zongo-Ehuzu", "Gbèdiga-Guêdêhounguè", "Ahouanlèko", "Zongo-Nima", "Gbéto"], "disposition": "MISSING_CHEF_LIEU_CANDIDATE"}}, {"type": "Feature", "geometry": {"type": "Point", "coordinates": [2.3570582, 6.3565415]}, "properties": {"component_size": 1, "commune": "ABOMEY-CALAVI", "centroid_lat": 6.3565415, "centroid_lon": 2.3570582, "nearest_quartiers": [], "disposition": "MISSING_CHEF_LIEU_CANDIDATE"}}, {"type": "Feature", "geometry": {"type": "Point", "coordinates": [2.3151525, 6.554878]}, "properties": {"component_size": 1, "commune": "ABOMEY-CALAVI", "centroid_lat": 6.554878, "centroid_lon": 2.3151525, "nearest_quartiers": ["Yêkon-Aga", "Agonkèssa"], "disposition": "MISSING_CHEF_LIEU_CANDIDATE"}}, {"type": "Feature", "geometry": {"type": "Point", "coordinates": [2.3635089, 6.3657222]}, "properties": {"component_size": 1, "commune": "ABOMEY-CALAVI", "centroid_lat": 6.3657222, "centroid_lon": 2.3635089, "nearest_quartiers": [], "disposition": "MISSING_CHEF_LIEU_CANDIDATE"}}, {"type": "Feature", "geometry": {"type": "Point", "coordinates": [2.3432435, 6.4145276]}, "properties": {"component_size": 263, "commune": "ABOMEY-CALAVI", "nearest_quartiers": ["Agonkanmey\n", "Tokpa-Zoungo-Sud\n", "Sèdomey", "Zogbadjè", "Cité-la-Victoire\n"], "disposition": "MISSING_CHEF_LIEU_CANDIDATE", "reason": "post_connectivity_isolated"}}, {"type": "Feature", "geometry": {"type": "Point", "coordinates": [2.4521474, 6.3943264]}, "properties": {"component_size": 1, "commune": "COTONOU", "nearest_quartiers": ["Minontchou", "Gankpodo", "Agbodjèdo", "Kpondéhou", "Djédjé-Layé"], "disposition": "MISSING_CHEF_LIEU_CANDIDATE", "reason": "post_connectivity_isolated"}}, {"type": "Feature", "geometry": {"type": "Point", "coordinates": [2.3525621, 6.3894483]}, "properties": {"component_size": 20, "commune": "ABOMEY-CALAVI", "nearest_quartiers": ["Sèdjannako\n", "Hlouacomey", "Yolomahouto", "Plateau\n", "Nonhouénou\n"], "disposition": "MISSING_CHEF_LIEU_CANDIDATE", "reason": "post_connectivity_isolated"}}, {"type": "Feature", "geometry": {"type": "Point", "coordinates": [2.4292289, 6.3771003]}, "properties": {"component_size": 2, "commune": "COTONOU", "nearest_quartiers": ["Aïdjèdo-Vignon", "Hindé-Nord", "Jéricho-Nord", "Djidjè", "Hindé-Sud"], "disposition": "MISSING_CHEF_LIEU_CANDIDATE", "reason": "post_connectivity_isolated"}}, {"type": "Feature", "geometry": {"type": "Point", "coordinates": [2.2437165, 6.3748537]}, "properties": {"component_size": 2, "commune": "ABOMEY-CALAVI", "nearest_quartiers": ["Cococodji", "Akossavié", "Houinmè-Daho", "Sogan", "Djèkpota"], "disposition": "MISSING_CHEF_LIEU_CANDIDATE", "reason": "post_connectivity_isolated"}}, {"type": "Feature", "geometry": {"type": "Point", "coordinates": [2.3245176, 6.5875834]}, "properties": {"component_size": 6, "commune": "ABOMEY-CALAVI", "nearest_quartiers": ["Gbodjoko", "Adjogansa", "Alladacomè", "Golo-Fanto", "Zinvié-Agolèdji"], "disposition": "MISSING_CHEF_LIEU_CANDIDATE", "reason": "post_connectivity_isolated"}}, {"type": "Feature", "geometry": {"type": "Point", "coordinates": [2.3579196, 6.3889711]}, "properties": {"component_size": 52, "commune": "ABOMEY-CALAVI", "nearest_quartiers": ["Sèdjannako\n", "Hlouacomey", "Yolomahouto", "Plateau\n"], "disposition": "MISSING_CHEF_LIEU_CANDIDATE", "reason": "post_connectivity_isolated"}}, {"type": "Feature", "geometry": {"type": "Point", "coordinates": [2.4593403, 6.3784264]}, "properties": {"component_size": 2, "commune": "COTONOU", "nearest_quartiers": ["Sènadé", "Sènadé-Sèkon", "Ahouassa", "Suru-Léré", "Lom-Nava"], "disposition": "MISSING_CHEF_LIEU_CANDIDATE", "reason": "post_connectivity_isolated"}}, {"type": "Feature", "geometry": {"type": "Point", "coordinates": [2.4423221, 6.3824397]}, "properties": {"component_size": 2, "commune": "COTONOU", "nearest_quartiers": ["Sègbèya-Sud", "Adôgléta", "Midombo", "Kpankpan", "Hlacômey"], "disposition": "MISSING_CHEF_LIEU_CANDIDATE", "reason": "post_connectivity_isolated"}}, {"type": "Feature", "geometry": {"type": "Point", "coordinates": [2.4418388, 6.3824423]}, "properties": {"component_size": 2, "commune": "COTONOU", "nearest_quartiers": ["Sègbèya-Sud", "Adôgléta", "Kpankpan", "Midombo", "Hlacômey"], "disposition": "MISSING_CHEF_LIEU_CANDIDATE", "reason": "post_connectivity_isolated"}}, {"type": "Feature", "geometry": {"type": "Point", "coordinates": [2.4177673, 6.6245914]}, "properties": {"component_size": 123, "commune": "ABOMEY-CALAVI", "nearest_quartiers": ["Yèvié", "Yèvié-Nougo", "Avagbé", "Hadjanaho", "Kpotomey"], "disposition": "MISSING_CHEF_LIEU_CANDIDATE", "reason": "post_connectivity_isolated"}}, {"type": "Feature", "geometry": {"type": "Point", "coordinates": [2.4024342, 6.386449]}, "properties": {"component_size": 10, "commune": "COTONOU", "nearest_quartiers": ["Missèkplé", "Gbénonkpô", "Yénawa-Fifadji", "Fifadji", "Houénoussou-Sainte-Rita"], "disposition": "MISSING_CHEF_LIEU_CANDIDATE", "reason": "post_connectivity_isolated"}}, {"type": "Feature", "geometry": {"type": "Point", "coordinates": [2.355988, 6.3879507]}, "properties": {"component_size": 3, "commune": "ABOMEY-CALAVI", "nearest_quartiers": ["Sèdjannako\n", "Plateau\n", "Hlouacomey", "Yolomahouto", "Nonhouénou\n"], "disposition": "MISSING_CHEF_LIEU_CANDIDATE", "reason": "post_connectivity_isolated"}}, {"type": "Feature", "geometry": {"type": "Point", "coordinates": [2.359019, 6.3829583]}, "properties": {"component_size": 2, "commune": "ABOMEY-CALAVI", "nearest_quartiers": ["Sèdjannako\n", "Plateau\n"], "disposition": "MISSING_CHEF_LIEU_CANDIDATE", "reason": "post_connectivity_isolated"}}, {"type": "Feature", "geometry": {"type": "Point", "coordinates": [2.3838272, 6.636956]}, "properties": {"component_size": 5, "commune": "ABOMEY-CALAVI", "nearest_quartiers": ["Kpotomey", "Avagbé", "Kpé", "Yèvié-Nougo", "Zinvié-Fandji"], "disposition": "MISSING_CHEF_LIEU_CANDIDATE", "reason": "post_connectivity_isolated"}}, {"type": "Feature", "geometry": {"type": "Point", "coordinates": [2.3838599, 6.6497288]}, "properties": {"component_size": 7, "commune": "ABOMEY-CALAVI", "nearest_quartiers": ["Avagbé", "Hadjanaho", "Kpé", "Kpanroun", "Kpotomey"], "disposition": "MISSING_CHEF_LIEU_CANDIDATE", "reason": "post_connectivity_isolated"}}, {"type": "Feature", "geometry": {"type": "Point", "coordinates": [2.4104551, 6.3718012]}, "properties": {"component_size": 46, "commune": "COTONOU", "nearest_quartiers": ["Gbégamey-Gbagoudo", "Dagbédji-Sikê", "Agbondjèdo", "Gbégamey-Dodo-Ayidjè", "Vodjè-Allobatin"], "disposition": "MISSING_CHEF_LIEU_CANDIDATE", "reason": "post_connectivity_isolated"}}, {"type": "Feature", "geometry": {"type": "Point", "coordinates": [2.3555482, 6.3893116]}, "properties": {"component_size": 5, "commune": "ABOMEY-CALAVI", "nearest_quartiers": ["Sèdjannako\n", "Hlouacomey", "Yolomahouto", "Plateau\n", "Nonhouénou\n"], "disposition": "MISSING_CHEF_LIEU_CANDIDATE", "reason": "post_connectivity_isolated"}}, {"type": "Feature", "geometry": {"type": "Point", "coordinates": [2.4456947, 6.397495]}, "properties": {"component_size": 18, "commune": "COTONOU", "nearest_quartiers": ["Agbodjèdo", "Agbatô", "Minontchou", "Sègbèya-Nord", "Gankpodo"], "disposition": "MISSING_CHEF_LIEU_CANDIDATE", "reason": "post_connectivity_isolated"}}, {"type": "Feature", "geometry": {"type": "Point", "coordinates": [2.3563018, 6.4720101]}, "properties": {"component_size": 80, "commune": "ABOMEY-CALAVI", "nearest_quartiers": ["Gbodjo", "Zopah-Kokpo", "Fandji\n", "Agamandin", "Sèmè"], "disposition": "MISSING_CHEF_LIEU_CANDIDATE", "reason": "post_connectivity_isolated"}}, {"type": "Feature", "geometry": {"type": "Point", "coordinates": [2.4188777, 6.344442]}, "properties": {"component_size": 1, "commune": "COTONOU", "nearest_quartiers": ["Zongo-Ehuzu", "Gbèdiga-Guêdêhounguè", "Ahouanlèko", "Zongo-Nima", "Gbéto"], "disposition": "MISSING_CHEF_LIEU_CANDIDATE", "reason": "post_connectivity_isolated"}}, {"type": "Feature", "geometry": {"type": "Point", "coordinates": [2.4139537, 6.3619624]}, "properties": {"component_size": 4, "commune": "COTONOU", "nearest_quartiers": ["Gbégamey-Centre", "Gbégamey-Mifongou", "Saint-Jean-Gbèdiga", "Todoté", "Gbèdiga-Guêdêhounguè"], "disposition": "MISSING_CHEF_LIEU_CANDIDATE", "reason": "post_connectivity_isolated"}}, {"type": "Feature", "geometry": {"type": "Point", "coordinates": [2.4681379, 6.3749302]}, "properties": {"component_size": 2, "commune": "COTONOU", "nearest_quartiers": ["Avotrou-Gbègo", "Yagbé", "Nvènamèdé", "Suru-Léré", "Kowégbo"], "disposition": "MISSING_CHEF_LIEU_CANDIDATE", "reason": "post_connectivity_isolated"}}, {"type": "Feature", "geometry": {"type": "Point", "coordinates": [2.3539978, 6.3893848]}, "properties": {"component_size": 4, "commune": "ABOMEY-CALAVI", "nearest_quartiers": ["Sèdjannako\n", "Hlouacomey", "Yolomahouto", "Plateau\n", "Nonhouénou\n"], "disposition": "MISSING_CHEF_LIEU_CANDIDATE", "reason": "post_connectivity_isolated"}}, {"type": "Feature", "geometry": {"type": "Point", "coordinates": [2.4418093, 6.3962725]}, "properties": {"component_size": 2, "commune": "COTONOU", "nearest_quartiers": ["Agbatô", "Agbodjèdo", "Hlacômey", "Sègbèya-Nord", "Minontchou"], "disposition": "MISSING_CHEF_LIEU_CANDIDATE", "reason": "post_connectivity_isolated"}}, {"type": "Feature", "geometry": {"type": "Point", "coordinates": [2.3151525, 6.554878]}, "properties": {"component_size": 1, "commune": "ABOMEY-CALAVI", "nearest_quartiers": ["Yêkon-Aga", "Agonkèssa", "Yèkon-Do", "Zèkanmey", "Espace-Saint"], "disposition": "MISSING_CHEF_LIEU_CANDIDATE", "reason": "post_connectivity_isolated"}}, {"type": "Feature", "geometry": {"type": "Point", "coordinates": [2.355639, 6.3897329]}, "properties": {"component_size": 19, "commune": "ABOMEY-CALAVI", "nearest_quartiers": ["Sèdjannako\n", "Hlouacomey", "Yolomahouto", "Plateau\n", "Nonhouénou\n"], "disposition": "MISSING_CHEF_LIEU_CANDIDATE", "reason": "post_connectivity_isolated"}}, {"type": "Feature", "geometry": {"type": "Point", "coordinates": [2.444983, 6.3968563]}, "properties": {"component_size": 15, "commune": "COTONOU", "nearest_quartiers": ["Agbodjèdo", "Agbatô", "Minontchou", "Sègbèya-Nord", "Hlacômey"], "disposition": "MISSING_CHEF_LIEU_CANDIDATE", "reason": "post_connectivity_isolated"}}, {"type": "Feature", "geometry": {"type": "Point", "coordinates": [2.444421, 6.3969552]}, "properties": {"component_size": 9, "commune": "COTONOU", "nearest_quartiers": ["Agbodjèdo", "Agbatô", "Minontchou", "Sègbèya-Nord", "Hlacômey"], "disposition": "MISSING_CHEF_LIEU_CANDIDATE", "reason": "post_connectivity_isolated"}}, {"type": "Feature", "geometry": {"type": "Point", "coordinates": [2.4469914, 6.3954835]}, "properties": {"component_size": 4, "commune": "COTONOU", "nearest_quartiers": ["Agbodjèdo", "Minontchou", "Agbatô", "Sègbèya-Nord", "Gankpodo"], "disposition": "MISSING_CHEF_LIEU_CANDIDATE", "reason": "post_connectivity_isolated"}}, {"type": "Feature", "geometry": {"type": "Point", "coordinates": [2.3968611, 6.3774672]}, "properties": {"component_size": 2, "commune": "COTONOU", "nearest_quartiers": ["Tonato", "Gbénonkpô", "Houéyihô-Tannou", "Missogbé", "Vodjè-Finagnon"], "disposition": "MISSING_CHEF_LIEU_CANDIDATE", "reason": "post_connectivity_isolated"}}, {"type": "Feature", "geometry": {"type": "Point", "coordinates": [2.3985538, 6.3789259]}, "properties": {"component_size": 2, "commune": "COTONOU", "nearest_quartiers": ["Tonato", "Gbénonkpô", "Houénoussou-Sainte-Rita", "Vodjè-Ayidoté", "Vodjè-Finagnon"], "disposition": "MISSING_CHEF_LIEU_CANDIDATE", "reason": "post_connectivity_isolated"}}, {"type": "Feature", "geometry": {"type": "Point", "coordinates": [2.3991983, 6.3811697]}, "properties": {"component_size": 2, "commune": "COTONOU", "nearest_quartiers": ["Gbénonkpô", "Tonato", "Houénoussou-Sainte-Rita", "Missèkplé", "Missogbé"], "disposition": "MISSING_CHEF_LIEU_CANDIDATE", "reason": "post_connectivity_isolated"}}, {"type": "Feature", "geometry": {"type": "Point", "coordinates": [2.4458288, 6.3583366]}, "properties": {"component_size": 2, "commune": "COTONOU", "nearest_quartiers": ["Akpakpa-Dodomè", "Ohé", "Tokpa-Hoho", "Abokicodji-Lagune", "Xwlacôdji-Plage"], "disposition": "MISSING_CHEF_LIEU_CANDIDATE", "reason": "post_connectivity_isolated"}}, {"type": "Feature", "geometry": {"type": "Point", "coordinates": [2.3570582, 6.3565415]}, "properties": {"component_size": 1, "commune": "ABOMEY-CALAVI", "nearest_quartiers": [], "disposition": "MISSING_CHEF_LIEU_CANDIDATE", "reason": "post_connectivity_isolated"}}, {"type": "Feature", "geometry": {"type": "Point", "coordinates": [2.4330944, 6.3700339]}, "properties": {"component_size": 2, "commune": "COTONOU", "nearest_quartiers": ["Dantôkpa", "Nouveau-Pont", "Bocossi-Tokpa", "Jéricho-Sud", "Sèdjro-Saint-Michel"], "disposition": "MISSING_CHEF_LIEU_CANDIDATE", "reason": "post_connectivity_isolated"}}, {"type": "Feature", "geometry": {"type": "Point", "coordinates": [2.3553054, 6.388813]}, "properties": {"component_size": 3, "commune": "ABOMEY-CALAVI", "nearest_quartiers": ["Sèdjannako\n", "Hlouacomey", "Yolomahouto", "Plateau\n", "Nonhouénou\n"], "disposition": "MISSING_CHEF_LIEU_CANDIDATE", "reason": "post_connectivity_isolated"}}, {"type": "Feature", "geometry": {"type": "Point", "coordinates": [2.2992191, 6.5686872]}, "properties": {"component_size": 10, "commune": "ABOMEY-CALAVI", "nearest_quartiers": ["Adjamè\n", "Espace-Saint", "Golo-Djigbé", "Djissoukpa", "Yêkon-Aga"], "disposition": "MISSING_CHEF_LIEU_CANDIDATE", "reason": "post_connectivity_isolated"}}, {"type": "Feature", "geometry": {"type": "Point", "coordinates": [2.3983245, 6.488299]}, "properties": {"component_size": 37, "commune": "ABOMEY-CALAVI", "nearest_quartiers": ["Houèkè-Gbo", "Akassato", "Zopah-Kokpo", "Gbodjo", "Misséssinto"], "disposition": "MISSING_CHEF_LIEU_CANDIDATE", "reason": "post_connectivity_isolated"}}, {"type": "Feature", "geometry": {"type": "Point", "coordinates": [2.3908678, 6.4746918]}, "properties": {"component_size": 6, "commune": "ABOMEY-CALAVI", "nearest_quartiers": ["Houèkè-Gbo", "Gbodjo", "Zopah-Kokpo", "Agamandin", "Akassato"], "disposition": "MISSING_CHEF_LIEU_CANDIDATE", "reason": "post_connectivity_isolated"}}, {"type": "Feature", "geometry": {"type": "Point", "coordinates": [2.468201, 6.3777485]}, "properties": {"component_size": 2, "commune": "COTONOU", "nearest_quartiers": ["Avotrou-Gbègo", "Suru-Léré", "Yagbé", "Kowégbo", "Avotrou-Aïmonlonfidé"], "disposition": "MISSING_CHEF_LIEU_CANDIDATE", "reason": "post_connectivity_isolated"}}, {"type": "Feature", "geometry": {"type": "Point", "coordinates": [2.3567337, 6.3782587]}, "properties": {"component_size": 1, "commune": "ABOMEY-CALAVI", "nearest_quartiers": ["Plateau\n", "Sèdjannako\n"], "disposition": "MISSING_CHEF_LIEU_CANDIDATE", "reason": "post_connectivity_isolated"}}, {"type": "Feature", "geometry": {"type": "Point", "coordinates": [2.3537913, 6.3905479]}, "properties": {"component_size": 31, "commune": "ABOMEY-CALAVI", "nearest_quartiers": ["Sèdjannako\n", "Hlouacomey", "Yolomahouto", "Plateau\n", "Nonhouénou\n"], "disposition": "MISSING_CHEF_LIEU_CANDIDATE", "reason": "post_connectivity_isolated"}}, {"type": "Feature", "geometry": {"type": "Point", "coordinates": [2.3990465, 6.6694323]}, "properties": {"component_size": 44, "commune": "ABOMEY-CALAVI", "nearest_quartiers": ["Bozoun", "Hadjanaho", "Avagbé", "Djigbo", "Kpanroun"], "disposition": "MISSING_CHEF_LIEU_CANDIDATE", "reason": "post_connectivity_isolated"}}, {"type": "Feature", "geometry": {"type": "Point", "coordinates": [2.4191226, 6.344302]}, "properties": {"component_size": 10, "commune": "COTONOU", "nearest_quartiers": ["Zongo-Ehuzu", "Gbèdiga-Guêdêhounguè", "Ahouanlèko", "Zongo-Nima", "Gbéto"], "disposition": "MISSING_CHEF_LIEU_CANDIDATE", "reason": "post_connectivity_isolated"}}, {"type": "Feature", "geometry": {"type": "Point", "coordinates": [2.4022347, 6.504738]}, "properties": {"component_size": 77, "commune": "ABOMEY-CALAVI", "nearest_quartiers": ["Akassato", "Houèkè-Gbo", "Misséssinto", "Glo-Tokpa", "Houèkè-Honou"], "disposition": "MISSING_CHEF_LIEU_CANDIDATE", "reason": "post_connectivity_isolated"}}, {"type": "Feature", "geometry": {"type": "Point", "coordinates": [2.4088499, 6.3723427]}, "properties": {"component_size": 1, "commune": "COTONOU", "nearest_quartiers": ["Gbégamey-Gbagoudo", "Agbondjèdo", "Vodjè-Allobatin", "Dagbédji-Sikê", "Gbégamey-Dodo-Ayidjè"], "disposition": "MISSING_CHEF_LIEU_CANDIDATE", "reason": "post_connectivity_isolated"}}, {"type": "Feature", "geometry": {"type": "Point", "coordinates": [2.4083969, 6.3727357]}, "properties": {"component_size": 1, "commune": "COTONOU", "nearest_quartiers": ["Agbondjèdo", "Gbégamey-Gbagoudo", "Vodjè-Allobatin", "Agontinkon", "Dagbédji-Sikê"], "disposition": "MISSING_CHEF_LIEU_CANDIDATE", "reason": "post_connectivity_isolated"}}, {"type": "Feature", "geometry": {"type": "Point", "coordinates": [2.3362428, 6.6285901]}, "properties": {"component_size": 8, "commune": "ABOMEY-CALAVI", "nearest_quartiers": ["Houégoudo\n", "Zinvié-Zounmè", "Wawata", "Dangbodji", "Kpotomey"], "disposition": "MISSING_CHEF_LIEU_CANDIDATE", "reason": "post_connectivity_isolated"}}, {"type": "Feature", "geometry": {"type": "Point", "coordinates": [2.4065808, 6.374282]}, "properties": {"component_size": 1, "commune": "COTONOU", "nearest_quartiers": ["Agbondjèdo", "Agontinkon", "Vodjè-Ayidoté", "Gbégamey-Gbagoudo", "Vodjè-Allobatin"], "disposition": "MISSING_CHEF_LIEU_CANDIDATE", "reason": "post_connectivity_isolated"}}, {"type": "Feature", "geometry": {"type": "Point", "coordinates": [2.4000487, 6.4960489]}, "properties": {"component_size": 4, "commune": "ABOMEY-CALAVI", "nearest_quartiers": ["Houèkè-Gbo", "Akassato", "Misséssinto", "Zopah-Kokpo", "Houèkè-Honou"], "disposition": "MISSING_CHEF_LIEU_CANDIDATE", "reason": "post_connectivity_isolated"}}, {"type": "Feature", "geometry": {"type": "Point", "coordinates": [2.2509098, 6.4564669]}, "properties": {"component_size": 2, "commune": "ABOMEY-CALAVI", "nearest_quartiers": ["Zoungo", "Ouèdo", "Hêvié", "Dessato\n", "Dossounou"], "disposition": "MISSING_CHEF_LIEU_CANDIDATE", "reason": "post_connectivity_isolated"}}, {"type": "Feature", "geometry": {"type": "Point", "coordinates": [2.4060374, 6.5424624]}, "properties": {"component_size": 11, "commune": "ABOMEY-CALAVI", "nearest_quartiers": ["Agassa-Godomey", "Glo-Tokpa", "Kpodji-Les-Monts", "Misséssinto", "Dokomè"], "disposition": "MISSING_CHEF_LIEU_CANDIDATE", "reason": "post_connectivity_isolated"}}, {"type": "Feature", "geometry": {"type": "Point", "coordinates": [2.4432193, 6.3798261]}, "properties": {"component_size": 2, "commune": "COTONOU", "nearest_quartiers": ["Sègbèya-Sud", "Midombo", "Kpankpan", "Adjégounlè", "Adôgléta"], "disposition": "MISSING_CHEF_LIEU_CANDIDATE", "reason": "post_connectivity_isolated"}}, {"type": "Feature", "geometry": {"type": "Point", "coordinates": [2.3993272, 6.3830149]}, "properties": {"component_size": 2, "commune": "COTONOU", "nearest_quartiers": ["Gbénonkpô", "Tonato", "Houénoussou-Sainte-Rita", "Missèkplé", "Yénawa-Fifadji"], "disposition": "MISSING_CHEF_LIEU_CANDIDATE", "reason": "post_connectivity_isolated"}}, {"type": "Feature", "geometry": {"type": "Point", "coordinates": [2.279309, 6.3562456]}, "properties": {"component_size": 2, "commune": "ABOMEY-CALAVI", "nearest_quartiers": ["Djèkpota", "Amahoun\n", "Zounga\n", "Togbin-Daho", "Ganganzounmè\n"], "disposition": "MISSING_CHEF_LIEU_CANDIDATE", "reason": "post_connectivity_isolated"}}, {"type": "Feature", "geometry": {"type": "Point", "coordinates": [2.2700019, 6.3969966]}, "properties": {"component_size": 2, "commune": "ABOMEY-CALAVI", "nearest_quartiers": ["Sogan", "Cococodji", "Gbodjè-Womey\n", "Womey-Yénawa", "Akossavié"], "disposition": "MISSING_CHEF_LIEU_CANDIDATE", "reason": "post_connectivity_isolated"}}, {"type": "Feature", "geometry": {"type": "Point", "coordinates": [2.2248756, 6.4235447]}, "properties": {"component_size": 4, "commune": "ABOMEY-CALAVI", "nearest_quartiers": ["Houinmè", "Hounzévié\n", "Houinmè-Daho", "Hêvié", "Akossavié"], "disposition": "MISSING_CHEF_LIEU_CANDIDATE", "reason": "post_connectivity_isolated"}}, {"type": "Feature", "geometry": {"type": "Point", "coordinates": [2.3566202, 6.3929536]}, "properties": {"component_size": 4, "commune": "ABOMEY-CALAVI", "nearest_quartiers": ["Sèdjannako\n", "Hlouacomey", "Yolomahouto", "Nonhouénou\n", "Plateau\n"], "disposition": "MISSING_CHEF_LIEU_CANDIDATE", "reason": "post_connectivity_isolated"}}, {"type": "Feature", "geometry": {"type": "Point", "coordinates": [2.3614389, 6.6845473]}, "properties": {"component_size": 14, "commune": "ABOMEY-CALAVI", "nearest_quartiers": ["Kpanroun", "Djigbo", "Ahowégodo", "Avagbé", "Anagbo"], "disposition": "MISSING_CHEF_LIEU_CANDIDATE", "reason": "post_connectivity_isolated"}}, {"type": "Feature", "geometry": {"type": "Point", "coordinates": [2.4251916, 6.3443494]}, "properties": {"component_size": 12, "commune": "COTONOU", "nearest_quartiers": ["Zongo-Ehuzu", "Zongo-Nima", "Gbèdiga-Guêdêhounguè", "Xwlacôdji-Kpodji", "Gbéto"], "disposition": "MISSING_CHEF_LIEU_CANDIDATE", "reason": "post_connectivity_isolated"}}, {"type": "Feature", "geometry": {"type": "Point", "coordinates": [2.4074838, 6.5451569]}, "properties": {"component_size": 11, "commune": "ABOMEY-CALAVI", "nearest_quartiers": ["Agassa-Godomey", "Glo-Tokpa", "Kpodji-Les-Monts", "Dokomè", "Misséssinto"], "disposition": "MISSING_CHEF_LIEU_CANDIDATE", "reason": "post_connectivity_isolated"}}, {"type": "Feature", "geometry": {"type": "Point", "coordinates": [2.2422865, 6.3627673]}, "properties": {"component_size": 13, "commune": "ABOMEY-CALAVI", "nearest_quartiers": ["Cococodji", "Djèkpota", "Akossavié", "Sogan", "Houinmè-Daho"], "disposition": "MISSING_CHEF_LIEU_CANDIDATE", "reason": "post_connectivity_isolated"}}, {"type": "Feature", "geometry": {"type": "Point", "coordinates": [2.3990037, 6.3577125]}, "properties": {"component_size": 6, "commune": "COTONOU", "nearest_quartiers": ["Cadjèhoun-Azalokogon", "Haie-Vive-Cocotiers", "Cadjèhoun-Agonga", "Cadjèhoun-Aupiais", "Cadjèhoun-Kpota"], "disposition": "MISSING_CHEF_LIEU_CANDIDATE", "reason": "post_connectivity_isolated"}}, {"type": "Feature", "geometry": {"type": "Point", "coordinates": [2.2984962, 6.3693542]}, "properties": {"component_size": 48, "commune": "ABOMEY-CALAVI", "nearest_quartiers": ["Ganganzounmè\n", "Hêdomè\n", "Zounga\n", "Amahoun\n", "Djèkpota"], "disposition": "MISSING_CHEF_LIEU_CANDIDATE", "reason": "post_connectivity_isolated"}}, {"type": "Feature", "geometry": {"type": "Point", "coordinates": [2.4433193, 6.3599573]}, "properties": {"component_size": 2, "commune": "COTONOU", "nearest_quartiers": ["Akpakpa-Dodomè", "Tokpa-Hoho", "Ohé", "Abokicodji-Lagune", "Abokicodji-Centre"], "disposition": "MISSING_CHEF_LIEU_CANDIDATE", "reason": "post_connectivity_isolated"}}, {"type": "Feature", "geometry": {"type": "Point", "coordinates": [2.3877694, 6.3566297]}, "properties": {"component_size": 9, "commune": "COTONOU", "nearest_quartiers": ["Aïbatin-Dodo", "Cadjèhoun-Agonga", "Gbèdégbé", "Aïbatin-Kpota", "Haie-Vive-Cocotiers"], "disposition": "MISSING_CHEF_LIEU_CANDIDATE", "reason": "post_connectivity_isolated"}}, {"type": "Feature", "geometry": {"type": "Point", "coordinates": [2.405166, 6.6675422]}, "properties": {"component_size": 12, "commune": "ABOMEY-CALAVI", "nearest_quartiers": ["Bozoun", "Hadjanaho", "Avagbé", "Djigbo", "Kpanroun"], "disposition": "MISSING_CHEF_LIEU_CANDIDATE", "reason": "post_connectivity_isolated"}}, {"type": "Feature", "geometry": {"type": "Point", "coordinates": [2.4029867, 6.6739932]}, "properties": {"component_size": 8, "commune": "ABOMEY-CALAVI", "nearest_quartiers": ["Bozoun", "Hadjanaho", "Avagbé", "Djigbo", "Kpanroun"], "disposition": "MISSING_CHEF_LIEU_CANDIDATE", "reason": "post_connectivity_isolated"}}, {"type": "Feature", "geometry": {"type": "Point", "coordinates": [2.3909453, 6.4743368]}, "properties": {"component_size": 1, "commune": "ABOMEY-CALAVI", "nearest_quartiers": ["Gbodjo", "Houèkè-Gbo", "Zopah-Kokpo", "Agamandin", "Akassato"], "disposition": "MISSING_CHEF_LIEU_CANDIDATE", "reason": "post_connectivity_isolated"}}, {"type": "Feature", "geometry": {"type": "Point", "coordinates": [2.3999088, 6.4967458]}, "properties": {"component_size": 10, "commune": "ABOMEY-CALAVI", "nearest_quartiers": ["Houèkè-Gbo", "Akassato", "Misséssinto", "Houèkè-Honou", "Zopah-Kokpo"], "disposition": "MISSING_CHEF_LIEU_CANDIDATE", "reason": "post_connectivity_isolated"}}, {"type": "Feature", "geometry": {"type": "Point", "coordinates": [2.3635089, 6.3657222]}, "properties": {"component_size": 1, "commune": "ABOMEY-CALAVI", "nearest_quartiers": [], "disposition": "MISSING_CHEF_LIEU_CANDIDATE", "reason": "post_connectivity_isolated"}}, {"type": "Feature", "geometry": {"type": "Point", "coordinates": [2.3253793, 6.4983911]}, "properties": {"component_size": 32, "commune": "ABOMEY-CALAVI", "nearest_quartiers": ["Zoundja\n", "Kansounkpa", "Zopah-Akassato", "Ouéga-Agué", "Cité-les-Palmiers\n"], "disposition": "MISSING_CHEF_LIEU_CANDIDATE", "reason": "post_connectivity_isolated"}}, {"type": "Feature", "geometry": {"type": "Point", "coordinates": [2.3567881, 6.3899812]}, "properties": {"component_size": 3, "commune": "ABOMEY-CALAVI", "nearest_quartiers": ["Sèdjannako\n", "Hlouacomey", "Yolomahouto", "Plateau\n", "Nonhouénou\n"], "disposition": "MISSING_CHEF_LIEU_CANDIDATE", "reason": "post_connectivity_isolated"}}, {"type": "Feature", "geometry": {"type": "Point", "coordinates": [2.3521753, 6.4316533]}, "properties": {"component_size": 1, "commune": "ABOMEY-CALAVI", "nearest_quartiers": ["Tokpa-Zoungo-Nord\n", "Tokpa-Zoungo-Sud\n", "Finafa\n", "Agori", "Tchinangbégbo\n"], "disposition": "MISSING_CHEF_LIEU_CANDIDATE", "reason": "post_connectivity_isolated"}}, {"type": "Feature", "geometry": {"type": "Point", "coordinates": [2.3984067, 6.375029]}, "properties": {"component_size": 2, "commune": "COTONOU", "nearest_quartiers": ["Tonato", "Vodjè-Finagnon", "Vodjè-Ayidoté", "Vodjè-Kpota", "Houénoussou-Sainte-Rita"], "disposition": "MISSING_CHEF_LIEU_CANDIDATE", "reason": "post_connectivity_isolated"}}]}