{"type": "FeatureCollection", "features": [{"type": "Feature", "geometry": {"type": "Point", "coordinates": [2.3545776, 6.3903777]}, "properties": {"quartier": "Sèdjannako\n", "component_size": 6, "disposition": "UNRESOLVED_DISCONNECTED", "eligible_owners": [], "iteration": 1, "vertex_ids": [12233, 12234, 12235, 12236, 12237, 12238]}}, {"type": "Feature", "geometry": {"type": "Point", "coordinates": [2.3550912, 6.3902865]}, "properties": {"quartier": "Sèdjannako\n", "component_size": 7, "disposition": "UNRESOLVED_DISCONNECTED", "eligible_owners": [], "iteration": 1, "vertex_ids": [126838, 126839, 126840, 126841, 126842, 64764, 64765]}}, {"type": "Feature", "geometry": {"type": "Point", "coordinates": [2.3547638, 6.3903884]}, "properties": {"quartier": "Sèdjannako\n", "component_size": 3, "disposition": "UNRESOLVED_DISCONNECTED", "eligible_owners": [], "iteration": 1, "vertex_ids": [4889, 4890, 4891]}}, {"type": "Feature", "geometry": {"type": "Point", "coordinates": [2.3538825, 6.3910135]}, "properties": {"quartier": "Sèdjannako\n", "component_size": 5, "disposition": "UNRESOLVED_DISCONNECTED", "eligible_owners": [], "iteration": 1, "vertex_ids": [117600, 117601, 117597, 117598, 117599]}}, {"type": "Feature", "geometry": {"type": "Point", "coordinates": [2.3534765, 6.390243]}, "properties": {"quartier": "Sèdjannako\n", "component_size": 3, "disposition": "UNRESOLVED_DISCONNECTED", "eligible_owners": [], "iteration": 1, "vertex_ids": [12224, 12222, 12223]}}, {"type": "Feature", "geometry": {"type": "Point", "coordinates": [2.2974338, 6.3877494]}, "properties": {"quartier": "Cocotomey", "component_size": 1, "disposition": "UNRESOLVED_DISCONNECTED", "eligible_owners": [], "iteration": 1, "vertex_ids": [79]}}, {"type": "Feature", "geometry": {"type": "Point", "coordinates": [2.2204614, 6.3847974]}, "properties": {"quartier": "Cococodji", "component_size": 7, "disposition": "UNRESOLVED_DISCONNECTED", "eligible_owners": [], "iteration": 1, "vertex_ids": [129683, 129684, 129685, 129686, 129687, 129688, 129689]}}, {"type": "Feature", "geometry": {"type": "Point", "coordinates": [2.2409885, 6.3712569]}, "properties": {"quartier": "Cococodji", "component_size": 9, "disposition": "UNRESOLVED_DISCONNECTED", "eligible_owners": [], "iteration": 1, "vertex_ids": [116069, 116070, 86119, 86120, 86121, 134826, 86123, 86122, 86748]}}, {"type": "Feature", "geometry": {"type": "Point", "coordinates": [2.4387342, 6.3710935]}, "properties": {"quartier": "Gbénonkpô", "component_size": 1, "disposition": "UNRESOLVED_DISCONNECTED", "eligible_owners": [], "iteration": 1, "vertex_ids": [130223]}}, {"type": "Feature", "geometry": {"type": "Point", "coordinates": [2.3991983, 6.3811697]}, "properties": {"quartier": "Gbénonkpô", "component_size": 1, "disposition": "UNRESOLVED_DISCONNECTED", "eligible_owners": [], "iteration": 1, "vertex_ids": [131902]}}, {"type": "Feature", "geometry": {"type": "Point", "coordinates": [2.3993272, 6.3830149]}, "properties": {"quartier": "Gbénonkpô", "component_size": 1, "disposition": "UNRESOLVED_DISCONNECTED", "eligible_owners": [], "iteration": 1, "vertex_ids": [129382]}}, {"type": "Feature", "geometry": {"type": "Point", "coordinates": [2.4330944, 6.3700339]}, "properties": {"quartier": "Dantôkpa", "component_size": 2, "disposition": "UNRESOLVED_DISCONNECTED", "eligible_owners": [], "iteration": 1, "vertex_ids": [5022, 5023]}}, {"type": "Feature", "geometry": {"type": "Point", "coordinates": [2.4514023, 6.3717735]}, "properties": {"quartier": "Fifatin", "component_size": 1, "disposition": "UNRESOLVED_DISCONNECTED", "eligible_owners": [], "iteration": 1, "vertex_ids": [131298]}}, {"type": "Feature", "geometry": {"type": "Point", "coordinates": [2.4468238, 6.3693546]}, "properties": {"quartier": "Gbèdjèwin", "component_size": 3, "disposition": "UNRESOLVED_DISCONNECTED", "eligible_owners": [], "iteration": 1, "vertex_ids": [2232, 2233, 2234]}}, {"type": "Feature", "geometry": {"type": "Point", "coordinates": [2.438305, 6.3771471]}, "properties": {"quartier": "Kpankpan", "component_size": 2, "disposition": "UNRESOLVED_DISCONNECTED", "eligible_owners": [], "iteration": 1, "vertex_ids": [130197, 130198]}}, {"type": "Feature", "geometry": {"type": "Point", "coordinates": [2.4411558, 6.3715284]}, "properties": {"quartier": "Kpankpan", "component_size": 1, "disposition": "UNRESOLVED_DISCONNECTED", "eligible_owners": [], "iteration": 1, "vertex_ids": [127063]}}, {"type": "Feature", "geometry": {"type": "Point", "coordinates": [2.3848332, 6.3501358]}, "properties": {"quartier": "Haie-Vive-Cocotiers", "component_size": 39, "disposition": "UNRESOLVED_DISCONNECTED", "eligible_owners": [], "iteration": 1, "vertex_ids": [125699, 39939, 125700, 125701, 125702, 125703, 125704, 125707, 125708, 125709, 125710, 125711]}}, {"type": "Feature", "geometry": {"type": "Point", "coordinates": [2.3864002, 6.3519302]}, "properties": {"quartier": "Haie-Vive-Cocotiers", "component_size": 9, "disposition": "UNRESOLVED_DISCONNECTED", "eligible_owners": [], "iteration": 1, "vertex_ids": [147270, 147271, 147272, 147273, 147274, 147275, 147276, 147277, 147278]}}, {"type": "Feature", "geometry": {"type": "Point", "coordinates": [2.3845279, 6.3521254]}, "properties": {"quartier": "Haie-Vive-Cocotiers", "component_size": 4, "disposition": "UNRESOLVED_DISCONNECTED", "eligible_owners": [], "iteration": 1, "vertex_ids": [147160, 147161, 147162, 147159]}}, {"type": "Feature", "geometry": {"type": "Point", "coordinates": [2.3903391, 6.3498585]}, "properties": {"quartier": "Haie-Vive-Cocotiers", "component_size": 7, "disposition": "UNRESOLVED_DISCONNECTED", "eligible_owners": [], "iteration": 1, "vertex_ids": [142064, 142065, 142066, 142067, 142068, 142069, 142070]}}, {"type": "Feature", "geometry": {"type": "Point", "coordinates": [2.424092, 6.3558751]}, "properties": {"quartier": "Zongo-Ehuzu", "component_size": 1, "disposition": "UNRESOLVED_DISCONNECTED", "eligible_owners": [], "iteration": 1, "vertex_ids": [6794]}}, {"type": "Feature", "geometry": {"type": "Point", "coordinates": [2.4012728, 6.3554291]}, "properties": {"quartier": "Cadjèhoun-Azalokogon", "component_size": 8, "disposition": "UNRESOLVED_DISCONNECTED", "eligible_owners": [], "iteration": 1, "vertex_ids": [131119, 131120, 131121, 131122, 131123, 131124, 4917, 131125]}}, {"type": "Feature", "geometry": {"type": "Point", "coordinates": [2.3990037, 6.3577125]}, "properties": {"quartier": "Cadjèhoun-Azalokogon", "component_size": 6, "disposition": "UNRESOLVED_DISCONNECTED", "eligible_owners": [], "iteration": 1, "vertex_ids": [7633, 7634, 130998, 130999, 131000, 131001]}}, {"type": "Feature", "geometry": {"type": "Point", "coordinates": [2.3996474, 6.3566424]}, "properties": {"quartier": "Cadjèhoun-Azalokogon", "component_size": 2, "disposition": "UNRESOLVED_DISCONNECTED", "eligible_owners": [], "iteration": 1, "vertex_ids": [861, 862]}}, {"type": "Feature", "geometry": {"type": "Point", "coordinates": [2.3999709, 6.3564682]}, "properties": {"quartier": "Cadjèhoun-Azalokogon", "component_size": 2, "disposition": "UNRESOLVED_DISCONNECTED", "eligible_owners": [], "iteration": 1, "vertex_ids": [150249, 150246]}}, {"type": "Feature", "geometry": {"type": "Point", "coordinates": [2.3994693, 6.3830054]}, "properties": {"quartier": "Tonato", "component_size": 1, "disposition": "UNRESOLVED_DISCONNECTED", "eligible_owners": [], "iteration": 1, "vertex_ids": [129383]}}, {"type": "Feature", "geometry": {"type": "Point", "coordinates": [2.3968611, 6.3774672]}, "properties": {"quartier": "Tonato", "component_size": 2, "disposition": "UNRESOLVED_DISCONNECTED", "eligible_owners": [], "iteration": 1, "vertex_ids": [131893, 131894]}}, {"type": "Feature", "geometry": {"type": "Point", "coordinates": [2.3985538, 6.3789259]}, "properties": {"quartier": "Tonato", "component_size": 2, "disposition": "UNRESOLVED_DISCONNECTED", "eligible_owners": [], "iteration": 1, "vertex_ids": [131896, 131895]}}, {"type": "Feature", "geometry": {"type": "Point", "coordinates": [2.3993494, 6.3811576]}, "properties": {"quartier": "Tonato", "component_size": 1, "disposition": "UNRESOLVED_DISCONNECTED", "eligible_owners": [], "iteration": 1, "vertex_ids": [131903]}}, {"type": "Feature", "geometry": {"type": "Point", "coordinates": [2.4269707, 6.3550255]}, "properties": {"quartier": "Zongo-Nima", "component_size": 4, "disposition": "UNRESOLVED_DISCONNECTED", "eligible_owners": [], "iteration": 1, "vertex_ids": [146792, 146793, 146790, 146791]}}, {"type": "Feature", "geometry": {"type": "Point", "coordinates": [2.4379108, 6.3576625]}, "properties": {"quartier": "Guinkômey", "component_size": 1, "disposition": "UNRESOLVED_DISCONNECTED", "eligible_owners": [], "iteration": 1, "vertex_ids": [1943]}}, {"type": "Feature", "geometry": {"type": "Point", "coordinates": [2.4248846, 6.3443444]}, "properties": {"quartier": "Ahouanlèko", "component_size": 168, "disposition": "UNRESOLVED_DISCONNECTED", "eligible_owners": [], "iteration": 1, "vertex_ids": [130366, 130367, 130368, 143924, 143925, 143926, 143927, 143928, 71499, 71500, 71501, 130385]}}, {"type": "Feature", "geometry": {"type": "Point", "coordinates": [2.4407478, 6.3578717]}, "properties": {"quartier": "Tokpa-Hoho", "component_size": 1, "disposition": "UNRESOLVED_DISCONNECTED", "eligible_owners": [], "iteration": 1, "vertex_ids": [126573]}}, {"type": "Feature", "geometry": {"type": "Point", "coordinates": [2.3651887, 6.3492094]}, "properties": {"quartier": "Fiyégnon-Jacquot", "component_size": 17, "disposition": "UNRESOLVED_DISCONNECTED", "eligible_owners": [], "iteration": 1, "vertex_ids": [126528, 126529, 126530, 73835, 73836, 73837, 73838, 73839, 73840, 73841, 73842, 73843]}}, {"type": "Feature", "geometry": {"type": "Point", "coordinates": [2.3140248, 6.3492715]}, "properties": {"quartier": "Togbin-Fandji", "component_size": 5, "disposition": "UNRESOLVED_DISCONNECTED", "eligible_owners": [], "iteration": 1, "vertex_ids": [80330, 80331, 80332, 80333, 80334]}}, {"type": "Feature", "geometry": {"type": "Point", "coordinates": [2.3529211, 6.3505612]}, "properties": {"quartier": "Togbin-Fandji", "component_size": 3, "disposition": "UNRESOLVED_DISCONNECTED", "eligible_owners": [], "iteration": 1, "vertex_ids": [126514, 126515, 126516]}}, {"type": "Feature", "geometry": {"type": "Point", "coordinates": [2.2629073, 6.3646199]}, "properties": {"quartier": "Djèkpota", "component_size": 6, "disposition": "UNRESOLVED_DISCONNECTED", "eligible_owners": [], "iteration": 1, "vertex_ids": [133132, 133133, 133134, 133135, 133136, 133137]}}, {"type": "Feature", "geometry": {"type": "Point", "coordinates": [2.2528899, 6.3653597]}, "properties": {"quartier": "Djèkpota", "component_size": 12, "disposition": "UNRESOLVED_DISCONNECTED", "eligible_owners": [], "iteration": 1, "vertex_ids": [80749, 80750, 80751, 80752, 60177, 60178, 60179, 60180, 60181, 80754, 80755, 80753]}}, {"type": "Feature", "geometry": {"type": "Point", "coordinates": [2.2370937, 6.3585302]}, "properties": {"quartier": "Djèkpota", "component_size": 18, "disposition": "UNRESOLVED_DISCONNECTED", "eligible_owners": [], "iteration": 1, "vertex_ids": [133408, 133409, 133410, 133411, 61899, 61900, 61901, 61902, 61903, 61904, 61905, 133401]}}, {"type": "Feature", "geometry": {"type": "Point", "coordinates": [2.2374505, 6.3583755]}, "properties": {"quartier": "Djèkpota", "component_size": 33, "disposition": "UNRESOLVED_DISCONNECTED", "eligible_owners": [], "iteration": 1, "vertex_ids": [133413, 133414, 133415, 133416, 133417, 133418, 133419, 133420, 133421, 133422, 133423, 133424]}}, {"type": "Feature", "geometry": {"type": "Point", "coordinates": [2.252495, 6.3651464]}, "properties": {"quartier": "Djèkpota", "component_size": 4, "disposition": "UNRESOLVED_DISCONNECTED", "eligible_owners": [], "iteration": 1, "vertex_ids": [80744, 80745, 80746, 80747]}}, {"type": "Feature", "geometry": {"type": "Point", "coordinates": [2.2741109, 6.3486776]}, "properties": {"quartier": "Djèkpota", "component_size": 1, "disposition": "UNRESOLVED_DISCONNECTED", "eligible_owners": [], "iteration": 1, "vertex_ids": [134365]}}, {"type": "Feature", "geometry": {"type": "Point", "coordinates": [2.4465421, 6.3611532]}, "properties": {"quartier": "Ohé", "component_size": 1, "disposition": "UNRESOLVED_DISCONNECTED", "eligible_owners": [], "iteration": 1, "vertex_ids": [142151]}}, {"type": "Feature", "geometry": {"type": "Point", "coordinates": [2.4484572, 6.3639975]}, "properties": {"quartier": "Ohé", "component_size": 15, "disposition": "UNRESOLVED_DISCONNECTED", "eligible_owners": [], "iteration": 1, "vertex_ids": [1728, 1729, 1730, 1731, 1732, 1733, 1734, 1735, 1736, 1737, 1723, 1724]}}, {"type": "Feature", "geometry": {"type": "Point", "coordinates": [2.4433193, 6.3599573]}, "properties": {"quartier": "Akpakpa-Dodomè", "component_size": 1, "disposition": "UNRESOLVED_DISCONNECTED", "eligible_owners": [], "iteration": 1, "vertex_ids": [126572]}}, {"type": "Feature", "geometry": {"type": "Point", "coordinates": [2.4596232, 6.3569094]}, "properties": {"quartier": "Fifadji-Houto (Jak)", "component_size": 40, "disposition": "UNRESOLVED_DISCONNECTED", "eligible_owners": [], "iteration": 1, "vertex_ids": [131612, 131613, 131614, 131615, 131616, 131617, 131618, 131619, 131657, 131658, 131541, 131542]}}, {"type": "Feature", "geometry": {"type": "Point", "coordinates": [2.4597292, 6.357092]}, "properties": {"quartier": "Fifadji-Houto (Jak)", "component_size": 1, "disposition": "UNRESOLVED_DISCONNECTED", "eligible_owners": [], "iteration": 1, "vertex_ids": [131626]}}, {"type": "Feature", "geometry": {"type": "Point", "coordinates": [2.3984067, 6.375029]}, "properties": {"quartier": "Vodjè-Finagnon", "component_size": 2, "disposition": "UNRESOLVED_DISCONNECTED", "eligible_owners": [], "iteration": 1, "vertex_ids": [130956, 130957]}}, {"type": "Feature", "geometry": {"type": "Point", "coordinates": [2.3574708, 6.3502961]}, "properties": {"quartier": "Fidjrossè-Kpota", "component_size": 7, "disposition": "UNRESOLVED_DISCONNECTED", "eligible_owners": [], "iteration": 1, "vertex_ids": [126517, 126518, 126519, 126520, 126521, 126522, 126523]}}, {"type": "Feature", "geometry": {"type": "Point", "coordinates": [2.4432193, 6.3798261]}, "properties": {"quartier": "Midombo", "component_size": 2, "disposition": "UNRESOLVED_DISCONNECTED", "eligible_owners": [], "iteration": 1, "vertex_ids": [129290, 129291]}}, {"type": "Feature", "geometry": {"type": "Point", "coordinates": [2.4423221, 6.3824397]}, "properties": {"quartier": "Sègbèya-Sud", "component_size": 2, "disposition": "UNRESOLVED_DISCONNECTED", "eligible_owners": [], "iteration": 1, "vertex_ids": [131323, 131324]}}, {"type": "Feature", "geometry": {"type": "Point", "coordinates": [2.4418388, 6.3824423]}, "properties": {"quartier": "Sègbèya-Sud", "component_size": 2, "disposition": "UNRESOLVED_DISCONNECTED", "eligible_owners": [], "iteration": 1, "vertex_ids": [131325, 131326]}}, {"type": "Feature", "geometry": {"type": "Point", "coordinates": [2.4469914, 6.3954835]}, "properties": {"quartier": "Agbodjèdo", "component_size": 1, "disposition": "UNRESOLVED_DISCONNECTED", "eligible_owners": [], "iteration": 1, "vertex_ids": [131888]}}, {"type": "Feature", "geometry": {"type": "Point", "coordinates": [2.4455014, 6.3967763]}, "properties": {"quartier": "Agbodjèdo", "component_size": 1, "disposition": "UNRESOLVED_DISCONNECTED", "eligible_owners": [], "iteration": 1, "vertex_ids": [131764]}}, {"type": "Feature", "geometry": {"type": "Point", "coordinates": [2.4454368, 6.3967272]}, "properties": {"quartier": "Agbodjèdo", "component_size": 1, "disposition": "UNRESOLVED_DISCONNECTED", "eligible_owners": [], "iteration": 1, "vertex_ids": [131757]}}, {"type": "Feature", "geometry": {"type": "Point", "coordinates": [2.4444285, 6.396795]}, "properties": {"quartier": "Agbodjèdo", "component_size": 2, "disposition": "UNRESOLVED_DISCONNECTED", "eligible_owners": [], "iteration": 1, "vertex_ids": [131884, 131885]}}, {"type": "Feature", "geometry": {"type": "Point", "coordinates": [2.3556717, 6.6329009]}, "properties": {"quartier": "Kpotomey", "component_size": 6, "disposition": "UNRESOLVED_DISCONNECTED", "eligible_owners": [], "iteration": 1, "vertex_ids": [25962, 25963, 25964, 25965, 25966, 25967]}}, {"type": "Feature", "geometry": {"type": "Point", "coordinates": [2.362415, 6.5176721]}, "properties": {"quartier": "Misséssinto", "component_size": 15, "disposition": "UNRESOLVED_DISCONNECTED", "eligible_owners": [], "iteration": 1, "vertex_ids": [124320, 124321, 38210, 124322, 124323, 38211, 38212, 38443, 38380, 38444, 38381, 38382]}}, {"type": "Feature", "geometry": {"type": "Point", "coordinates": [2.3728199, 6.5110357]}, "properties": {"quartier": "Misséssinto", "component_size": 41, "disposition": "UNRESOLVED_DISCONNECTED", "eligible_owners": [], "iteration": 1, "vertex_ids": [34679, 141816, 34743, 34744, 34745, 34746, 34747, 34748, 34749, 34750, 34751, 34752]}}, {"type": "Feature", "geometry": {"type": "Point", "coordinates": [2.3699682, 6.5107072]}, "properties": {"quartier": "Misséssinto", "component_size": 32, "disposition": "UNRESOLVED_DISCONNECTED", "eligible_owners": [], "iteration": 1, "vertex_ids": [34697, 34698, 34699, 34680, 34681, 34682, 74401, 74402, 34770, 34771, 34772, 34773]}}, {"type": "Feature", "geometry": {"type": "Point", "coordinates": [2.3413983, 6.4072528]}, "properties": {"quartier": "Sèdomey", "component_size": 1, "disposition": "UNRESOLVED_DISCONNECTED", "eligible_owners": [], "iteration": 1, "vertex_ids": [73786]}}, {"type": "Feature", "geometry": {"type": "Point", "coordinates": [2.3686665, 6.5035104]}, "properties": {"quartier": "Akassato", "component_size": 6, "disposition": "UNRESOLVED_DISCONNECTED", "eligible_owners": [], "iteration": 1, "vertex_ids": [35301, 35302, 35303, 35304, 35305, 35306]}}, {"type": "Feature", "geometry": {"type": "Point", "coordinates": [2.3745355, 6.5065622]}, "properties": {"quartier": "Akassato", "component_size": 4, "disposition": "UNRESOLVED_DISCONNECTED", "eligible_owners": [], "iteration": 1, "vertex_ids": [34739, 34740, 34741, 34742]}}, {"type": "Feature", "geometry": {"type": "Point", "coordinates": [2.3574109, 6.3883026]}, "properties": {"quartier": "Kindonou", "component_size": 1, "disposition": "UNRESOLVED_DISCONNECTED", "eligible_owners": [], "iteration": 1, "vertex_ids": [132049]}}, {"type": "Feature", "geometry": {"type": "Point", "coordinates": [2.2632041, 6.4377995]}, "properties": {"quartier": "Alansankomè", "component_size": 18, "disposition": "UNRESOLVED_DISCONNECTED", "eligible_owners": [], "iteration": 1, "vertex_ids": [70149, 70150, 70151, 106917, 106918, 106919, 106920, 106921, 106922, 70131, 70132, 70133]}}, {"type": "Feature", "geometry": {"type": "Point", "coordinates": [2.2624164, 6.4415332]}, "properties": {"quartier": "Alansankomè", "component_size": 9, "disposition": "UNRESOLVED_DISCONNECTED", "eligible_owners": [], "iteration": 1, "vertex_ids": [70152, 70153, 70154, 70155, 70156, 70157, 70170, 70171, 70172]}}, {"type": "Feature", "geometry": {"type": "Point", "coordinates": [2.2697867, 6.4361702]}, "properties": {"quartier": "Alansankomè", "component_size": 13, "disposition": "UNRESOLVED_DISCONNECTED", "eligible_owners": [], "iteration": 1, "vertex_ids": [75297, 75298, 75299, 70244, 70245, 70246, 70247, 70248, 70243, 70242, 75315, 75316]}}, {"type": "Feature", "geometry": {"type": "Point", "coordinates": [2.2697864, 6.434933]}, "properties": {"quartier": "Alansankomè", "component_size": 13, "disposition": "UNRESOLVED_DISCONNECTED", "eligible_owners": [], "iteration": 1, "vertex_ids": [75309, 75310, 75311, 75312, 75313, 75314, 70233, 70234, 70235, 70236, 70237, 70238]}}, {"type": "Feature", "geometry": {"type": "Point", "coordinates": [2.2634786, 6.44085]}, "properties": {"quartier": "Alansankomè", "component_size": 6, "disposition": "UNRESOLVED_DISCONNECTED", "eligible_owners": [], "iteration": 1, "vertex_ids": [120646, 120647, 120648, 120649, 120650, 120651]}}, {"type": "Feature", "geometry": {"type": "Point", "coordinates": [2.2679372, 6.4421561]}, "properties": {"quartier": "Alansankomè", "component_size": 8, "disposition": "UNRESOLVED_DISCONNECTED", "eligible_owners": [], "iteration": 1, "vertex_ids": [69970, 69971, 69972, 69973, 69974, 69975, 69976, 69977]}}, {"type": "Feature", "geometry": {"type": "Point", "coordinates": [2.2655253, 6.4409721]}, "properties": {"quartier": "Alansankomè", "component_size": 9, "disposition": "UNRESOLVED_DISCONNECTED", "eligible_owners": [], "iteration": 1, "vertex_ids": [70019, 70020, 70021, 70022, 70023, 70024, 70025, 70026, 70027]}}, {"type": "Feature", "geometry": {"type": "Point", "coordinates": [2.2631381, 6.4399255]}, "properties": {"quartier": "Alansankomè", "component_size": 4, "disposition": "UNRESOLVED_DISCONNECTED", "eligible_owners": [], "iteration": 1, "vertex_ids": [70035, 70036, 70037, 70038]}}, {"type": "Feature", "geometry": {"type": "Point", "coordinates": [2.2645924, 6.4385931]}, "properties": {"quartier": "Alansankomè", "component_size": 6, "disposition": "UNRESOLVED_DISCONNECTED", "eligible_owners": [], "iteration": 1, "vertex_ids": [106933, 106934, 106935, 106936, 106937, 106938]}}, {"type": "Feature", "geometry": {"type": "Point", "coordinates": [2.2630363, 6.4368675]}, "properties": {"quartier": "Alansankomè", "component_size": 10, "disposition": "UNRESOLVED_DISCONNECTED", "eligible_owners": [], "iteration": 1, "vertex_ids": [70080, 70081, 70082, 70083, 70084, 70085, 70086, 70077, 70078, 70079]}}, {"type": "Feature", "geometry": {"type": "Point", "coordinates": [2.4033303, 6.3874602]}, "properties": {"quartier": "Fifadji", "component_size": 2, "disposition": "UNRESOLVED_DISCONNECTED", "eligible_owners": [], "iteration": 1, "vertex_ids": [74132, 74133]}}, {"type": "Feature", "geometry": {"type": "Point", "coordinates": [2.4292289, 6.3771003]}, "properties": {"quartier": "Aïdjèdo-Vignon", "component_size": 2, "disposition": "UNRESOLVED_DISCONNECTED", "eligible_owners": [], "iteration": 1, "vertex_ids": [131130, 131131]}}, {"type": "Feature", "geometry": {"type": "Point", "coordinates": [2.4334033, 6.3781414]}, "properties": {"quartier": "Hindé-Sud", "component_size": 2, "disposition": "UNRESOLVED_DISCONNECTED", "eligible_owners": [], "iteration": 1, "vertex_ids": [129320, 129319]}}, {"type": "Feature", "geometry": {"type": "Point", "coordinates": [2.4345362, 6.3785368]}, "properties": {"quartier": "Hindé-Nord", "component_size": 3, "disposition": "UNRESOLVED_DISCONNECTED", "eligible_owners": [], "iteration": 1, "vertex_ids": [117376, 117377, 131140]}}, {"type": "Feature", "geometry": {"type": "Point", "coordinates": [2.3872411, 6.3686372]}, "properties": {"quartier": "Gbèdégbé", "component_size": 2, "disposition": "UNRESOLVED_DISCONNECTED", "eligible_owners": [], "iteration": 1, "vertex_ids": [127100, 13702]}}, {"type": "Feature", "geometry": {"type": "Point", "coordinates": [2.3862162, 6.3684051]}, "properties": {"quartier": "Gbèdégbé", "component_size": 2, "disposition": "UNRESOLVED_DISCONNECTED", "eligible_owners": [], "iteration": 1, "vertex_ids": [132233, 132234]}}, {"type": "Feature", "geometry": {"type": "Point", "coordinates": [2.3868227, 6.3683719]}, "properties": {"quartier": "Gbèdégbé", "component_size": 1, "disposition": "UNRESOLVED_DISCONNECTED", "eligible_owners": [], "iteration": 1, "vertex_ids": [116142]}}, {"type": "Feature", "geometry": {"type": "Point", "coordinates": [2.3874067, 6.3660503]}, "properties": {"quartier": "Gbèdégbé", "component_size": 2, "disposition": "UNRESOLVED_DISCONNECTED", "eligible_owners": [], "iteration": 1, "vertex_ids": [6716, 6717]}}, {"type": "Feature", "geometry": {"type": "Point", "coordinates": [2.442485, 6.3962882]}, "properties": {"quartier": "Hlacômey", "component_size": 2, "disposition": "UNRESOLVED_DISCONNECTED", "eligible_owners": [], "iteration": 1, "vertex_ids": [131852, 131853]}}, {"type": "Feature", "geometry": {"type": "Point", "coordinates": [2.4424142, 6.3962772]}, "properties": {"quartier": "Hlacômey", "component_size": 2, "disposition": "UNRESOLVED_DISCONNECTED", "eligible_owners": [], "iteration": 1, "vertex_ids": [131854, 131855]}}, {"type": "Feature", "geometry": {"type": "Point", "coordinates": [2.4418093, 6.3962725]}, "properties": {"quartier": "Hlacômey", "component_size": 1, "disposition": "UNRESOLVED_DISCONNECTED", "eligible_owners": [], "iteration": 1, "vertex_ids": [131856]}}, {"type": "Feature", "geometry": {"type": "Point", "coordinates": [2.4521474, 6.3943264]}, "properties": {"quartier": "Gankpodo", "component_size": 1, "disposition": "UNRESOLVED_DISCONNECTED", "eligible_owners": [], "iteration": 1, "vertex_ids": [8242]}}, {"type": "Feature", "geometry": {"type": "Point", "coordinates": [2.4593403, 6.3784264]}, "properties": {"quartier": "Sènadé-Sèkon", "component_size": 2, "disposition": "UNRESOLVED_DISCONNECTED", "eligible_owners": [], "iteration": 1, "vertex_ids": [131320, 131319]}}, {"type": "Feature", "geometry": {"type": "Point", "coordinates": [2.3188749, 6.4517812]}, "properties": {"quartier": "Tokan", "component_size": 3, "disposition": "UNRESOLVED_DISCONNECTED", "eligible_owners": [], "iteration": 1, "vertex_ids": [146195, 146196, 146197]}}, {"type": "Feature", "geometry": {"type": "Point", "coordinates": [2.3295656, 6.5017999]}, "properties": {"quartier": "Zoundja\n", "component_size": 10, "disposition": "UNRESOLVED_DISCONNECTED", "eligible_owners": [], "iteration": 1, "vertex_ids": [106633, 35154, 35155, 35156, 35157, 35158, 35159, 35160, 35161, 35162]}}, {"type": "Feature", "geometry": {"type": "Point", "coordinates": [2.3442035, 6.5235336]}, "properties": {"quartier": "Zèkanmey-Domè", "component_size": 12, "disposition": "UNRESOLVED_DISCONNECTED", "eligible_owners": [], "iteration": 1, "vertex_ids": [60736, 84545, 84546, 84547, 84548, 60729, 60730, 60731, 60732, 60733, 60734, 60735]}}, {"type": "Feature", "geometry": {"type": "Point", "coordinates": [2.3309687, 6.532094]}, "properties": {"quartier": "Zèkanmey-Domè", "component_size": 6, "disposition": "UNRESOLVED_DISCONNECTED", "eligible_owners": [], "iteration": 1, "vertex_ids": [35370, 35371, 35372, 35373, 35374, 145530]}}, {"type": "Feature", "geometry": {"type": "Point", "coordinates": [2.331876, 6.5274303]}, "properties": {"quartier": "Zèkanmey-Domè", "component_size": 4, "disposition": "UNRESOLVED_DISCONNECTED", "eligible_owners": [], "iteration": 1, "vertex_ids": [87081, 87082, 87083, 87084]}}, {"type": "Feature", "geometry": {"type": "Point", "coordinates": [2.2767073, 6.4788834]}, "properties": {"quartier": "Adjagbo", "component_size": 10, "disposition": "UNRESOLVED_DISCONNECTED", "eligible_owners": [], "iteration": 1, "vertex_ids": [71619, 71620, 71621, 71622, 71623, 71624, 71625, 71626, 71627, 71628]}}, {"type": "Feature", "geometry": {"type": "Point", "coordinates": [2.2847191, 6.4834452]}, "properties": {"quartier": "Adjagbo", "component_size": 18, "disposition": "UNRESOLVED_DISCONNECTED", "eligible_owners": [], "iteration": 1, "vertex_ids": [141853, 80955, 80956, 80957, 80946, 80947, 80948, 80949, 80950, 80951, 80952, 80953]}}, {"type": "Feature", "geometry": {"type": "Point", "coordinates": [2.2815675, 6.4866401]}, "properties": {"quartier": "Adjagbo", "component_size": 17, "disposition": "UNRESOLVED_DISCONNECTED", "eligible_owners": [], "iteration": 1, "vertex_ids": [80512, 80513, 80514, 80515, 81511, 81512, 81513, 81514, 81515, 81516, 80529, 80530]}}, {"type": "Feature", "geometry": {"type": "Point", "coordinates": [2.3197547, 6.5229813]}, "properties": {"quartier": "Domey-Gbo", "component_size": 8, "disposition": "UNRESOLVED_DISCONNECTED", "eligible_owners": [], "iteration": 1, "vertex_ids": [34946, 34947, 34948, 34949, 34950, 34951, 34952, 34953]}}, {"type": "Feature", "geometry": {"type": "Point", "coordinates": [2.3304162, 6.5238533]}, "properties": {"quartier": "Domey-Gbo", "component_size": 15, "disposition": "UNRESOLVED_DISCONNECTED", "eligible_owners": [], "iteration": 1, "vertex_ids": [145413, 145414, 145415, 145416, 145417, 145418, 145419, 145420, 145421, 29807, 29808, 29809]}}, {"type": "Feature", "geometry": {"type": "Point", "coordinates": [2.3184336, 6.5230979]}, "properties": {"quartier": "Domey-Gbo", "component_size": 4, "disposition": "UNRESOLVED_DISCONNECTED", "eligible_owners": [], "iteration": 1, "vertex_ids": [34960, 34957, 34958, 34959]}}, {"type": "Feature", "geometry": {"type": "Point", "coordinates": [2.3257704, 6.5300069]}, "properties": {"quartier": "Domey-Gbo", "component_size": 7, "disposition": "UNRESOLVED_DISCONNECTED", "eligible_owners": [], "iteration": 1, "vertex_ids": [112003, 38088, 38089, 38090, 38091, 38092, 38093]}}, {"type": "Feature", "geometry": {"type": "Point", "coordinates": [2.3146069, 6.5399033]}, "properties": {"quartier": "Domey-Gbo", "component_size": 5, "disposition": "UNRESOLVED_DISCONNECTED", "eligible_owners": [], "iteration": 1, "vertex_ids": [79886, 79887, 79888, 79889, 79890]}}, {"type": "Feature", "geometry": {"type": "Point", "coordinates": [2.3294009, 6.5214494]}, "properties": {"quartier": "Domey-Gbo", "component_size": 17, "disposition": "UNRESOLVED_DISCONNECTED", "eligible_owners": [], "iteration": 1, "vertex_ids": [37063, 37064, 37065, 37066, 37067, 37068, 37069, 37070, 37071, 37072, 37073, 37074]}}, {"type": "Feature", "geometry": {"type": "Point", "coordinates": [2.2797784, 6.5014721]}, "properties": {"quartier": "Kpossidja", "component_size": 31, "disposition": "UNRESOLVED_DISCONNECTED", "eligible_owners": [], "iteration": 1, "vertex_ids": [70528, 70529, 102402, 102403, 70532, 70533, 70534, 70535, 70536, 70537, 70538, 70539]}}, {"type": "Feature", "geometry": {"type": "Point", "coordinates": [2.2829542, 6.5038239]}, "properties": {"quartier": "Kpossidja", "component_size": 48, "disposition": "UNRESOLVED_DISCONNECTED", "eligible_owners": [], "iteration": 1, "vertex_ids": [102424, 102425, 102426, 102427, 102428, 102429, 102430, 102431, 102432, 102305, 102306, 102307]}}, {"type": "Feature", "geometry": {"type": "Point", "coordinates": [2.2802237, 6.503259]}, "properties": {"quartier": "Kpossidja", "component_size": 20, "disposition": "UNRESOLVED_DISCONNECTED", "eligible_owners": [], "iteration": 1, "vertex_ids": [102489, 102490, 102491, 102492, 102493, 102505, 102506, 102507, 102508, 102509, 102510, 102511]}}, {"type": "Feature", "geometry": {"type": "Point", "coordinates": [2.2708674, 6.4868046]}, "properties": {"quartier": "Kpossidja", "component_size": 34, "disposition": "UNRESOLVED_DISCONNECTED", "eligible_owners": [], "iteration": 1, "vertex_ids": [68992, 68993, 68994, 68995, 68996, 107434, 107435, 107436, 107437, 107438, 107439, 72117]}}, {"type": "Feature", "geometry": {"type": "Point", "coordinates": [2.2707708, 6.4872964]}, "properties": {"quartier": "Kpossidja", "component_size": 11, "disposition": "UNRESOLVED_DISCONNECTED", "eligible_owners": [], "iteration": 1, "vertex_ids": [68998, 68999, 69000, 69001, 69002, 69003, 69004, 69005, 69006, 69007, 69008]}}, {"type": "Feature", "geometry": {"type": "Point", "coordinates": [2.271414, 6.4777787]}, "properties": {"quartier": "Kpossidja", "component_size": 9, "disposition": "UNRESOLVED_DISCONNECTED", "eligible_owners": [], "iteration": 1, "vertex_ids": [71648, 71649, 71641, 71642, 71643, 71644, 71645, 71646, 71647]}}, {"type": "Feature", "geometry": {"type": "Point", "coordinates": [2.2816546, 6.5014095]}, "properties": {"quartier": "Drabo", "component_size": 9, "disposition": "UNRESOLVED_DISCONNECTED", "eligible_owners": [], "iteration": 1, "vertex_ids": [102400, 102401, 102393, 102394, 102395, 102396, 102397, 102398, 102399]}}, {"type": "Feature", "geometry": {"type": "Point", "coordinates": [2.2918411, 6.5173193]}, "properties": {"quartier": "Drabo", "component_size": 30, "disposition": "UNRESOLVED_DISCONNECTED", "eligible_owners": [], "iteration": 1, "vertex_ids": [69888, 69889, 69890, 69891, 69892, 69893, 69894, 69895, 78915, 78916, 69880, 69881]}}, {"type": "Feature", "geometry": {"type": "Point", "coordinates": [2.2909549, 6.5150593]}, "properties": {"quartier": "Drabo", "component_size": 6, "disposition": "UNRESOLVED_DISCONNECTED", "eligible_owners": [], "iteration": 1, "vertex_ids": [78944, 78939, 78940, 78941, 78942, 78943]}}, {"type": "Feature", "geometry": {"type": "Point", "coordinates": [2.2911939, 6.515423]}, "properties": {"quartier": "Drabo", "component_size": 24, "disposition": "UNRESOLVED_DISCONNECTED", "eligible_owners": [], "iteration": 1, "vertex_ids": [69803, 69804, 69805, 69806, 69807, 69808, 69809, 69810, 69811, 69812, 69813, 69814]}}, {"type": "Feature", "geometry": {"type": "Point", "coordinates": [2.2948977, 6.5173645]}, "properties": {"quartier": "Drabo", "component_size": 38, "disposition": "UNRESOLVED_DISCONNECTED", "eligible_owners": [], "iteration": 1, "vertex_ids": [69792, 69793, 69794, 69795, 69796, 69797, 69798, 69799, 69800, 69801, 69802, 69847]}}, {"type": "Feature", "geometry": {"type": "Point", "coordinates": [2.2929344, 6.5159801]}, "properties": {"quartier": "Drabo", "component_size": 9, "disposition": "UNRESOLVED_DISCONNECTED", "eligible_owners": [], "iteration": 1, "vertex_ids": [69824, 69825, 69826, 69827, 69828, 69829, 69821, 69822, 69823]}}, {"type": "Feature", "geometry": {"type": "Point", "coordinates": [2.2939242, 6.5159468]}, "properties": {"quartier": "Drabo", "component_size": 13, "disposition": "UNRESOLVED_DISCONNECTED", "eligible_owners": [], "iteration": 1, "vertex_ids": [69832, 69833, 69834, 69835, 69836, 69837, 69838, 69839, 69840, 69841, 69842, 69843]}}, {"type": "Feature", "geometry": {"type": "Point", "coordinates": [2.3094061, 6.5255921]}, "properties": {"quartier": "Agongbé", "component_size": 10, "disposition": "UNRESOLVED_DISCONNECTED", "eligible_owners": [], "iteration": 1, "vertex_ids": [28456, 28457, 28458, 28459, 28460, 28461, 28462, 28463, 28464, 28465]}}, {"type": "Feature", "geometry": {"type": "Point", "coordinates": [2.2999942, 6.5366563]}, "properties": {"quartier": "Agongbé", "component_size": 4, "disposition": "UNRESOLVED_DISCONNECTED", "eligible_owners": [], "iteration": 1, "vertex_ids": [96571, 96572, 96573, 96574]}}, {"type": "Feature", "geometry": {"type": "Point", "coordinates": [2.2930024, 6.5358995]}, "properties": {"quartier": "Agongbé", "component_size": 12, "disposition": "UNRESOLVED_DISCONNECTED", "eligible_owners": [], "iteration": 1, "vertex_ids": [69504, 69505, 69506, 69507, 69508, 69509, 69498, 69499, 69500, 69501, 69502, 69503]}}, {"type": "Feature", "geometry": {"type": "Point", "coordinates": [2.2938052, 6.5357961]}, "properties": {"quartier": "Agongbé", "component_size": 9, "disposition": "UNRESOLVED_DISCONNECTED", "eligible_owners": [], "iteration": 1, "vertex_ids": [69512, 69513, 69514, 69515, 69516, 69517, 69518, 69519, 69520]}}, {"type": "Feature", "geometry": {"type": "Point", "coordinates": [2.2941354, 6.5345049]}, "properties": {"quartier": "Agongbé", "component_size": 18, "disposition": "UNRESOLVED_DISCONNECTED", "eligible_owners": [], "iteration": 1, "vertex_ids": [69537, 69538, 69539, 69540, 69607, 69608, 69609, 69610, 69611, 69612, 69613, 69614]}}, {"type": "Feature", "geometry": {"type": "Point", "coordinates": [2.2946253, 6.5344005]}, "properties": {"quartier": "Agongbé", "component_size": 13, "disposition": "UNRESOLVED_DISCONNECTED", "eligible_owners": [], "iteration": 1, "vertex_ids": [69543, 69544, 69545, 69546, 69547, 69548, 69549, 69550, 69551, 69552, 69553, 69554]}}, {"type": "Feature", "geometry": {"type": "Point", "coordinates": [2.3018315, 6.5076494]}, "properties": {"quartier": "Kansounkpa", "component_size": 17, "disposition": "UNRESOLVED_DISCONNECTED", "eligible_owners": [], "iteration": 1, "vertex_ids": [107648, 107649, 107650, 107651, 107652, 107653, 107654, 107655, 107632, 107633, 107634, 107635]}}, {"type": "Feature", "geometry": {"type": "Point", "coordinates": [2.3230096, 6.5145962]}, "properties": {"quartier": "Kansounkpa", "component_size": 6, "disposition": "UNRESOLVED_DISCONNECTED", "eligible_owners": [], "iteration": 1, "vertex_ids": [34898, 34899, 34900, 34901, 34902, 34903]}}, {"type": "Feature", "geometry": {"type": "Point", "coordinates": [2.3247196, 6.5091657]}, "properties": {"quartier": "Kansounkpa", "component_size": 4, "disposition": "UNRESOLVED_DISCONNECTED", "eligible_owners": [], "iteration": 1, "vertex_ids": [36443, 36444, 36445, 36446]}}, {"type": "Feature", "geometry": {"type": "Point", "coordinates": [2.323949, 6.4835315]}, "properties": {"quartier": "Cité-les-Palmiers\n", "component_size": 13, "disposition": "UNRESOLVED_DISCONNECTED", "eligible_owners": [], "iteration": 1, "vertex_ids": [66250, 66251, 66252, 66253, 66254, 66255, 66256, 66257, 66258, 66259, 66260, 66261]}}, {"type": "Feature", "geometry": {"type": "Point", "coordinates": [2.3047384, 6.4728763]}, "properties": {"quartier": "Ouéga-Tokpa", "component_size": 12, "disposition": "UNRESOLVED_DISCONNECTED", "eligible_owners": [], "iteration": 1, "vertex_ids": [121986, 121987, 121988, 121989, 121990, 121971, 121972, 121973, 121974, 121975, 121976, 121977]}}, {"type": "Feature", "geometry": {"type": "Point", "coordinates": [2.3015311, 6.4791859]}, "properties": {"quartier": "Ouéga-Tokpa", "component_size": 32, "disposition": "UNRESOLVED_DISCONNECTED", "eligible_owners": [], "iteration": 1, "vertex_ids": [121612, 121613, 121614, 121615, 121616, 121617, 121618, 121619, 121625, 121626, 121627, 121628]}}, {"type": "Feature", "geometry": {"type": "Point", "coordinates": [2.3058454, 6.4830376]}, "properties": {"quartier": "Ouéga-Agué", "component_size": 13, "disposition": "UNRESOLVED_DISCONNECTED", "eligible_owners": [], "iteration": 1, "vertex_ids": [67110, 67111, 67112, 67113, 67114, 120268, 120269, 120270, 120271, 120272, 120273, 120274]}}, {"type": "Feature", "geometry": {"type": "Point", "coordinates": [2.3129594, 6.5682176]}, "properties": {"quartier": "Yèkon-Do", "component_size": 5, "disposition": "UNRESOLVED_DISCONNECTED", "eligible_owners": [], "iteration": 1, "vertex_ids": [89922, 89923, 89924, 89925, 89926]}}, {"type": "Feature", "geometry": {"type": "Point", "coordinates": [2.319431, 6.5648459]}, "properties": {"quartier": "Yèkon-Do", "component_size": 12, "disposition": "UNRESOLVED_DISCONNECTED", "eligible_owners": [], "iteration": 1, "vertex_ids": [89940, 89941, 89942, 89943, 89944, 89945, 89946, 89947, 89948, 89949, 89950, 89951]}}, {"type": "Feature", "geometry": {"type": "Point", "coordinates": [2.3380447, 6.5741203]}, "properties": {"quartier": "Lohoussa", "component_size": 19, "disposition": "UNRESOLVED_DISCONNECTED", "eligible_owners": [], "iteration": 1, "vertex_ids": [144517, 144518, 144519, 144520, 144521, 144522, 144523, 144524, 144525, 144526, 144527, 144528]}}, {"type": "Feature", "geometry": {"type": "Point", "coordinates": [2.3287508, 6.5688547]}, "properties": {"quartier": "Lohoussa", "component_size": 5, "disposition": "UNRESOLVED_DISCONNECTED", "eligible_owners": [], "iteration": 1, "vertex_ids": [105449, 105450, 105451, 105452, 105453]}}, {"type": "Feature", "geometry": {"type": "Point", "coordinates": [2.3405837, 6.5702668]}, "properties": {"quartier": "Lohoussa", "component_size": 1, "disposition": "UNRESOLVED_DISCONNECTED", "eligible_owners": [], "iteration": 1, "vertex_ids": [143532]}}, {"type": "Feature", "geometry": {"type": "Point", "coordinates": [2.3139954, 6.5872058]}, "properties": {"quartier": "Alladacomè", "component_size": 6, "disposition": "UNRESOLVED_DISCONNECTED", "eligible_owners": [], "iteration": 1, "vertex_ids": [144941, 144942, 144943, 144944, 144945, 144946]}}, {"type": "Feature", "geometry": {"type": "Point", "coordinates": [2.2992191, 6.5686872]}, "properties": {"quartier": "Golo-Djigbé", "component_size": 7, "disposition": "UNRESOLVED_DISCONNECTED", "eligible_owners": [], "iteration": 1, "vertex_ids": [99360, 99361, 99355, 99356, 99357, 99358, 99359]}}, {"type": "Feature", "geometry": {"type": "Point", "coordinates": [2.3004502, 6.5551375]}, "properties": {"quartier": "Golo-Djigbé", "component_size": 12, "disposition": "UNRESOLVED_DISCONNECTED", "eligible_owners": [], "iteration": 1, "vertex_ids": [95843, 95844, 95845, 95846, 95847, 95848, 95849, 95850, 95851, 95852, 96150, 96151]}}, {"type": "Feature", "geometry": {"type": "Point", "coordinates": [2.3095938, 6.5495883]}, "properties": {"quartier": "Zèkanmey", "component_size": 6, "disposition": "UNRESOLVED_DISCONNECTED", "eligible_owners": [], "iteration": 1, "vertex_ids": [79507, 79508, 79509, 79510, 79511, 79512]}}, {"type": "Feature", "geometry": {"type": "Point", "coordinates": [2.3082768, 6.5493791]}, "properties": {"quartier": "Zèkanmey", "component_size": 7, "disposition": "UNRESOLVED_DISCONNECTED", "eligible_owners": [], "iteration": 1, "vertex_ids": [79525, 79526, 79527, 79528, 79516, 79517, 79518]}}, {"type": "Feature", "geometry": {"type": "Point", "coordinates": [2.3077753, 6.5493005]}, "properties": {"quartier": "Zèkanmey", "component_size": 13, "disposition": "UNRESOLVED_DISCONNECTED", "eligible_owners": [], "iteration": 1, "vertex_ids": [79530, 79531, 79532, 79533, 79534, 79535, 79536, 79537, 79538, 79539, 79540, 79541]}}, {"type": "Feature", "geometry": {"type": "Point", "coordinates": [2.3104575, 6.5487276]}, "properties": {"quartier": "Zèkanmey", "component_size": 7, "disposition": "UNRESOLVED_DISCONNECTED", "eligible_owners": [], "iteration": 1, "vertex_ids": [79552, 79553, 79547, 79548, 79549, 79550, 79551]}}, {"type": "Feature", "geometry": {"type": "Point", "coordinates": [2.3029232, 6.5497122]}, "properties": {"quartier": "Zèkanmey", "component_size": 12, "disposition": "UNRESOLVED_DISCONNECTED", "eligible_owners": [], "iteration": 1, "vertex_ids": [78569, 78570, 78571, 78572, 78573, 78574, 78575, 78576, 78577, 78578, 78579, 78580]}}, {"type": "Feature", "geometry": {"type": "Point", "coordinates": [2.3004022, 6.549822]}, "properties": {"quartier": "Zèkanmey", "component_size": 33, "disposition": "UNRESOLVED_DISCONNECTED", "eligible_owners": [], "iteration": 1, "vertex_ids": [78593, 78604, 78605, 78606, 78607, 78608, 78609, 78610, 78611, 78612, 78613, 69525]}}, {"type": "Feature", "geometry": {"type": "Point", "coordinates": [2.3027582, 6.5530577]}, "properties": {"quartier": "Zèkanmey", "component_size": 15, "disposition": "UNRESOLVED_DISCONNECTED", "eligible_owners": [], "iteration": 1, "vertex_ids": [96128, 96129, 96130, 96131, 96132, 96133, 96134, 96135, 96136, 96137, 96123, 96124]}}, {"type": "Feature", "geometry": {"type": "Point", "coordinates": [2.2956437, 6.5631008]}, "properties": {"quartier": "Adjamè\n", "component_size": 9, "disposition": "UNRESOLVED_DISCONNECTED", "eligible_owners": [], "iteration": 1, "vertex_ids": [111413, 111414, 111415, 111416, 111417, 111418, 111419, 111420, 111421]}}, {"type": "Feature", "geometry": {"type": "Point", "coordinates": [2.2474712, 6.476241]}, "properties": {"quartier": "Dassèkomey", "component_size": 37, "disposition": "UNRESOLVED_DISCONNECTED", "eligible_owners": [], "iteration": 1, "vertex_ids": [114688, 114689, 114690, 114691, 114692, 114693, 114694, 114695, 114696, 114304, 114341, 114342]}}, {"type": "Feature", "geometry": {"type": "Point", "coordinates": [2.2496217, 6.4880772]}, "properties": {"quartier": "Dassèkomey", "component_size": 6, "disposition": "UNRESOLVED_DISCONNECTED", "eligible_owners": [], "iteration": 1, "vertex_ids": [98856, 98857, 98858, 98859, 98860, 98861]}}, {"type": "Feature", "geometry": {"type": "Point", "coordinates": [2.2452798, 6.476129]}, "properties": {"quartier": "Dassèkomey", "component_size": 20, "disposition": "UNRESOLVED_DISCONNECTED", "eligible_owners": [], "iteration": 1, "vertex_ids": [114614, 114615, 114616, 114617, 114618, 114619, 114620, 114621, 114622, 114623, 114752, 114753]}}, {"type": "Feature", "geometry": {"type": "Point", "coordinates": [2.248316, 6.5349813]}, "properties": {"quartier": "Dassèkomey", "component_size": 9, "disposition": "UNRESOLVED_DISCONNECTED", "eligible_owners": [], "iteration": 1, "vertex_ids": [135744, 135745, 135746, 135747, 135748, 135749, 135750, 135751, 135743]}}, {"type": "Feature", "geometry": {"type": "Point", "coordinates": [2.2478353, 6.4797762]}, "properties": {"quartier": "Dassèkomey", "component_size": 34, "disposition": "UNRESOLVED_DISCONNECTED", "eligible_owners": [], "iteration": 1, "vertex_ids": [114273, 114244, 114245, 114246, 114247, 114248, 114274, 114249, 114250, 114251, 114252, 114271]}}, {"type": "Feature", "geometry": {"type": "Point", "coordinates": [2.2397478, 6.4898787]}, "properties": {"quartier": "Dassèkomey", "component_size": 7, "disposition": "UNRESOLVED_DISCONNECTED", "eligible_owners": [], "iteration": 1, "vertex_ids": [142951, 137910, 137911, 137912, 137913, 137914, 137915]}}, {"type": "Feature", "geometry": {"type": "Point", "coordinates": [2.2438033, 6.4727817]}, "properties": {"quartier": "Dassèkomey", "component_size": 10, "disposition": "UNRESOLVED_DISCONNECTED", "eligible_owners": [], "iteration": 1, "vertex_ids": [114306, 114307, 114308, 114309, 114310, 114311, 114312, 114313, 114314, 114315]}}, {"type": "Feature", "geometry": {"type": "Point", "coordinates": [2.2446616, 6.4745127]}, "properties": {"quartier": "Dassèkomey", "component_size": 15, "disposition": "UNRESOLVED_DISCONNECTED", "eligible_owners": [], "iteration": 1, "vertex_ids": [114336, 114337, 114338, 114339, 114325, 114326, 114327, 114328, 114329, 114330, 114331, 114332]}}, {"type": "Feature", "geometry": {"type": "Point", "coordinates": [2.2527297, 6.4748071]}, "properties": {"quartier": "Dassèkomey", "component_size": 4, "disposition": "UNRESOLVED_DISCONNECTED", "eligible_owners": [], "iteration": 1, "vertex_ids": [118456, 118457, 118458, 118459]}}, {"type": "Feature", "geometry": {"type": "Point", "coordinates": [2.2480975, 6.4739177]}, "properties": {"quartier": "Dassèkomey", "component_size": 5, "disposition": "UNRESOLVED_DISCONNECTED", "eligible_owners": [], "iteration": 1, "vertex_ids": [114625, 114626, 114627, 114628, 114629]}}, {"type": "Feature", "geometry": {"type": "Point", "coordinates": [2.2509554, 6.4729322]}, "properties": {"quartier": "Dassèkomey", "component_size": 9, "disposition": "UNRESOLVED_DISCONNECTED", "eligible_owners": [], "iteration": 1, "vertex_ids": [118501, 118502, 118503, 118504, 118505, 118506, 118507, 118508, 118509]}}, {"type": "Feature", "geometry": {"type": "Point", "coordinates": [2.2518513, 6.4723513]}, "properties": {"quartier": "Dassèkomey", "component_size": 5, "disposition": "UNRESOLVED_DISCONNECTED", "eligible_owners": [], "iteration": 1, "vertex_ids": [118512, 118513, 118514, 118515, 118516]}}, {"type": "Feature", "geometry": {"type": "Point", "coordinates": [2.2401233, 6.478505]}, "properties": {"quartier": "Dassèkomey", "component_size": 11, "disposition": "UNRESOLVED_DISCONNECTED", "eligible_owners": [], "iteration": 1, "vertex_ids": [82356, 82357, 82358, 82359, 82360, 82361, 82362, 82363, 82364, 82365, 82366]}}, {"type": "Feature", "geometry": {"type": "Point", "coordinates": [2.3194029, 6.5858187]}, "properties": {"quartier": "Gbodjoko", "component_size": 12, "disposition": "UNRESOLVED_DISCONNECTED", "eligible_owners": [], "iteration": 1, "vertex_ids": [135310, 135311, 135312, 135313, 135314, 135315, 135316, 135317, 135318, 135319, 135320, 135321]}}, {"type": "Feature", "geometry": {"type": "Point", "coordinates": [2.3270447, 6.5798047]}, "properties": {"quartier": "Gbodjoko", "component_size": 6, "disposition": "UNRESOLVED_DISCONNECTED", "eligible_owners": [], "iteration": 1, "vertex_ids": [98272, 98273, 98274, 98275, 98276, 98277]}}, {"type": "Feature", "geometry": {"type": "Point", "coordinates": [2.351967, 6.587257]}, "properties": {"quartier": "Sokan", "component_size": 12, "disposition": "UNRESOLVED_DISCONNECTED", "eligible_owners": [], "iteration": 1, "vertex_ids": [91008, 91009, 91010, 91011, 91012, 91013, 91014, 91015, 91016, 91005, 91006, 91007]}}, {"type": "Feature", "geometry": {"type": "Point", "coordinates": [2.3362428, 6.6285901]}, "properties": {"quartier": "Wawata", "component_size": 9, "disposition": "UNRESOLVED_DISCONNECTED", "eligible_owners": [], "iteration": 1, "vertex_ids": [141312, 141313, 141305, 141306, 141307, 141308, 141309, 141310, 141311]}}, {"type": "Feature", "geometry": {"type": "Point", "coordinates": [2.3191983, 6.6258719]}, "properties": {"quartier": "Wawata", "component_size": 21, "disposition": "UNRESOLVED_DISCONNECTED", "eligible_owners": [], "iteration": 1, "vertex_ids": [141076, 141077, 141078, 141079, 141080, 141081, 141082, 141083, 141084, 89769, 89770, 89771]}}, {"type": "Feature", "geometry": {"type": "Point", "coordinates": [2.327466, 6.6247133]}, "properties": {"quartier": "Wawata", "component_size": 8, "disposition": "UNRESOLVED_DISCONNECTED", "eligible_owners": [], "iteration": 1, "vertex_ids": [137029, 137030, 137031, 137032, 137033, 137034, 137035, 137036]}}, {"type": "Feature", "geometry": {"type": "Point", "coordinates": [2.3282265, 6.626325]}, "properties": {"quartier": "Wawata", "component_size": 7, "disposition": "UNRESOLVED_DISCONNECTED", "eligible_owners": [], "iteration": 1, "vertex_ids": [141225, 137042, 137043, 137044, 137045, 137046, 137047]}}, {"type": "Feature", "geometry": {"type": "Point", "coordinates": [2.327774, 6.6259175]}, "properties": {"quartier": "Wawata", "component_size": 3, "disposition": "UNRESOLVED_DISCONNECTED", "eligible_owners": [], "iteration": 1, "vertex_ids": [137049, 137050, 137051]}}, {"type": "Feature", "geometry": {"type": "Point", "coordinates": [2.328473, 6.6266953]}, "properties": {"quartier": "Wawata", "component_size": 10, "disposition": "UNRESOLVED_DISCONNECTED", "eligible_owners": [], "iteration": 1, "vertex_ids": [141232, 141233, 141234, 141235, 141236, 141237, 141238, 141239, 141240, 141241]}}, {"type": "Feature", "geometry": {"type": "Point", "coordinates": [2.3293418, 6.6270473]}, "properties": {"quartier": "Wawata", "component_size": 9, "disposition": "UNRESOLVED_DISCONNECTED", "eligible_owners": [], "iteration": 1, "vertex_ids": [141248, 141249, 141250, 141251, 141252, 141253, 141245, 141246, 141247]}}, {"type": "Feature", "geometry": {"type": "Point", "coordinates": [2.3303097, 6.6274684]}, "properties": {"quartier": "Wawata", "component_size": 21, "disposition": "UNRESOLVED_DISCONNECTED", "eligible_owners": [], "iteration": 1, "vertex_ids": [141259, 141260, 141261, 141262, 141263, 141264, 141265, 141266, 141267, 141268, 141269, 141270]}}, {"type": "Feature", "geometry": {"type": "Point", "coordinates": [2.319911, 6.6268507]}, "properties": {"quartier": "Wawata", "component_size": 4, "disposition": "UNRESOLVED_DISCONNECTED", "eligible_owners": [], "iteration": 1, "vertex_ids": [11224, 11221, 11222, 11223]}}, {"type": "Feature", "geometry": {"type": "Point", "coordinates": [2.3336115, 6.6282037]}, "properties": {"quartier": "Wawata", "component_size": 14, "disposition": "UNRESOLVED_DISCONNECTED", "eligible_owners": [], "iteration": 1, "vertex_ids": [141289, 141290, 141291, 141292, 141293, 141294, 141295, 141296, 141297, 141298, 141299, 141300]}}, {"type": "Feature", "geometry": {"type": "Point", "coordinates": [2.3237579, 6.4740141]}, "properties": {"quartier": "Aïfa-Calavi", "component_size": 3, "disposition": "UNRESOLVED_DISCONNECTED", "eligible_owners": [], "iteration": 1, "vertex_ids": [66469, 66470, 66471]}}, {"type": "Feature", "geometry": {"type": "Point", "coordinates": [2.4834774, 6.3733739]}, "properties": {"quartier": "Dandji", "component_size": 4, "disposition": "UNRESOLVED_DISCONNECTED", "eligible_owners": [], "iteration": 1, "vertex_ids": [131417, 131410, 131411, 131415]}}, {"type": "Feature", "geometry": {"type": "Point", "coordinates": [2.3591518, 6.3829475]}, "properties": {"quartier": "Agla-Les-Pylônes", "component_size": 1, "disposition": "UNRESOLVED_DISCONNECTED", "eligible_owners": [], "iteration": 1, "vertex_ids": [147924]}}, {"type": "Feature", "geometry": {"type": "Point", "coordinates": [2.3185318, 6.5508022]}, "properties": {"quartier": "Agonkèssa", "component_size": 74, "disposition": "UNRESOLVED_DISCONNECTED", "eligible_owners": [], "iteration": 1, "vertex_ids": [72202, 72203, 72204, 72205, 72206, 72207, 72336, 72335, 72334, 72211, 72212, 72213]}}, {"type": "Feature", "geometry": {"type": "Point", "coordinates": [2.3137271, 6.5477377]}, "properties": {"quartier": "Agonkèssa", "component_size": 37, "disposition": "UNRESOLVED_DISCONNECTED", "eligible_owners": [], "iteration": 1, "vertex_ids": [79616, 79617, 79618, 79619, 79620, 79621, 79622, 79623, 79624, 79625, 79626, 79627]}}, {"type": "Feature", "geometry": {"type": "Point", "coordinates": [2.3167446, 6.5451169]}, "properties": {"quartier": "Agonkèssa", "component_size": 16, "disposition": "UNRESOLVED_DISCONNECTED", "eligible_owners": [], "iteration": 1, "vertex_ids": [79904, 79905, 79906, 79907, 79908, 79909, 79910, 79911, 79912, 79897, 79898, 79899]}}, {"type": "Feature", "geometry": {"type": "Point", "coordinates": [2.3109068, 6.5448105]}, "properties": {"quartier": "Agonkèssa", "component_size": 8, "disposition": "UNRESOLVED_DISCONNECTED", "eligible_owners": [], "iteration": 1, "vertex_ids": [79589, 79590, 79591, 79592, 79593, 79594, 79595, 79596]}}, {"type": "Feature", "geometry": {"type": "Point", "coordinates": [2.313703, 6.5487436]}, "properties": {"quartier": "Agonkèssa", "component_size": 18, "disposition": "UNRESOLVED_DISCONNECTED", "eligible_owners": [], "iteration": 1, "vertex_ids": [79662, 79663, 79664, 79639, 79629, 79630, 79631, 79632, 79633, 79634, 79635, 79636]}}, {"type": "Feature", "geometry": {"type": "Point", "coordinates": [2.3299752, 6.3837093]}, "properties": {"quartier": "Dèkoungbé\n", "component_size": 1, "disposition": "UNRESOLVED_DISCONNECTED", "eligible_owners": [], "iteration": 1, "vertex_ids": [130459]}}, {"type": "Feature", "geometry": {"type": "Point", "coordinates": [2.3027314, 6.3719951]}, "properties": {"quartier": "Hêdomè\n", "component_size": 13, "disposition": "UNRESOLVED_DISCONNECTED", "eligible_owners": [], "iteration": 1, "vertex_ids": [87327, 87303, 87325, 87326, 87287, 87288, 87289, 87290, 87291, 87292, 87293, 87294]}}, {"type": "Feature", "geometry": {"type": "Point", "coordinates": [2.3106775, 6.3716826]}, "properties": {"quartier": "Hêdomè\n", "component_size": 6, "disposition": "UNRESOLVED_DISCONNECTED", "eligible_owners": [], "iteration": 1, "vertex_ids": [105312, 105313, 105314, 105315, 105316, 105317]}}, {"type": "Feature", "geometry": {"type": "Point", "coordinates": [2.382238, 6.6065474]}, "properties": {"quartier": "Yèvié", "component_size": 76, "disposition": "UNRESOLVED_DISCONNECTED", "eligible_owners": [], "iteration": 1, "vertex_ids": [17064, 17184, 17185, 17186, 17187, 17188, 17189, 17190, 17191, 17192, 17193, 17194]}}, {"type": "Feature", "geometry": {"type": "Point", "coordinates": [2.3825277, 6.6076072]}, "properties": {"quartier": "Avagbé", "component_size": 51, "disposition": "UNRESOLVED_DISCONNECTED", "eligible_owners": [], "iteration": 1, "vertex_ids": [16896, 16897, 16898, 16899, 16900, 16901, 16902, 16903, 16904, 16905, 16906, 16907]}}, {"type": "Feature", "geometry": {"type": "Point", "coordinates": [2.3861469, 6.6134285]}, "properties": {"quartier": "Avagbé", "component_size": 7, "disposition": "UNRESOLVED_DISCONNECTED", "eligible_owners": [], "iteration": 1, "vertex_ids": [16940, 16941, 16942, 16943, 16944, 16945, 16946]}}, {"type": "Feature", "geometry": {"type": "Point", "coordinates": [2.3857958, 6.6269637]}, "properties": {"quartier": "Avagbé", "component_size": 101, "disposition": "UNRESOLVED_DISCONNECTED", "eligible_owners": [], "iteration": 1, "vertex_ids": [20992, 20993, 20994, 20995, 20996, 20997, 20998, 16948, 16949, 16950, 16951, 16952]}}, {"type": "Feature", "geometry": {"type": "Point", "coordinates": [2.3934268, 6.6311219]}, "properties": {"quartier": "Avagbé", "component_size": 4, "disposition": "UNRESOLVED_DISCONNECTED", "eligible_owners": [], "iteration": 1, "vertex_ids": [17068, 17069, 17262, 17263]}}, {"type": "Feature", "geometry": {"type": "Point", "coordinates": [2.3916438, 6.6517397]}, "properties": {"quartier": "Avagbé", "component_size": 7, "disposition": "UNRESOLVED_DISCONNECTED", "eligible_owners": [], "iteration": 1, "vertex_ids": [20964, 20965, 20966, 20967, 20968, 20969, 20970]}}, {"type": "Feature", "geometry": {"type": "Point", "coordinates": [2.3065643, 6.5563393]}, "properties": {"quartier": "Yêkon-Aga", "component_size": 4, "disposition": "UNRESOLVED_DISCONNECTED", "eligible_owners": [], "iteration": 1, "vertex_ids": [95988, 95989, 95990, 95991]}}, {"type": "Feature", "geometry": {"type": "Point", "coordinates": [2.468201, 6.3777485]}, "properties": {"quartier": "Avotrou-Gbègo", "component_size": 2, "disposition": "UNRESOLVED_DISCONNECTED", "eligible_owners": [], "iteration": 1, "vertex_ids": [131424, 131423]}}, {"type": "Feature", "geometry": {"type": "Point", "coordinates": [2.4681379, 6.3749302]}, "properties": {"quartier": "Avotrou-Gbègo", "component_size": 2, "disposition": "UNRESOLVED_DISCONNECTED", "eligible_owners": [], "iteration": 1, "vertex_ids": [131817, 131818]}}, {"type": "Feature", "geometry": {"type": "Point", "coordinates": [2.3430034, 6.626624]}, "properties": {"quartier": "Houégoudo\n", "component_size": 10, "disposition": "UNRESOLVED_DISCONNECTED", "eligible_owners": [], "iteration": 1, "vertex_ids": [72523, 72524, 72525, 72526, 81401, 81402, 81403, 81404, 81405, 81406]}}, {"type": "Feature", "geometry": {"type": "Point", "coordinates": [2.338893, 6.5868868]}, "properties": {"quartier": "Adjogansa", "component_size": 27, "disposition": "UNRESOLVED_DISCONNECTED", "eligible_owners": [], "iteration": 1, "vertex_ids": [85120, 85121, 85122, 85123, 85124, 85125, 85126, 108481, 108482, 85065, 85066, 85067]}}, {"type": "Feature", "geometry": {"type": "Point", "coordinates": [2.331418, 6.5513689]}, "properties": {"quartier": "Agonmé", "component_size": 5, "disposition": "UNRESOLVED_DISCONNECTED", "eligible_owners": [], "iteration": 1, "vertex_ids": [73062, 73063, 73064, 73065, 73066]}}, {"type": "Feature", "geometry": {"type": "Point", "coordinates": [2.342678, 6.547663]}, "properties": {"quartier": "Agonmé", "component_size": 7, "disposition": "UNRESOLVED_DISCONNECTED", "eligible_owners": [], "iteration": 1, "vertex_ids": [87672, 87673, 87674, 87675, 87676, 87677, 87678]}}, {"type": "Feature", "geometry": {"type": "Point", "coordinates": [2.3544458, 6.5807017]}, "properties": {"quartier": "Kolètin", "component_size": 7, "disposition": "UNRESOLVED_DISCONNECTED", "eligible_owners": [], "iteration": 1, "vertex_ids": [90935, 90936, 90937, 90938, 90939, 90940, 90941]}}, {"type": "Feature", "geometry": {"type": "Point", "coordinates": [2.2700019, 6.3969966]}, "properties": {"quartier": "Sogan", "component_size": 2, "disposition": "UNRESOLVED_DISCONNECTED", "eligible_owners": [], "iteration": 1, "vertex_ids": [129813, 129814]}}, {"type": "Feature", "geometry": {"type": "Point", "coordinates": [2.2572854, 6.4214423]}, "properties": {"quartier": "Adovié", "component_size": 6, "disposition": "UNRESOLVED_DISCONNECTED", "eligible_owners": [], "iteration": 1, "vertex_ids": [115922, 115923, 115924, 115925, 115926, 115927]}}, {"type": "Feature", "geometry": {"type": "Point", "coordinates": [2.2279769, 6.4450371]}, "properties": {"quartier": "Hêvié", "component_size": 9, "disposition": "UNRESOLVED_DISCONNECTED", "eligible_owners": [], "iteration": 1, "vertex_ids": [114496, 114497, 114498, 114499, 114500, 114501, 114502, 114503, 114495]}}, {"type": "Feature", "geometry": {"type": "Point", "coordinates": [2.2395513, 6.447018]}, "properties": {"quartier": "Hêvié", "component_size": 10, "disposition": "UNRESOLVED_DISCONNECTED", "eligible_owners": [], "iteration": 1, "vertex_ids": [85216, 85203, 85204, 85205, 85206, 85207, 85208, 85209, 85214, 85215]}}, {"type": "Feature", "geometry": {"type": "Point", "coordinates": [2.2944179, 6.3701462]}, "properties": {"quartier": "Amahoun\n", "component_size": 57, "disposition": "UNRESOLVED_DISCONNECTED", "eligible_owners": [], "iteration": 1, "vertex_ids": [136448, 136449, 136450, 136451, 136452, 136453, 136454, 136455, 136456, 136457, 136458, 136459]}}, {"type": "Feature", "geometry": {"type": "Point", "coordinates": [2.2936005, 6.3704747]}, "properties": {"quartier": "Amahoun\n", "component_size": 2, "disposition": "UNRESOLVED_DISCONNECTED", "eligible_owners": [], "iteration": 1, "vertex_ids": [136466, 136467]}}, {"type": "Feature", "geometry": {"type": "Point", "coordinates": [2.2901579, 6.4681064]}, "properties": {"quartier": "Somè", "component_size": 1, "disposition": "UNRESOLVED_DISCONNECTED", "eligible_owners": [], "iteration": 1, "vertex_ids": [69247]}}, {"type": "Feature", "geometry": {"type": "Point", "coordinates": [2.2942637, 6.4399185]}, "properties": {"quartier": "Togba_Maria-Gléta", "component_size": 6, "disposition": "UNRESOLVED_DISCONNECTED", "eligible_owners": [], "iteration": 1, "vertex_ids": [119681, 119682, 119683, 119684, 119685, 119686]}}, {"type": "Feature", "geometry": {"type": "Point", "coordinates": [2.2976017, 6.4449132]}, "properties": {"quartier": "Togba_Maria-Gléta", "component_size": 1, "disposition": "UNRESOLVED_DISCONNECTED", "eligible_owners": [], "iteration": 1, "vertex_ids": [62858]}}, {"type": "Feature", "geometry": {"type": "Point", "coordinates": [2.2860628, 6.445856]}, "properties": {"quartier": "Togba_Maria-Gléta", "component_size": 2, "disposition": "UNRESOLVED_DISCONNECTED", "eligible_owners": [], "iteration": 1, "vertex_ids": [107570, 107571]}}, {"type": "Feature", "geometry": {"type": "Point", "coordinates": [2.249452, 6.4721447]}, "properties": {"quartier": "Zoungo", "component_size": 19, "disposition": "UNRESOLVED_DISCONNECTED", "eligible_owners": [], "iteration": 1, "vertex_ids": [114370, 114371, 114372, 61671, 61672, 61673, 61674, 61675, 61676, 61677, 61678, 61679]}}, {"type": "Feature", "geometry": {"type": "Point", "coordinates": [2.2396901, 6.4618346]}, "properties": {"quartier": "Zoungo", "component_size": 12, "disposition": "UNRESOLVED_DISCONNECTED", "eligible_owners": [], "iteration": 1, "vertex_ids": [82208, 82209, 82210, 82211, 82212, 82201, 82202, 82203, 82204, 82205, 82206, 82207]}}, {"type": "Feature", "geometry": {"type": "Point", "coordinates": [2.2459772, 6.4639054]}, "properties": {"quartier": "Zoungo", "component_size": 14, "disposition": "UNRESOLVED_DISCONNECTED", "eligible_owners": [], "iteration": 1, "vertex_ids": [82304, 82305, 82306, 82307, 82294, 82295, 82296, 82297, 82298, 82299, 82300, 82301]}}, {"type": "Feature", "geometry": {"type": "Point", "coordinates": [2.2558277, 6.4655239]}, "properties": {"quartier": "Ouèdo", "component_size": 18, "disposition": "UNRESOLVED_DISCONNECTED", "eligible_owners": [], "iteration": 1, "vertex_ids": [64937, 64938, 64939, 64940, 64941, 120399, 120400, 120401, 120402, 120403, 120404, 120405]}}, {"type": "Feature", "geometry": {"type": "Point", "coordinates": [2.2575603, 6.4652353]}, "properties": {"quartier": "Ouèdo", "component_size": 36, "disposition": "UNRESOLVED_DISCONNECTED", "eligible_owners": [], "iteration": 1, "vertex_ids": [120205, 120206, 120207, 120208, 108194, 108195, 108196, 108197, 108198, 108199, 108200, 108202]}}, {"type": "Feature", "geometry": {"type": "Point", "coordinates": [2.2670044, 6.4454902]}, "properties": {"quartier": "Ouèdo", "component_size": 9, "disposition": "UNRESOLVED_DISCONNECTED", "eligible_owners": [], "iteration": 1, "vertex_ids": [122068, 122069, 122070, 122071, 122072, 122073, 122074, 122075, 122076]}}, {"type": "Feature", "geometry": {"type": "Point", "coordinates": [2.2659335, 6.4596398]}, "properties": {"quartier": "Ouèdo", "component_size": 11, "disposition": "UNRESOLVED_DISCONNECTED", "eligible_owners": [], "iteration": 1, "vertex_ids": [124768, 124769, 124770, 124771, 124772, 124773, 124122, 124123, 124124, 124766, 124767]}}, {"type": "Feature", "geometry": {"type": "Point", "coordinates": [2.2626485, 6.4492349]}, "properties": {"quartier": "Ouèdo", "component_size": 16, "disposition": "UNRESOLVED_DISCONNECTED", "eligible_owners": [], "iteration": 1, "vertex_ids": [118688, 118689, 118690, 118702, 118703, 118704, 118705, 118706, 118707, 122105, 122106, 122107]}}, {"type": "Feature", "geometry": {"type": "Point", "coordinates": [2.2623293, 6.4647156]}, "properties": {"quartier": "Dessato\n", "component_size": 11, "disposition": "UNRESOLVED_DISCONNECTED", "eligible_owners": [], "iteration": 1, "vertex_ids": [125216, 125217, 125218, 125219, 125220, 125221, 125222, 125212, 125213, 125214, 125215]}}, {"type": "Feature", "geometry": {"type": "Point", "coordinates": [2.2656935, 6.4622684]}, "properties": {"quartier": "Dessato\n", "component_size": 11, "disposition": "UNRESOLVED_DISCONNECTED", "eligible_owners": [], "iteration": 1, "vertex_ids": [125037, 125038, 125039, 125040, 125041, 125042, 125043, 125044, 125045, 125046, 125047]}}, {"type": "Feature", "geometry": {"type": "Point", "coordinates": [2.290542, 6.484777]}, "properties": {"quartier": "Adjagbo-Aïdjèdo", "component_size": 12, "disposition": "UNRESOLVED_DISCONNECTED", "eligible_owners": [], "iteration": 1, "vertex_ids": [99603, 99604, 99605, 99606, 99607, 99608, 99609, 99610, 99611, 99612, 99613, 99614]}}, {"type": "Feature", "geometry": {"type": "Point", "coordinates": [2.2783984, 6.4708721]}, "properties": {"quartier": "Adjagbo-Aïdjèdo", "component_size": 14, "disposition": "UNRESOLVED_DISCONNECTED", "eligible_owners": [], "iteration": 1, "vertex_ids": [122152, 147438, 147439, 147440, 147441, 147442, 147443, 147444, 143443, 143442, 143451, 143452]}}, {"type": "Feature", "geometry": {"type": "Point", "coordinates": [2.2806099, 6.4713958]}, "properties": {"quartier": "Adjagbo-Aïdjèdo", "component_size": 22, "disposition": "UNRESOLVED_DISCONNECTED", "eligible_owners": [], "iteration": 1, "vertex_ids": [115339, 115340, 115341, 115342, 115343, 115344, 115345, 115386, 115387, 115388, 115389, 115390]}}, {"type": "Feature", "geometry": {"type": "Point", "coordinates": [2.2777667, 6.4729416]}, "properties": {"quartier": "Adjagbo-Aïdjèdo", "component_size": 7, "disposition": "UNRESOLVED_DISCONNECTED", "eligible_owners": [], "iteration": 1, "vertex_ids": [71840, 71841, 71842, 71822, 71823, 71824, 71839]}}, {"type": "Feature", "geometry": {"type": "Point", "coordinates": [2.2806059, 6.4724339]}, "properties": {"quartier": "Adjagbo-Aïdjèdo", "component_size": 7, "disposition": "UNRESOLVED_DISCONNECTED", "eligible_owners": [], "iteration": 1, "vertex_ids": [115353, 115351, 115352, 115385, 115354, 115355, 115356]}}, {"type": "Feature", "geometry": {"type": "Point", "coordinates": [2.2805053, 6.4734333]}, "properties": {"quartier": "Adjagbo-Aïdjèdo", "component_size": 15, "disposition": "UNRESOLVED_DISCONNECTED", "eligible_owners": [], "iteration": 1, "vertex_ids": [115363, 115364, 115365, 115366, 115367, 115368, 115369, 115370, 115377, 115378, 115379, 115380]}}, {"type": "Feature", "geometry": {"type": "Point", "coordinates": [2.2208252, 6.4851487]}, "properties": {"quartier": "Dossounou", "component_size": 12, "disposition": "UNRESOLVED_DISCONNECTED", "eligible_owners": [], "iteration": 1, "vertex_ids": [136960, 136961, 136962, 136963, 136964, 136965, 136966, 136967, 136968, 136969, 136970, 136971]}}, {"type": "Feature", "geometry": {"type": "Point", "coordinates": [2.2228727, 6.4701552]}, "properties": {"quartier": "Dossounou", "component_size": 11, "disposition": "UNRESOLVED_DISCONNECTED", "eligible_owners": [], "iteration": 1, "vertex_ids": [89152, 89153, 89154, 89155, 89156, 89157, 89158, 89148, 89149, 89150, 89151]}}, {"type": "Feature", "geometry": {"type": "Point", "coordinates": [2.2298645, 6.4523099]}, "properties": {"quartier": "Dossounou", "component_size": 7, "disposition": "UNRESOLVED_DISCONNECTED", "eligible_owners": [], "iteration": 1, "vertex_ids": [95296, 95297, 95298, 95299, 95300, 95294, 95295]}}, {"type": "Feature", "geometry": {"type": "Point", "coordinates": [2.2204552, 6.4835369]}, "properties": {"quartier": "Dossounou", "component_size": 15, "disposition": "UNRESOLVED_DISCONNECTED", "eligible_owners": [], "iteration": 1, "vertex_ids": [136935, 136936, 136937, 136938, 136939, 136940, 136941, 136942, 136943, 136944, 136948, 136949]}}, {"type": "Feature", "geometry": {"type": "Point", "coordinates": [2.2313511, 6.4525531]}, "properties": {"quartier": "Dossounou", "component_size": 7, "disposition": "UNRESOLVED_DISCONNECTED", "eligible_owners": [], "iteration": 1, "vertex_ids": [115193, 115194, 115195, 115196, 115197, 115198, 115199]}}, {"type": "Feature", "geometry": {"type": "Point", "coordinates": [2.2217288, 6.416626]}, "properties": {"quartier": "Houinmè", "component_size": 13, "disposition": "UNRESOLVED_DISCONNECTED", "eligible_owners": [], "iteration": 1, "vertex_ids": [120192, 120193, 120194, 120195, 120196, 120005, 120006, 120007, 120024, 120188, 120189, 120190]}}, {"type": "Feature", "geometry": {"type": "Point", "coordinates": [2.225115, 6.4236387]}, "properties": {"quartier": "Houinmè", "component_size": 1, "disposition": "UNRESOLVED_DISCONNECTED", "eligible_owners": [], "iteration": 1, "vertex_ids": [105251]}}, {"type": "Feature", "geometry": {"type": "Point", "coordinates": [2.2179911, 6.4188809]}, "properties": {"quartier": "Houinmè", "component_size": 8, "disposition": "UNRESOLVED_DISCONNECTED", "eligible_owners": [], "iteration": 1, "vertex_ids": [92342, 92343, 92344, 92345, 92346, 92347, 92348, 92349]}}, {"type": "Feature", "geometry": {"type": "Point", "coordinates": [2.2261007, 6.4249367]}, "properties": {"quartier": "Houinmè", "component_size": 4, "disposition": "UNRESOLVED_DISCONNECTED", "eligible_owners": [], "iteration": 1, "vertex_ids": [104899, 104900, 104901, 104902]}}, {"type": "Feature", "geometry": {"type": "Point", "coordinates": [2.2236384, 6.4262027]}, "properties": {"quartier": "Houinmè", "component_size": 9, "disposition": "UNRESOLVED_DISCONNECTED", "eligible_owners": [], "iteration": 1, "vertex_ids": [105028, 105029, 105030, 105031, 105032, 105033, 105034, 105035, 105036]}}, {"type": "Feature", "geometry": {"type": "Point", "coordinates": [2.2208383, 6.4181693]}, "properties": {"quartier": "Houinmè", "component_size": 11, "disposition": "UNRESOLVED_DISCONNECTED", "eligible_owners": [], "iteration": 1, "vertex_ids": [120176, 120177, 120178, 120179, 120180, 120181, 120182, 120183, 120184, 120185, 120186]}}]}