{"type": "FeatureCollection", "features": [{"type": "Feature", "geometry": {"type": "Point", "coordinates": [2.4469131, 6.3719628]}, "properties": {"winner": "Gbèdjèwin", "second": "Adjégounlè", "cost_winner_m": 343.3, "cost_second_m": 593.6, "disposition": "MULTI_QUARTIER_REVIEW"}}, {"type": "Feature", "geometry": {"type": "Point", "coordinates": [2.4237306, 6.3621645]}, "properties": {"winner": "Gbèdomidji", "second": "Gbéto", "cost_winner_m": 230.3, "cost_second_m": 279.4, "disposition": "MULTI_QUARTIER_REVIEW"}}, {"type": "Feature", "geometry": {"type": "Point", "coordinates": [2.4155235, 6.3615207]}, "properties": {"winner": "Gbégamey-Centre", "second": "Gbégamey-Mifongou", "cost_winner_m": 463.0, "cost_second_m": 783.7, "disposition": "MULTI_QUARTIER_REVIEW"}}, {"type": "Feature", "geometry": {"type": "Point", "coordinates": [2.400828, 6.3606948]}, "properties": {"winner": "Cadjèhoun-Azalokogon", "second": "Cadjèhoun-Gare", "cost_winner_m": 423.1, "cost_second_m": 501.9, "disposition": "MULTI_QUARTIER_REVIEW"}}, {"type": "Feature", "geometry": {"type": "Point", "coordinates": [2.4111942, 6.3657606]}, "properties": {"winner": "Gbégamey-Dodo-Ayidjè", "second": "Gbégamey-Ahito", "cost_winner_m": 261.9, "cost_second_m": 402.3, "disposition": "MULTI_QUARTIER_REVIEW"}}, {"type": "Feature", "geometry": {"type": "Point", "coordinates": [2.3509208, 6.3745578]}, "properties": {"winner": "Hlazounto", "second": "Dénou\n", "cost_winner_m": 1439.4, "cost_second_m": 1475.9, "disposition": "MULTI_QUARTIER_REVIEW"}}, {"type": "Feature", "geometry": {"type": "Point", "coordinates": [2.4312016, 6.362401]}, "properties": {"winner": "Missité", "second": "Dota", "cost_winner_m": 86.3, "cost_second_m": 446.1, "disposition": "MULTI_QUARTIER_REVIEW"}}, {"type": "Feature", "geometry": {"type": "Point", "coordinates": [2.4209135, 6.3657076]}, "properties": {"winner": "Yévèdo", "second": "Gbèdomidji", "cost_winner_m": 166.8, "cost_second_m": 270.3, "disposition": "MULTI_QUARTIER_REVIEW"}}, {"type": "Feature", "geometry": {"type": "Point", "coordinates": [2.4470089, 6.3859361]}, "properties": {"winner": "Sègbèya-Nord", "second": "Ayélawadjè-Agongbomè", "cost_winner_m": 558.0, "cost_second_m": 679.9, "disposition": "MULTI_QUARTIER_REVIEW"}}, {"type": "Feature", "geometry": {"type": "Point", "coordinates": [2.4470273, 6.3891766]}, "properties": {"winner": "Sègbèya-Nord", "second": "Minontchou", "cost_winner_m": 314.9, "cost_second_m": 845.1, "disposition": "MULTI_QUARTIER_REVIEW"}}, {"type": "Feature", "geometry": {"type": "Point", "coordinates": [2.4066912, 6.3667835]}, "properties": {"winner": "Gbégamey-Ahito", "second": "Cadjèhoun-Détinsa", "cost_winner_m": 262.5, "cost_second_m": 351.7, "disposition": "MULTI_QUARTIER_REVIEW"}}, {"type": "Feature", "geometry": {"type": "Point", "coordinates": [2.4131097, 6.3664819]}, "properties": {"winner": "Saint-Jean-Gbèdiga", "second": "Gbégamey-Dodo-Ayidjè", "cost_winner_m": 404.2, "cost_second_m": 547.2, "disposition": "MULTI_QUARTIER_REVIEW"}}, {"type": "Feature", "geometry": {"type": "Point", "coordinates": [2.4170341, 6.3626549]}, "properties": {"winner": "Todoté", "second": "Gbégamey-Centre", "cost_winner_m": 329.6, "cost_second_m": 676.1, "disposition": "MULTI_QUARTIER_REVIEW"}}, {"type": "Feature", "geometry": {"type": "Point", "coordinates": [2.3975309, 6.3617846]}, "properties": {"winner": "Cadjèhoun-Kpota", "second": "Cadjèhoun-Azalokogon", "cost_winner_m": 415.3, "cost_second_m": 468.5, "disposition": "MULTI_QUARTIER_REVIEW"}}, {"type": "Feature", "geometry": {"type": "Point", "coordinates": [2.4081838, 6.362618]}, "properties": {"winner": "Gbégamey-Mifongou", "second": "Gbégamey-Ahito", "cost_winner_m": 289.8, "cost_second_m": 358.5, "disposition": "MULTI_QUARTIER_REVIEW"}}, {"type": "Feature", "geometry": {"type": "Point", "coordinates": [2.3768272, 6.3893328]}, "properties": {"winner": "Zogbohouè", "second": "Kouhounou", "cost_winner_m": 607.0, "cost_second_m": 1017.2, "disposition": "MULTI_QUARTIER_REVIEW"}}, {"type": "Feature", "geometry": {"type": "Point", "coordinates": [2.3754855, 6.3870532]}, "properties": {"winner": "Kouhounou", "second": "Agla-Petit-Château", "cost_winner_m": 724.7, "cost_second_m": 762.9, "disposition": "MULTI_QUARTIER_REVIEW"}}, {"type": "Feature", "geometry": {"type": "Point", "coordinates": [2.4158851, 6.3694342]}, "properties": {"winner": "Énagnon-Sikê", "second": "Sèhogan-Sikê", "cost_winner_m": 249.4, "cost_second_m": 343.2, "disposition": "MULTI_QUARTIER_REVIEW"}}, {"type": "Feature", "geometry": {"type": "Point", "coordinates": [2.422169, 6.3676674]}, "properties": {"winner": "Gbènan", "second": "Yévèdo", "cost_winner_m": 187.8, "cost_second_m": 325.9, "disposition": "MULTI_QUARTIER_REVIEW"}}, {"type": "Feature", "geometry": {"type": "Point", "coordinates": [2.4476006, 6.3798002]}, "properties": {"winner": "Ayélawadjè-Agongbomè", "second": "Sègbèya-Sud", "cost_winner_m": 518.1, "cost_second_m": 597.0, "disposition": "MULTI_QUARTIER_REVIEW"}}, {"type": "Feature", "geometry": {"type": "Point", "coordinates": [2.4509224, 6.3797554]}, "properties": {"winner": "Ayélawadjè-Agongbomè", "second": "Lom-Nava", "cost_winner_m": 435.5, "cost_second_m": 568.0, "disposition": "MULTI_QUARTIER_REVIEW"}}, {"type": "Feature", "geometry": {"type": "Point", "coordinates": [2.3444344, 6.3876792]}, "properties": {"winner": "Yolomahouto", "second": "Aïmèvo\n", "cost_winner_m": 367.6, "cost_second_m": 402.6, "disposition": "MULTI_QUARTIER_REVIEW"}}, {"type": "Feature", "geometry": {"type": "Point", "coordinates": [2.4364382, 6.35909]}, "properties": {"winner": "Tokpa-Hoho", "second": "Missèbô", "cost_winner_m": 453.6, "cost_second_m": 591.2, "disposition": "MULTI_QUARTIER_REVIEW"}}, {"type": "Feature", "geometry": {"type": "Point", "coordinates": [2.4143687, 6.3811113]}, "properties": {"winner": "Gbèdagba", "second": "Houéhoun", "cost_winner_m": 158.3, "cost_second_m": 636.8, "disposition": "MULTI_QUARTIER_REVIEW"}}, {"type": "Feature", "geometry": {"type": "Point", "coordinates": [2.4214942, 6.3700506]}, "properties": {"winner": "Sèdami", "second": "Sèhogan-Sikê", "cost_winner_m": 309.6, "cost_second_m": 509.6, "disposition": "MULTI_QUARTIER_REVIEW"}}, {"type": "Feature", "geometry": {"type": "Point", "coordinates": [2.4164048, 6.3659934]}, "properties": {"winner": "Todoté", "second": "Saint-Jean-Gbèdiga", "cost_winner_m": 468.3, "cost_second_m": 515.0, "disposition": "MULTI_QUARTIER_REVIEW"}}, {"type": "Feature", "geometry": {"type": "Point", "coordinates": [2.4177363, 6.3680232]}, "properties": {"winner": "Sèhogan-Sikê", "second": "Saint-Jean-Gbèdiga", "cost_winner_m": 199.4, "cost_second_m": 699.7, "disposition": "MULTI_QUARTIER_REVIEW"}}, {"type": "Feature", "geometry": {"type": "Point", "coordinates": [2.3944597, 6.3903573]}, "properties": {"winner": "Yénawa-Fifadji", "second": "Midédji", "cost_winner_m": 359.8, "cost_second_m": 679.6, "disposition": "MULTI_QUARTIER_REVIEW"}}, {"type": "Feature", "geometry": {"type": "Point", "coordinates": [2.4070489, 6.3779534]}, "properties": {"winner": "Agontinkon", "second": "Houéhoun", "cost_winner_m": 87.1, "cost_second_m": 430.5, "disposition": "MULTI_QUARTIER_REVIEW"}}, {"type": "Feature", "geometry": {"type": "Point", "coordinates": [2.4153584, 6.3789799]}, "properties": {"winner": "Missité-Sikê", "second": "Gbèdjromèdè", "cost_winner_m": 458.8, "cost_second_m": 699.1, "disposition": "MULTI_QUARTIER_REVIEW"}}, {"type": "Feature", "geometry": {"type": "Point", "coordinates": [2.4139717, 6.3815887]}, "properties": {"winner": "Gbèdagba", "second": "Houéhoun", "cost_winner_m": 89.6, "cost_second_m": 567.3, "disposition": "MULTI_QUARTIER_REVIEW"}}, {"type": "Feature", "geometry": {"type": "Point", "coordinates": [2.4168305, 6.3807946]}, "properties": {"winner": "Gbèdjromèdè", "second": "Gbèdjromèdè-Nord", "cost_winner_m": 510.5, "cost_second_m": 540.7, "disposition": "MULTI_QUARTIER_REVIEW"}}, {"type": "Feature", "geometry": {"type": "Point", "coordinates": [2.4164496, 6.3812434]}, "properties": {"winner": "Gbèdjromèdè-Nord", "second": "Gbèdjromèdè", "cost_winner_m": 475.6, "cost_second_m": 575.6, "disposition": "MULTI_QUARTIER_REVIEW"}}, {"type": "Feature", "geometry": {"type": "Point", "coordinates": [2.4183582, 6.3759307]}, "properties": {"winner": "Missité-Sikê", "second": "Fignon-Sikê", "cost_winner_m": 205.4, "cost_second_m": 257.4, "disposition": "MULTI_QUARTIER_REVIEW"}}, {"type": "Feature", "geometry": {"type": "Point", "coordinates": [2.4199507, 6.3779562]}, "properties": {"winner": "Gbèdjromèdè", "second": "Missité-Sikê", "cost_winner_m": 221.1, "cost_second_m": 417.7, "disposition": "MULTI_QUARTIER_REVIEW"}}, {"type": "Feature", "geometry": {"type": "Point", "coordinates": [2.4169835, 6.3733449]}, "properties": {"winner": "Énagnon-Sikê", "second": "Fignon-Sikê", "cost_winner_m": 376.0, "cost_second_m": 425.1, "disposition": "MULTI_QUARTIER_REVIEW"}}, {"type": "Feature", "geometry": {"type": "Point", "coordinates": [2.4187261, 6.3754691]}, "properties": {"winner": "Fignon-Sikê", "second": "Missité-Sikê", "cost_winner_m": 192.1, "cost_second_m": 270.7, "disposition": "MULTI_QUARTIER_REVIEW"}}, {"type": "Feature", "geometry": {"type": "Point", "coordinates": [2.4296609, 6.3754914]}, "properties": {"winner": "Aïdjèdo-Vignon", "second": "Hindé-Nord", "cost_winner_m": 254.8, "cost_second_m": 337.2, "disposition": "MULTI_QUARTIER_REVIEW"}}, {"type": "Feature", "geometry": {"type": "Point", "coordinates": [2.4270865, 6.3744671]}, "properties": {"winner": "Jéricho-Nord", "second": "Aïdjèdo-Vignon", "cost_winner_m": 245.9, "cost_second_m": 460.4, "disposition": "MULTI_QUARTIER_REVIEW"}}, {"type": "Feature", "geometry": {"type": "Point", "coordinates": [2.420101, 6.3834783]}, "properties": {"winner": "Gbèdjromèdè-Nord", "second": "Gbèdjromèdè", "cost_winner_m": 595.4, "cost_second_m": 608.6, "disposition": "MULTI_QUARTIER_REVIEW"}}, {"type": "Feature", "geometry": {"type": "Point", "coordinates": [2.4220869, 6.3849377]}, "properties": {"winner": "Ahouansouri-Agué", "second": "Ahouansouri-Agata", "cost_winner_m": 478.9, "cost_second_m": 490.7, "disposition": "MULTI_QUARTIER_REVIEW"}}, {"type": "Feature", "geometry": {"type": "Point", "coordinates": [2.4197769, 6.3839138]}, "properties": {"winner": "Gbèdjromèdè-Nord", "second": "Ahouansouri-Agué", "cost_winner_m": 535.4, "cost_second_m": 682.3, "disposition": "MULTI_QUARTIER_REVIEW"}}, {"type": "Feature", "geometry": {"type": "Point", "coordinates": [2.4240865, 6.3774732]}, "properties": {"winner": "Jéricho-Nord", "second": "Aïdjèdo", "cost_winner_m": 275.3, "cost_second_m": 293.1, "disposition": "MULTI_QUARTIER_REVIEW"}}, {"type": "Feature", "geometry": {"type": "Point", "coordinates": [2.4269538, 6.3789622]}, "properties": {"winner": "Aïdjèdo-Vignon", "second": "Aïdjèdo", "cost_winner_m": 262.1, "cost_second_m": 332.6, "disposition": "MULTI_QUARTIER_REVIEW"}}, {"type": "Feature", "geometry": {"type": "Point", "coordinates": [2.4266824, 6.385656]}, "properties": {"winner": "Ahouansori-Towéta", "second": "Ahouansori-Towéta-Kpota", "cost_winner_m": 442.0, "cost_second_m": 790.2, "disposition": "MULTI_QUARTIER_REVIEW"}}, {"type": "Feature", "geometry": {"type": "Point", "coordinates": [2.4262608, 6.3574991]}, "properties": {"winner": "Zongo-Nima", "second": "Gbéto", "cost_winner_m": 225.8, "cost_second_m": 399.5, "disposition": "MULTI_QUARTIER_REVIEW"}}, {"type": "Feature", "geometry": {"type": "Point", "coordinates": [2.4278119, 6.3613718]}, "properties": {"winner": "Dota", "second": "Gbéto", "cost_winner_m": 224.2, "cost_second_m": 369.6, "disposition": "MULTI_QUARTIER_REVIEW"}}, {"type": "Feature", "geometry": {"type": "Point", "coordinates": [2.4290854, 6.3623759]}, "properties": {"winner": "Dota", "second": "Gbédokpo", "cost_winner_m": 403.5, "cost_second_m": 406.7, "disposition": "MULTI_QUARTIER_REVIEW"}}, {"type": "Feature", "geometry": {"type": "Point", "coordinates": [2.4222595, 6.3585427]}, "properties": {"winner": "Gbèdiga-Guêdêhounguè", "second": "Zongo-Nima", "cost_winner_m": 541.9, "cost_second_m": 797.8, "disposition": "MULTI_QUARTIER_REVIEW"}}, {"type": "Feature", "geometry": {"type": "Point", "coordinates": [2.4240075, 6.3591872]}, "properties": {"winner": "Zongo-Nima", "second": "Gbèdiga-Guêdêhounguè", "cost_winner_m": 546.4, "cost_second_m": 772.8, "disposition": "MULTI_QUARTIER_REVIEW"}}, {"type": "Feature", "geometry": {"type": "Point", "coordinates": [2.4334666, 6.3607505]}, "properties": {"winner": "Avlékété-Joncquet", "second": "Missité", "cost_winner_m": 263.8, "cost_second_m": 292.9, "disposition": "MULTI_QUARTIER_REVIEW"}}, {"type": "Feature", "geometry": {"type": "Point", "coordinates": [2.4286116, 6.3603602]}, "properties": {"winner": "Dota", "second": "Gbéto", "cost_winner_m": 81.6, "cost_second_m": 509.9, "disposition": "MULTI_QUARTIER_REVIEW"}}, {"type": "Feature", "geometry": {"type": "Point", "coordinates": [2.4287016, 6.3628609]}, "properties": {"winner": "Gbédokpo", "second": "Dota", "cost_winner_m": 338.3, "cost_second_m": 471.9, "disposition": "MULTI_QUARTIER_REVIEW"}}, {"type": "Feature", "geometry": {"type": "Point", "coordinates": [2.4282231, 6.3608516]}, "properties": {"winner": "Dota", "second": "Gbéto", "cost_winner_m": 150.9, "cost_second_m": 440.3, "disposition": "MULTI_QUARTIER_REVIEW"}}, {"type": "Feature", "geometry": {"type": "Point", "coordinates": [2.4294975, 6.3618551]}, "properties": {"winner": "Dota", "second": "Missité", "cost_winner_m": 330.1, "cost_second_m": 340.1, "disposition": "MULTI_QUARTIER_REVIEW"}}, {"type": "Feature", "geometry": {"type": "Point", "coordinates": [2.4397167, 6.3571849]}, "properties": {"winner": "Xwlacôdji-Kpodji", "second": "Tokpa-Hoho", "cost_winner_m": 509.5, "cost_second_m": 655.7, "disposition": "MULTI_QUARTIER_REVIEW"}}, {"type": "Feature", "geometry": {"type": "Point", "coordinates": [2.433866, 6.3747919]}, "properties": {"winner": "Hindé-Sud", "second": "Dantôkpa", "cost_winner_m": 21.8, "cost_second_m": 610.4, "disposition": "MULTI_QUARTIER_REVIEW"}}, {"type": "Feature", "geometry": {"type": "Point", "coordinates": [2.4497018, 6.3855312]}, "properties": {"winner": "Ayélawadjè-Agongbomè", "second": "Sègbèya-Nord", "cost_winner_m": 342.0, "cost_second_m": 899.1, "disposition": "MULTI_QUARTIER_REVIEW"}}, {"type": "Feature", "geometry": {"type": "Point", "coordinates": [2.4495413, 6.3896402]}, "properties": {"winner": "Minontchou", "second": "Sègbèya-Nord", "cost_winner_m": 514.5, "cost_second_m": 640.6, "disposition": "MULTI_QUARTIER_REVIEW"}}, {"type": "Feature", "geometry": {"type": "Point", "coordinates": [2.4496856, 6.3884979]}, "properties": {"winner": "Sègbèya-Nord", "second": "Ayélawadjè-Agongbomè", "cost_winner_m": 565.0, "cost_second_m": 670.1, "disposition": "MULTI_QUARTIER_REVIEW"}}, {"type": "Feature", "geometry": {"type": "Point", "coordinates": [2.4535346, 6.3810301]}, "properties": {"winner": "Kpondéhou-Tchèmè", "second": "Sènadé", "cost_winner_m": 141.3, "cost_second_m": 555.7, "disposition": "MULTI_QUARTIER_REVIEW"}}, {"type": "Feature", "geometry": {"type": "Point", "coordinates": [2.4516329, 6.3749918]}, "properties": {"winner": "Ayélawadjè", "second": "Lom-Nava", "cost_winner_m": 222.7, "cost_second_m": 471.6, "disposition": "MULTI_QUARTIER_REVIEW"}}, {"type": "Feature", "geometry": {"type": "Point", "coordinates": [2.4515577, 6.3804097]}, "properties": {"winner": "Kpondéhou-Tchèmè", "second": "Lom-Nava", "cost_winner_m": 425.9, "cost_second_m": 571.8, "disposition": "MULTI_QUARTIER_REVIEW"}}, {"type": "Feature", "geometry": {"type": "Point", "coordinates": [2.4535248, 6.3803806]}, "properties": {"winner": "Kpondéhou-Tchèmè", "second": "Sènadé", "cost_winner_m": 213.1, "cost_second_m": 488.0, "disposition": "MULTI_QUARTIER_REVIEW"}}, {"type": "Feature", "geometry": {"type": "Point", "coordinates": [2.4477627, 6.3725893]}, "properties": {"winner": "Ayélawadjè", "second": "Gbèdjèwin", "cost_winner_m": 470.8, "cost_second_m": 509.7, "disposition": "MULTI_QUARTIER_REVIEW"}}, {"type": "Feature", "geometry": {"type": "Point", "coordinates": [2.4509142, 6.3784696]}, "properties": {"winner": "Lom-Nava", "second": "Ayélawadjè", "cost_winner_m": 430.1, "cost_second_m": 527.5, "disposition": "MULTI_QUARTIER_REVIEW"}}, {"type": "Feature", "geometry": {"type": "Point", "coordinates": [2.453658, 6.3745615]}, "properties": {"winner": "Lom-Nava", "second": "Ayélawadjè", "cost_winner_m": 299.9, "cost_second_m": 513.6, "disposition": "MULTI_QUARTIER_REVIEW"}}, {"type": "Feature", "geometry": {"type": "Point", "coordinates": [2.3383657, 6.463962]}, "properties": {"winner": "Fandji\n", "second": "Aïfa-Calavi", "cost_winner_m": 1102.6, "cost_second_m": 1740.5, "disposition": "MULTI_QUARTIER_REVIEW"}}, {"type": "Feature", "geometry": {"type": "Point", "coordinates": [2.3377055, 6.413379]}, "properties": {"winner": "Agonkanmey\n", "second": "Cité-la-Victoire\n", "cost_winner_m": 552.4, "cost_second_m": 1158.0, "disposition": "MULTI_QUARTIER_REVIEW"}}, {"type": "Feature", "geometry": {"type": "Point", "coordinates": [2.4816461, 6.3659593]}, "properties": {"winner": "Finagnon", "second": "Dandji", "cost_winner_m": 620.0, "cost_second_m": 660.6, "disposition": "MULTI_QUARTIER_REVIEW"}}, {"type": "Feature", "geometry": {"type": "Point", "coordinates": [2.4800045, 6.3663688]}, "properties": {"winner": "Dandji", "second": "Finagnon", "cost_winner_m": 422.3, "cost_second_m": 507.3, "disposition": "MULTI_QUARTIER_REVIEW"}}, {"type": "Feature", "geometry": {"type": "Point", "coordinates": [2.3835309, 6.3636423]}, "properties": {"winner": "Aïbatin-Kpota", "second": "Aïbatin-Dodo", "cost_winner_m": 259.4, "cost_second_m": 281.7, "disposition": "MULTI_QUARTIER_REVIEW"}}, {"type": "Feature", "geometry": {"type": "Point", "coordinates": [2.4545349, 6.3684093]}, "properties": {"winner": "Fifatin", "second": "Sodjatinmè-Centre", "cost_winner_m": 526.9, "cost_second_m": 531.5, "disposition": "MULTI_QUARTIER_REVIEW"}}, {"type": "Feature", "geometry": {"type": "Point", "coordinates": [2.4551471, 6.3687292]}, "properties": {"winner": "Fifatin", "second": "Sodjatinmè-Est", "cost_winner_m": 603.3, "cost_second_m": 613.5, "disposition": "MULTI_QUARTIER_REVIEW"}}, {"type": "Feature", "geometry": {"type": "Point", "coordinates": [2.4559392, 6.3689725]}, "properties": {"winner": "Sodjatinmè-Est", "second": "Sodjatinmè-Centre", "cost_winner_m": 521.6, "cost_second_m": 580.7, "disposition": "MULTI_QUARTIER_REVIEW"}}, {"type": "Feature", "geometry": {"type": "Point", "coordinates": [2.29268, 6.3944963]}, "properties": {"winner": "Gbodjè-Womey\n", "second": "Cocotomey", "cost_winner_m": 1692.3, "cost_second_m": 1916.1, "disposition": "MULTI_QUARTIER_REVIEW"}}, {"type": "Feature", "geometry": {"type": "Point", "coordinates": [2.3016962, 6.3964051]}, "properties": {"winner": "Sodo\n", "second": "Cocotomey", "cost_winner_m": 1171.5, "cost_second_m": 1226.4, "disposition": "MULTI_QUARTIER_REVIEW"}}, {"type": "Feature", "geometry": {"type": "Point", "coordinates": [2.4788603, 6.3735722]}, "properties": {"winner": "Dandji", "second": "Avotrou-Houézèkomè", "cost_winner_m": 688.0, "cost_second_m": 691.2, "disposition": "MULTI_QUARTIER_REVIEW"}}, {"type": "Feature", "geometry": {"type": "Point", "coordinates": [2.4798899, 6.3738324]}, "properties": {"winner": "Tchanhounkpamè", "second": "Dandji", "cost_winner_m": 724.1, "cost_second_m": 805.4, "disposition": "MULTI_QUARTIER_REVIEW"}}, {"type": "Feature", "geometry": {"type": "Point", "coordinates": [2.4726162, 6.3748961]}, "properties": {"winner": "Avotrou-Houézèkomè", "second": "Yagbé", "cost_winner_m": 606.7, "cost_second_m": 712.3, "disposition": "MULTI_QUARTIER_REVIEW"}}, {"type": "Feature", "geometry": {"type": "Point", "coordinates": [2.4721081, 6.3755163]}, "properties": {"winner": "Avotrou-Gbègo", "second": "Yagbé", "cost_winner_m": 592.1, "cost_second_m": 724.2, "disposition": "MULTI_QUARTIER_REVIEW"}}, {"type": "Feature", "geometry": {"type": "Point", "coordinates": [2.4682324, 6.3802427]}, "properties": {"winner": "Avotrou-Gbègo", "second": "Kowégbo", "cost_winner_m": 371.5, "cost_second_m": 483.3, "disposition": "MULTI_QUARTIER_REVIEW"}}, {"type": "Feature", "geometry": {"type": "Point", "coordinates": [2.337565, 6.4162307]}, "properties": {"winner": "Cité-la-Victoire\n", "second": "Zogbadjè", "cost_winner_m": 788.7, "cost_second_m": 861.0, "disposition": "MULTI_QUARTIER_REVIEW"}}, {"type": "Feature", "geometry": {"type": "Point", "coordinates": [2.3271589, 6.3844406]}, "properties": {"winner": "Atrokpo-Codji", "second": "Dèkoungbé\n", "cost_winner_m": 902.3, "cost_second_m": 1046.5, "disposition": "MULTI_QUARTIER_REVIEW"}}, {"type": "Feature", "geometry": {"type": "Point", "coordinates": [2.4621298, 6.3742712]}, "properties": {"winner": "Sènadé-Sèkon", "second": "Nvènamèdé", "cost_winner_m": 448.0, "cost_second_m": 646.4, "disposition": "MULTI_QUARTIER_REVIEW"}}, {"type": "Feature", "geometry": {"type": "Point", "coordinates": [2.4598026, 6.3733459]}, "properties": {"winner": "Sènadé-Sèkon", "second": "Sodjatinmè-Est", "cost_winner_m": 259.2, "cost_second_m": 369.3, "disposition": "MULTI_QUARTIER_REVIEW"}}, {"type": "Feature", "geometry": {"type": "Point", "coordinates": [2.46505, 6.3749314]}, "properties": {"winner": "Avotrou-Gbègo", "second": "Nvènamèdé", "cost_winner_m": 561.7, "cost_second_m": 612.3, "disposition": "MULTI_QUARTIER_REVIEW"}}, {"type": "Feature", "geometry": {"type": "Point", "coordinates": [2.3391675, 6.4630408]}, "properties": {"winner": "Fandji\n", "second": "Aïtchédji\n", "cost_winner_m": 1126.1, "cost_second_m": 1202.7, "disposition": "MULTI_QUARTIER_REVIEW"}}, {"type": "Feature", "geometry": {"type": "Point", "coordinates": [2.4658617, 6.3796363]}, "properties": {"winner": "Suru-Léré", "second": "Kowégbo", "cost_winner_m": 258.3, "cost_second_m": 290.5, "disposition": "MULTI_QUARTIER_REVIEW"}}, {"type": "Feature", "geometry": {"type": "Point", "coordinates": [2.3044188, 6.4149581]}, "properties": {"winner": "Tankpè-Togoudo", "second": "Maria-Gléta\n", "cost_winner_m": 995.2, "cost_second_m": 997.6, "disposition": "MULTI_QUARTIER_REVIEW"}}, {"type": "Feature", "geometry": {"type": "Point", "coordinates": [2.3044029, 6.4144002]}, "properties": {"winner": "Tankpè-Togoudo", "second": "Womey-Centre\n", "cost_winner_m": 1056.9, "cost_second_m": 1058.1, "disposition": "MULTI_QUARTIER_REVIEW"}}, {"type": "Feature", "geometry": {"type": "Point", "coordinates": [2.462869, 6.3857957]}, "properties": {"winner": "Djédjé-Layé", "second": "Kowégbo", "cost_winner_m": 676.9, "cost_second_m": 720.0, "disposition": "MULTI_QUARTIER_REVIEW"}}, {"type": "Feature", "geometry": {"type": "Point", "coordinates": [2.4694991, 6.3851203]}, "properties": {"winner": "Avotrou-Aïmonlonfidé", "second": "Yénawa-Daho", "cost_winner_m": 615.1, "cost_second_m": 676.6, "disposition": "MULTI_QUARTIER_REVIEW"}}, {"type": "Feature", "geometry": {"type": "Point", "coordinates": [2.3321836, 6.4494045]}, "properties": {"winner": "Aïdégnon\n", "second": "Alédjo\n", "cost_winner_m": 771.1, "cost_second_m": 874.8, "disposition": "MULTI_QUARTIER_REVIEW"}}, {"type": "Feature", "geometry": {"type": "Point", "coordinates": [2.3188135, 6.4329319]}, "properties": {"winner": "Tankpè-Tanmè", "second": "Tankpê-Yoho", "cost_winner_m": 1091.4, "cost_second_m": 1165.0, "disposition": "MULTI_QUARTIER_REVIEW"}}, {"type": "Feature", "geometry": {"type": "Point", "coordinates": [2.3473023, 6.4770028]}, "properties": {"winner": "Cité-les-Palmiers\n", "second": "Fandji\n", "cost_winner_m": 1387.7, "cost_second_m": 1511.6, "disposition": "MULTI_QUARTIER_REVIEW"}}, {"type": "Feature", "geometry": {"type": "Point", "coordinates": [2.3479248, 6.4766057]}, "properties": {"winner": "Fandji\n", "second": "Cité-les-Palmiers\n", "cost_winner_m": 1398.8, "cost_second_m": 1503.8, "disposition": "MULTI_QUARTIER_REVIEW"}}, {"type": "Feature", "geometry": {"type": "Point", "coordinates": [2.3788447, 6.3609755]}, "properties": {"winner": "Aïbatin-Kpota", "second": "Aïbatin-Dodo", "cost_winner_m": 546.4, "cost_second_m": 580.5, "disposition": "MULTI_QUARTIER_REVIEW"}}, {"type": "Feature", "geometry": {"type": "Point", "coordinates": [2.405843, 6.3761847]}, "properties": {"winner": "Agontinkon", "second": "Vodjè-Ayidoté", "cost_winner_m": 241.8, "cost_second_m": 404.2, "disposition": "MULTI_QUARTIER_REVIEW"}}, {"type": "Feature", "geometry": {"type": "Point", "coordinates": [2.4270372, 6.3623519]}, "properties": {"winner": "Mifongou", "second": "Dota", "cost_winner_m": 268.6, "cost_second_m": 362.4, "disposition": "MULTI_QUARTIER_REVIEW"}}, {"type": "Feature", "geometry": {"type": "Point", "coordinates": [2.3414966, 6.3779226]}, "properties": {"winner": "Dénou\n", "second": "Godomey-N'Gbèho", "cost_winner_m": 654.6, "cost_second_m": 663.3, "disposition": "MULTI_QUARTIER_REVIEW"}}, {"type": "Feature", "geometry": {"type": "Point", "coordinates": [2.4273864, 6.357571]}, "properties": {"winner": "Zongo-Nima", "second": "Gbéto", "cost_winner_m": 225.5, "cost_second_m": 369.7, "disposition": "MULTI_QUARTIER_REVIEW"}}, {"type": "Feature", "geometry": {"type": "Point", "coordinates": [2.4339946, 6.361971]}, "properties": {"winner": "Missité", "second": "Avlékété-Joncquet", "cost_winner_m": 347.3, "cost_second_m": 458.1, "disposition": "MULTI_QUARTIER_REVIEW"}}, {"type": "Feature", "geometry": {"type": "Point", "coordinates": [2.4323403, 6.3641153]}, "properties": {"winner": "Gbédokpo", "second": "Missité", "cost_winner_m": 342.8, "cost_second_m": 372.9, "disposition": "MULTI_QUARTIER_REVIEW"}}, {"type": "Feature", "geometry": {"type": "Point", "coordinates": [2.2346073, 6.4160609]}, "properties": {"winner": "Houinmè", "second": "Houinmè-Daho", "cost_winner_m": 891.3, "cost_second_m": 973.2, "disposition": "MULTI_QUARTIER_REVIEW"}}, {"type": "Feature", "geometry": {"type": "Point", "coordinates": [2.2346369, 6.415272]}, "properties": {"winner": "Houinmè-Daho", "second": "Houinmè", "cost_winner_m": 993.7, "cost_second_m": 1084.1, "disposition": "MULTI_QUARTIER_REVIEW"}}, {"type": "Feature", "geometry": {"type": "Point", "coordinates": [2.2803564, 6.4525491]}, "properties": {"winner": "Dessato\n", "second": "Togba_Maria-Gléta", "cost_winner_m": 2129.3, "cost_second_m": 2291.1, "disposition": "MULTI_QUARTIER_REVIEW"}}, {"type": "Feature", "geometry": {"type": "Point", "coordinates": [2.3410451, 6.3781135]}, "properties": {"winner": "Fignonhou\n", "second": "Dénou\n", "cost_winner_m": 620.5, "cost_second_m": 708.8, "disposition": "MULTI_QUARTIER_REVIEW"}}, {"type": "Feature", "geometry": {"type": "Point", "coordinates": [2.3414386, 6.3768945]}, "properties": {"winner": "Godomey-N'Gbèho", "second": "Dénou\n", "cost_winner_m": 502.3, "cost_second_m": 713.5, "disposition": "MULTI_QUARTIER_REVIEW"}}, {"type": "Feature", "geometry": {"type": "Point", "coordinates": [2.4292579, 6.3691982]}, "properties": {"winner": "Sèdjro-Saint-Michel", "second": "Jéricho-Sud", "cost_winner_m": 309.8, "cost_second_m": 357.3, "disposition": "MULTI_QUARTIER_REVIEW"}}, {"type": "Feature", "geometry": {"type": "Point", "coordinates": [2.3517181, 6.5481661]}, "properties": {"winner": "Agassa-Godomey", "second": "Agonmé", "cost_winner_m": 1631.9, "cost_second_m": 1688.0, "disposition": "MULTI_QUARTIER_REVIEW"}}, {"type": "Feature", "geometry": {"type": "Point", "coordinates": [2.3169351, 6.4758319]}, "properties": {"winner": "Aïfa-Calavi", "second": "Ouéga-Agué", "cost_winner_m": 1682.4, "cost_second_m": 1776.2, "disposition": "MULTI_QUARTIER_REVIEW"}}, {"type": "Feature", "geometry": {"type": "Point", "coordinates": [2.4413222, 6.3798696]}, "properties": {"winner": "Kpankpan", "second": "Sègbèya-Sud", "cost_winner_m": 533.9, "cost_second_m": 631.3, "disposition": "MULTI_QUARTIER_REVIEW"}}, {"type": "Feature", "geometry": {"type": "Point", "coordinates": [2.3032599, 6.4144778]}, "properties": {"winner": "Womey-Centre\n", "second": "Tankpè-Togoudo", "cost_winner_m": 1124.8, "cost_second_m": 1183.8, "disposition": "MULTI_QUARTIER_REVIEW"}}, {"type": "Feature", "geometry": {"type": "Point", "coordinates": [2.303355, 6.4147749]}, "properties": {"winner": "Maria-Gléta\n", "second": "Womey-Centre\n", "cost_winner_m": 1133.4, "cost_second_m": 1159.3, "disposition": "MULTI_QUARTIER_REVIEW"}}, {"type": "Feature", "geometry": {"type": "Point", "coordinates": [2.4289927, 6.3865914]}, "properties": {"winner": "Ahouansori-Towéta-Kpota", "second": "Ahouansouri-Agata", "cost_winner_m": 462.6, "cost_second_m": 627.2, "disposition": "MULTI_QUARTIER_REVIEW"}}, {"type": "Feature", "geometry": {"type": "Point", "coordinates": [2.4614947, 6.3728735]}, "properties": {"winner": "Sodjatinmè-Est", "second": "Nvènamèdé", "cost_winner_m": 482.0, "cost_second_m": 568.7, "disposition": "MULTI_QUARTIER_REVIEW"}}, {"type": "Feature", "geometry": {"type": "Point", "coordinates": [2.346143, 6.4507261]}, "properties": {"winner": "Aïtchédji\n", "second": "Agori", "cost_winner_m": 970.6, "cost_second_m": 1062.6, "disposition": "MULTI_QUARTIER_REVIEW"}}]}