{"type": "FeatureCollection", "features": [{"type": "Feature", "geometry": {"type": "Point", "coordinates": [2.3347543, 6.3830747]}, "properties": {"quartier": "Ounvènoumèdé\n", "component_size": 19, "disposition": "MULTI_QUARTIER_REVIEW", "eligible_owners": ["Atrokpo-Codji", "Dèkoungbé\n", "Dénou\n"], "iteration": 1, "vertex_ids": [15680, 32192, 32193, 32195, 32196, 32197, 32198, 32199, 15681, 32194, 32221, 32222]}}, {"type": "Feature", "geometry": {"type": "Point", "coordinates": [2.2930726, 6.3854128]}, "properties": {"quartier": "Fandji\n", "component_size": 50, "disposition": "MULTI_QUARTIER_REVIEW", "eligible_owners": ["Zounga\n", "Gbodjè-Womey\n", "Cocotomey"], "iteration": 1, "vertex_ids": [51456, 51459, 51460, 51461, 51334, 51335, 51462, 51337, 51338, 125838, 125839, 125840]}}, {"type": "Feature", "geometry": {"type": "Point", "coordinates": [2.2950576, 6.3870325]}, "properties": {"quartier": "Fandji\n", "component_size": 215, "disposition": "MULTI_QUARTIER_REVIEW", "eligible_owners": ["Sodo\n", "Gbodjè-Womey\n", "Cocotomey"], "iteration": 1, "vertex_ids": [60928, 60929, 60930, 15570, 30215, 30216, 30217, 30218, 30219, 30220, 30221, 43761]}}, {"type": "Feature", "geometry": {"type": "Point", "coordinates": [2.4425415, 6.3718412]}, "properties": {"quartier": "Gbénonkpô", "component_size": 13, "disposition": "MULTI_QUARTIER_REVIEW", "eligible_owners": ["Adjégounlè", "Dédokpo", "Kpankpan", "Misséssin"], "iteration": 1, "vertex_ids": [131334, 7880, 235, 236, 32432, 7761, 7730, 7827, 7762, 7763, 32405, 32433]}}, {"type": "Feature", "geometry": {"type": "Point", "coordinates": [2.4473778, 6.3696247]}, "properties": {"quartier": "Gbèdjèwin", "component_size": 56, "disposition": "MULTI_QUARTIER_REVIEW", "eligible_owners": ["Fifatin", "Adjégounlè", "Abokicodji-Centre", "Ayélawadjè", "Misséssin", "Sodjatinmè-Ouest"], "iteration": 1, "vertex_ids": [2178, 2179, 2180, 2181, 2182, 2183, 2184, 2185, 2186, 2187, 7818, 7817]}}, {"type": "Feature", "geometry": {"type": "Point", "coordinates": [2.4195636, 6.370698]}, "properties": {"quartier": "Sèhogan-Sikê", "component_size": 2, "disposition": "MULTI_QUARTIER_REVIEW", "eligible_owners": ["Sèdami", "Énagnon-Sikê", "Fignon-Sikê"], "iteration": 1, "vertex_ids": [433, 6219]}}, {"type": "Feature", "geometry": {"type": "Point", "coordinates": [2.4397291, 6.3558165]}, "properties": {"quartier": "Tokpa-Hoho", "component_size": 50, "disposition": "MULTI_QUARTIER_REVIEW", "eligible_owners": ["Xwlacôdji-Kpodji", "Guinkômey", "Akpakpa-Dodomè"], "iteration": 1, "vertex_ids": [56068, 135246, 32911, 32912, 32913, 32914, 32915, 32916, 32917, 1944, 1945, 1946]}}, {"type": "Feature", "geometry": {"type": "Point", "coordinates": [2.35694, 6.37277]}, "properties": {"quartier": "Godomey-N'Gbèho", "component_size": 7, "disposition": "MULTI_QUARTIER_REVIEW", "eligible_owners": ["Plateau\n", "Agla-Agongbomey", "Hlazounto", "Dénou\n"], "iteration": 1, "vertex_ids": [126439, 132135, 72178, 72179, 72180, 126453, 38872]}}, {"type": "Feature", "geometry": {"type": "Point", "coordinates": [2.454004, 6.3695527]}, "properties": {"quartier": "Sodjatinmè-Centre", "component_size": 126, "disposition": "MULTI_QUARTIER_REVIEW", "eligible_owners": ["Fifadji-Houto (Jak)", "Fifatin", "Irédé", "Énagnon", "Sodjatinmè-Est"], "iteration": 1, "vertex_ids": [14848, 53249, 53250, 53251, 53252, 53253, 53254, 53255, 53256, 14857, 53257, 14859]}}, {"type": "Feature", "geometry": {"type": "Point", "coordinates": [2.4434589, 6.3602975]}, "properties": {"quartier": "Akpakpa-Dodomè", "component_size": 13, "disposition": "MULTI_QUARTIER_REVIEW", "eligible_owners": ["Ohé", "Tokpa-Hoho", "Abokicodji-Lagune"], "iteration": 1, "vertex_ids": [1824, 1825, 7752, 7757, 118679, 131288, 131289, 131287, 1819, 1820, 1821, 1822]}}, {"type": "Feature", "geometry": {"type": "Point", "coordinates": [2.4334666, 6.3607505]}, "properties": {"quartier": "Avlékété-Joncquet", "component_size": 1, "disposition": "MULTI_QUARTIER_REVIEW", "eligible_owners": ["Missité", "Guinkômey", "Missèbô"], "iteration": 1, "vertex_ids": [6860]}}, {"type": "Feature", "geometry": {"type": "Point", "coordinates": [2.3882689, 6.3677496]}, "properties": {"quartier": "Missité", "component_size": 51, "disposition": "MULTI_QUARTIER_REVIEW", "eligible_owners": ["Aïbatin-Dodo", "Houénoussou", "Houéyihô", "Gbèdégbé"], "iteration": 1, "vertex_ids": [13700, 13701, 13703, 13704, 13705, 13718, 130873, 40228, 116133, 116134, 116135, 116136]}}, {"type": "Feature", "geometry": {"type": "Point", "coordinates": [2.4711042, 6.3675332]}, "properties": {"quartier": "Tanto", "component_size": 11, "disposition": "MULTI_QUARTIER_REVIEW", "eligible_owners": ["Finagnon", "Donaten", "Dandji", "Nvènamèdé"], "iteration": 1, "vertex_ids": [56224, 56225, 12261, 12262, 147623, 147624, 147625, 147626, 147627, 147628, 2008]}}, {"type": "Feature", "geometry": {"type": "Point", "coordinates": [2.4024214, 6.3688182]}, "properties": {"quartier": "Vodjè-Centre", "component_size": 16, "disposition": "MULTI_QUARTIER_REVIEW", "eligible_owners": ["Cadjèhoun-Kpota", "Cadjèhoun-Détinsa", "Vodjè-Kpota"], "iteration": 1, "vertex_ids": [6721, 3205, 3206, 3208, 3209, 3210, 16395, 16396, 16397, 16398, 16394, 16393]}}, {"type": "Feature", "geometry": {"type": "Point", "coordinates": [2.4004258, 6.3694984]}, "properties": {"quartier": "Vodjè-Finagnon", "component_size": 3, "disposition": "MULTI_QUARTIER_REVIEW", "eligible_owners": ["Vodjè-Centre", "Houéyihô", "Vodjè-Ayidoté"], "iteration": 1, "vertex_ids": [2032, 2033, 2034]}}, {"type": "Feature", "geometry": {"type": "Point", "coordinates": [2.3130918, 6.4389464]}, "properties": {"quartier": "Tankpê-Yoho", "component_size": 30, "disposition": "MULTI_QUARTIER_REVIEW", "eligible_owners": ["Houèto", "Tokan", "Fifonsi\n"], "iteration": 1, "vertex_ids": [47239, 47240, 46614, 125598, 125599, 125600, 125601, 125602, 47150, 47151, 47152, 47153]}}, {"type": "Feature", "geometry": {"type": "Point", "coordinates": [2.3432435, 6.4145276]}, "properties": {"quartier": "Tokpa-Zoungo-Sud\n", "component_size": 252, "disposition": "MULTI_QUARTIER_REVIEW", "eligible_owners": ["Agonkanmey\n", "Sèdomey", "Zogbadjè", "Tokpa-Zoungo-Nord\n"], "iteration": 1, "vertex_ids": [15360, 15369, 15370, 15371, 15372, 15373, 15374, 15375, 12312, 12313, 12314, 12315]}}, {"type": "Feature", "geometry": {"type": "Point", "coordinates": [2.4560291, 6.3824071]}, "properties": {"quartier": "Kpondéhou-Tchèmè", "component_size": 2, "disposition": "MULTI_QUARTIER_REVIEW", "eligible_owners": ["Ahouassa", "Kpondéhou", "Sènadé"], "iteration": 1, "vertex_ids": [7704, 7933]}}, {"type": "Feature", "geometry": {"type": "Point", "coordinates": [2.3376846, 6.3958753]}, "properties": {"quartier": "Nonhouénou\n", "component_size": 36, "disposition": "MULTI_QUARTIER_REVIEW", "eligible_owners": ["Ounvènoumèdé\n", "Salamey", "Godomey-Togoudo"], "iteration": 1, "vertex_ids": [41346, 41356, 41361, 41370, 123177, 123178, 123179, 123180, 123181, 123182, 123183, 123184]}}, {"type": "Feature", "geometry": {"type": "Point", "coordinates": [2.3579196, 6.3889711]}, "properties": {"quartier": "Kindonou", "component_size": 36, "disposition": "MULTI_QUARTIER_REVIEW", "eligible_owners": ["Agla-Les-Pylônes", "Plateau\n", "Mènontin"], "iteration": 1, "vertex_ids": [129408, 129409, 126258, 126263, 151999, 152000, 152001, 152002, 152003, 152004, 152005, 132035]}}, {"type": "Feature", "geometry": {"type": "Point", "coordinates": [2.4412322, 6.3804687]}, "properties": {"quartier": "Adôgléta", "component_size": 1, "disposition": "MULTI_QUARTIER_REVIEW", "eligible_owners": ["Sègbèya-Sud", "Midombo", "Kpankpan"], "iteration": 1, "vertex_ids": [8299]}}, {"type": "Feature", "geometry": {"type": "Point", "coordinates": [2.4641151, 6.3742275]}, "properties": {"quartier": "Nvènamèdé", "component_size": 30, "disposition": "MULTI_QUARTIER_REVIEW", "eligible_owners": ["Yagbé", "Sènadé-Sèkon", "Suru-Léré", "Sodjatinmè-Est"], "iteration": 1, "vertex_ids": [18176, 18177, 18182, 18183, 143248, 14877, 63917, 63918, 7983, 47664, 7985, 7986]}}, {"type": "Feature", "geometry": {"type": "Point", "coordinates": [2.2793882, 6.4891079]}, "properties": {"quartier": "Adjagbo", "component_size": 1216, "disposition": "MULTI_QUARTIER_REVIEW", "eligible_owners": ["Dessato\n", "Kpossidja", "Adjagbo-Aïdjèdo", "Drabo"], "iteration": 1, "vertex_ids": [70421, 110715, 120840, 120841, 120842, 120843, 120844, 120845, 120846, 120847, 120848, 120849]}}, {"type": "Feature", "geometry": {"type": "Point", "coordinates": [2.3563018, 6.4720101]}, "properties": {"quartier": "Gbodjo", "component_size": 80, "disposition": "MULTI_QUARTIER_REVIEW", "eligible_owners": ["Zopah-Kokpo", "Fandji\n", "Agamandin"], "iteration": 1, "vertex_ids": [33836, 33837, 33838, 33839, 33840, 33841, 33842, 33843, 33844, 33845, 33846, 33847]}}]}