{"type": "FeatureCollection", "features": [{"type": "Feature", "geometry": {"type": "Point", "coordinates": [2.3993882, 6.3568991]}, "properties": {"claims": ["Cadjèhoun-Gare", "Cadjèhoun-Kpota", "Haie-Vive-Cocotiers"], "n_claims": 3, "current_owner": "Cadjèhoun-Azalokogon"}}, {"type": "Feature", "geometry": {"type": "Point", "coordinates": [2.3992533, 6.3566946]}, "properties": {"claims": ["Cadjèhoun-Gare", "Cadjèhoun-Kpota", "Haie-Vive-Cocotiers"], "n_claims": 3, "current_owner": "Cadjèhoun-Azalokogon"}}, {"type": "Feature", "geometry": {"type": "Point", "coordinates": [2.3994342, 6.3567753]}, "properties": {"claims": ["Cadjèhoun-Gare", "Cadjèhoun-Kpota", "Haie-Vive-Cocotiers"], "n_claims": 3, "current_owner": "Cadjèhoun-Azalokogon"}}, {"type": "Feature", "geometry": {"type": "Point", "coordinates": [2.4564198, 6.3895675]}, "properties": {"claims": ["Gankpodo", "Kpondéhou", "Yénawa"], "n_claims": 3, "current_owner": "Djédjé-Layé"}}, {"type": "Feature", "geometry": {"type": "Point", "coordinates": [2.4564194, 6.3891233]}, "properties": {"claims": ["Gankpodo", "Kpondéhou", "Yénawa"], "n_claims": 3, "current_owner": "Djédjé-Layé"}}, {"type": "Feature", "geometry": {"type": "Point", "coordinates": [2.4579418, 6.3891116]}, "properties": {"claims": ["Gankpodo", "Kpondéhou", "Yénawa"], "n_claims": 3, "current_owner": "Djédjé-Layé"}}, {"type": "Feature", "geometry": {"type": "Point", "coordinates": [2.4579463, 6.3895448]}, "properties": {"claims": ["Gankpodo", "Kpondéhou", "Yénawa"], "n_claims": 3, "current_owner": "Djédjé-Layé"}}, {"type": "Feature", "geometry": {"type": "Point", "coordinates": [2.4568993, 6.3900629]}, "properties": {"claims": ["Gankpodo", "Kpondéhou", "Yénawa"], "n_claims": 3, "current_owner": "Djédjé-Layé"}}, {"type": "Feature", "geometry": {"type": "Point", "coordinates": [2.4574274, 6.3900581]}, "properties": {"claims": ["Gankpodo", "Kpondéhou", "Yénawa"], "n_claims": 3, "current_owner": "Djédjé-Layé"}}, {"type": "Feature", "geometry": {"type": "Point", "coordinates": [2.4579517, 6.3900537]}, "properties": {"claims": ["Gankpodo", "Kpondéhou", "Yénawa"], "n_claims": 3, "current_owner": "Djédjé-Layé"}}, {"type": "Feature", "geometry": {"type": "Point", "coordinates": [2.4579362, 6.3885848]}, "properties": {"claims": ["Gankpodo", "Kpondéhou", "Yénawa"], "n_claims": 3, "current_owner": "Djédjé-Layé"}}, {"type": "Feature", "geometry": {"type": "Point", "coordinates": [2.4141103, 6.362426]}, "properties": {"claims": ["Gbégamey-Ahito", "Gbégamey-Centre", "Gbégamey-Dodo-Ayidjè"], "n_claims": 3, "current_owner": "<unclaimed>"}}, {"type": "Feature", "geometry": {"type": "Point", "coordinates": [2.4140854, 6.3624361]}, "properties": {"claims": ["Gbégamey-Ahito", "Gbégamey-Centre", "Gbégamey-Dodo-Ayidjè"], "n_claims": 3, "current_owner": "<unclaimed>"}}, {"type": "Feature", "geometry": {"type": "Point", "coordinates": [2.4140595, 6.3624435]}, "properties": {"claims": ["Gbégamey-Ahito", "Gbégamey-Centre", "Gbégamey-Dodo-Ayidjè"], "n_claims": 3, "current_owner": "<unclaimed>"}}, {"type": "Feature", "geometry": {"type": "Point", "coordinates": [2.414033, 6.3624481]}, "properties": {"claims": ["Gbégamey-Ahito", "Gbégamey-Centre", "Gbégamey-Dodo-Ayidjè"], "n_claims": 3, "current_owner": "<unclaimed>"}}, {"type": "Feature", "geometry": {"type": "Point", "coordinates": [2.4132482, 6.3625686]}, "properties": {"claims": ["Gbégamey-Ahito", "Gbégamey-Dodo-Ayidjè", "Gbégamey-Mifongou"], "n_claims": 3, "current_owner": "Gbégamey-Centre"}}, {"type": "Feature", "geometry": {"type": "Point", "coordinates": [2.4124965, 6.362917]}, "properties": {"claims": ["Gbégamey-Ahito", "Gbégamey-Dodo-Ayidjè", "Gbégamey-Mifongou"], "n_claims": 3, "current_owner": "Gbégamey-Centre"}}, {"type": "Feature", "geometry": {"type": "Point", "coordinates": [2.411939, 6.3631745]}, "properties": {"claims": ["Gbégamey-Ahito", "Gbégamey-Dodo-Ayidjè", "Gbégamey-Mifongou"], "n_claims": 3, "current_owner": "Gbégamey-Centre"}}, {"type": "Feature", "geometry": {"type": "Point", "coordinates": [2.4117605, 6.3632634]}, "properties": {"claims": ["Gbégamey-Ahito", "Gbégamey-Dodo-Ayidjè", "Gbégamey-Mifongou"], "n_claims": 3, "current_owner": "Gbégamey-Centre"}}, {"type": "Feature", "geometry": {"type": "Point", "coordinates": [2.4112117, 6.3635132]}, "properties": {"claims": ["Gbégamey-Ahito", "Gbégamey-Dodo-Ayidjè", "Gbégamey-Mifongou"], "n_claims": 3, "current_owner": "Gbégamey-Centre"}}, {"type": "Feature", "geometry": {"type": "Point", "coordinates": [2.4111117, 6.3635587]}, "properties": {"claims": ["Gbégamey-Ahito", "Gbégamey-Dodo-Ayidjè", "Gbégamey-Mifongou"], "n_claims": 3, "current_owner": "Gbégamey-Centre"}}, {"type": "Feature", "geometry": {"type": "Point", "coordinates": [2.414134, 6.3624132]}, "properties": {"claims": ["Gbégamey-Ahito", "Gbégamey-Centre", "Gbégamey-Dodo-Ayidjè"], "n_claims": 3, "current_owner": "<unclaimed>"}}, {"type": "Feature", "geometry": {"type": "Point", "coordinates": [2.4109066, 6.364064]}, "properties": {"claims": ["Gbégamey-Ahito", "Gbégamey-Dodo-Ayidjè", "Gbégamey-Mifongou"], "n_claims": 3, "current_owner": "Gbégamey-Centre"}}, {"type": "Feature", "geometry": {"type": "Point", "coordinates": [2.41424, 6.362128]}, "properties": {"claims": ["Gbégamey-Ahito", "Gbégamey-Dodo-Ayidjè", "Gbégamey-Mifongou"], "n_claims": 3, "current_owner": "Gbégamey-Centre"}}, {"type": "Feature", "geometry": {"type": "Point", "coordinates": [2.4148206, 6.3618477]}, "properties": {"claims": ["Gbégamey-Ahito", "Gbégamey-Dodo-Ayidjè", "Gbégamey-Mifongou"], "n_claims": 3, "current_owner": "Gbégamey-Centre"}}, {"type": "Feature", "geometry": {"type": "Point", "coordinates": [2.414247, 6.3621546]}, "properties": {"claims": ["Gbégamey-Ahito", "Gbégamey-Dodo-Ayidjè", "Gbégamey-Mifongou"], "n_claims": 3, "current_owner": "Gbégamey-Centre"}}, {"type": "Feature", "geometry": {"type": "Point", "coordinates": [2.414251, 6.3621817]}, "properties": {"claims": ["Gbégamey-Ahito", "Gbégamey-Dodo-Ayidjè", "Gbégamey-Mifongou"], "n_claims": 3, "current_owner": "Gbégamey-Centre"}}, {"type": "Feature", "geometry": {"type": "Point", "coordinates": [2.4142519, 6.3622092]}, "properties": {"claims": ["Gbégamey-Ahito", "Gbégamey-Dodo-Ayidjè", "Gbégamey-Mifongou"], "n_claims": 3, "current_owner": "Gbégamey-Centre"}}, {"type": "Feature", "geometry": {"type": "Point", "coordinates": [2.4142497, 6.3622366]}, "properties": {"claims": ["Gbégamey-Ahito", "Gbégamey-Dodo-Ayidjè", "Gbégamey-Mifongou"], "n_claims": 3, "current_owner": "Gbégamey-Centre"}}, {"type": "Feature", "geometry": {"type": "Point", "coordinates": [2.4142444, 6.3622635]}, "properties": {"claims": ["Gbégamey-Ahito", "Gbégamey-Dodo-Ayidjè", "Gbégamey-Mifongou"], "n_claims": 3, "current_owner": "Gbégamey-Centre"}}, {"type": "Feature", "geometry": {"type": "Point", "coordinates": [2.4112207, 6.3636684]}, "properties": {"claims": ["Gbégamey-Ahito", "Gbégamey-Dodo-Ayidjè", "Gbégamey-Mifongou"], "n_claims": 3, "current_owner": "Gbégamey-Centre"}}, {"type": "Feature", "geometry": {"type": "Point", "coordinates": [2.4142362, 6.3622898]}, "properties": {"claims": ["Gbégamey-Ahito", "Gbégamey-Dodo-Ayidjè", "Gbégamey-Mifongou"], "n_claims": 3, "current_owner": "Gbégamey-Centre"}}, {"type": "Feature", "geometry": {"type": "Point", "coordinates": [2.4141562, 6.362398]}, "properties": {"claims": ["Gbégamey-Ahito", "Gbégamey-Centre", "Gbégamey-Dodo-Ayidjè"], "n_claims": 3, "current_owner": "<unclaimed>"}}]}