{"type": "FeatureCollection", "features": [{"type": "Feature", "geometry": {"type": "Point", "coordinates": [2.4432199, 6.3797861]}, "properties": {"component_size": 2, "commune": "COTONOU", "disposition": "OSM_GRAPH_FRAGMENTATION"}}, {"type": "Feature", "geometry": {"type": "Point", "coordinates": [2.243291, 6.3629273]}, "properties": {"component_size": 15, "commune": "ABOMEY-CALAVI", "disposition": "OSM_GRAPH_FRAGMENTATION"}}, {"type": "Feature", "geometry": {"type": "Point", "coordinates": [2.3238511, 6.4974333]}, "properties": {"component_size": 32, "commune": "ABOMEY-CALAVI", "disposition": "OSM_GRAPH_FRAGMENTATION"}}, {"type": "Feature", "geometry": {"type": "Point", "coordinates": [2.2477072, 6.3620049]}, "properties": {"component_size": 24, "commune": "ABOMEY-CALAVI", "disposition": "OSM_GRAPH_FRAGMENTATION"}}, {"type": "Feature", "geometry": {"type": "Point", "coordinates": [2.3991983, 6.3811697]}, "properties": {"component_size": 2, "commune": "COTONOU", "disposition": "OSM_GRAPH_FRAGMENTATION"}}, {"type": "Feature", "geometry": {"type": "Point", "coordinates": [2.3909453, 6.4743368]}, "properties": {"component_size": 1, "commune": "ABOMEY-CALAVI", "disposition": "OSM_GRAPH_FRAGMENTATION"}}, {"type": "Feature", "geometry": {"type": "Point", "coordinates": [2.394435, 6.4799143]}, "properties": {"component_size": 38, "commune": "ABOMEY-CALAVI", "disposition": "WATER_OR_BRIDGE_BLOCK"}}, {"type": "Feature", "geometry": {"type": "Point", "coordinates": [2.3984067, 6.375029]}, "properties": {"component_size": 2, "commune": "COTONOU", "disposition": "OSM_GRAPH_FRAGMENTATION"}}, {"type": "Feature", "geometry": {"type": "Point", "coordinates": [2.3994693, 6.4997951]}, "properties": {"component_size": 77, "commune": "ABOMEY-CALAVI", "disposition": "OSM_GRAPH_FRAGMENTATION"}}, {"type": "Feature", "geometry": {"type": "Point", "coordinates": [2.3999088, 6.4967458]}, "properties": {"component_size": 10, "commune": "ABOMEY-CALAVI", "disposition": "OSM_GRAPH_FRAGMENTATION"}}, {"type": "Feature", "geometry": {"type": "Point", "coordinates": [2.4418093, 6.3962725]}, "properties": {"component_size": 2, "commune": "COTONOU", "disposition": "OSM_GRAPH_FRAGMENTATION"}}, {"type": "Feature", "geometry": {"type": "Point", "coordinates": [2.445768, 6.39732]}, "properties": {"component_size": 18, "commune": "COTONOU", "disposition": "OSM_GRAPH_FRAGMENTATION"}}, {"type": "Feature", "geometry": {"type": "Point", "coordinates": [2.3992021, 6.3577568]}, "properties": {"component_size": 6, "commune": "COTONOU", "disposition": "OSM_GRAPH_FRAGMENTATION"}}, {"type": "Feature", "geometry": {"type": "Point", "coordinates": [2.4433193, 6.3599573]}, "properties": {"component_size": 2, "commune": "COTONOU", "disposition": "OSM_GRAPH_FRAGMENTATION"}}, {"type": "Feature", "geometry": {"type": "Point", "coordinates": [2.4450374, 6.3968376]}, "properties": {"component_size": 9, "commune": "COTONOU", "disposition": "OSM_GRAPH_FRAGMENTATION"}}, {"type": "Feature", "geometry": {"type": "Point", "coordinates": [2.4448214, 6.3968749]}, "properties": {"component_size": 6, "commune": "COTONOU", "disposition": "OSM_GRAPH_FRAGMENTATION"}}, {"type": "Feature", "geometry": {"type": "Point", "coordinates": [2.444421, 6.3969552]}, "properties": {"component_size": 9, "commune": "COTONOU", "disposition": "OSM_GRAPH_FRAGMENTATION"}}, {"type": "Feature", "geometry": {"type": "Point", "coordinates": [2.4292036, 6.3770423]}, "properties": {"component_size": 2, "commune": "COTONOU", "disposition": "OSM_GRAPH_FRAGMENTATION"}}, {"type": "Feature", "geometry": {"type": "Point", "coordinates": [2.434727, 6.3779388]}, "properties": {"component_size": 3, "commune": "COTONOU", "disposition": "OSM_GRAPH_FRAGMENTATION"}}, {"type": "Feature", "geometry": {"type": "Point", "coordinates": [2.4471416, 6.3963099]}, "properties": {"component_size": 4, "commune": "COTONOU", "disposition": "OSM_GRAPH_FRAGMENTATION"}}, {"type": "Feature", "geometry": {"type": "Point", "coordinates": [2.405166, 6.6675422]}, "properties": {"component_size": 12, "commune": "ABOMEY-CALAVI", "disposition": "OSM_GRAPH_FRAGMENTATION"}}, {"type": "Feature", "geometry": {"type": "Point", "coordinates": [2.4036089, 6.6676287]}, "properties": {"component_size": 8, "commune": "ABOMEY-CALAVI", "disposition": "OSM_GRAPH_FRAGMENTATION"}}, {"type": "Feature", "geometry": {"type": "Point", "coordinates": [2.396908, 6.6686204]}, "properties": {"component_size": 44, "commune": "ABOMEY-CALAVI", "disposition": "OSM_GRAPH_FRAGMENTATION"}}, {"type": "Feature", "geometry": {"type": "Point", "coordinates": [2.4214756, 6.3444556]}, "properties": {"component_size": 11, "commune": "COTONOU", "disposition": "OSM_GRAPH_FRAGMENTATION"}}, {"type": "Feature", "geometry": {"type": "Point", "coordinates": [2.4008439, 6.3871244]}, "properties": {"component_size": 10, "commune": "COTONOU", "disposition": "OSM_GRAPH_FRAGMENTATION"}}, {"type": "Feature", "geometry": {"type": "Point", "coordinates": [2.4457154, 6.3591322]}, "properties": {"component_size": 4, "commune": "COTONOU", "disposition": "OSM_GRAPH_FRAGMENTATION"}}, {"type": "Feature", "geometry": {"type": "Point", "coordinates": [2.4460258, 6.3595458]}, "properties": {"component_size": 1, "commune": "COTONOU", "disposition": "OSM_GRAPH_FRAGMENTATION"}}, {"type": "Feature", "geometry": {"type": "Point", "coordinates": [2.3993272, 6.3830149]}, "properties": {"component_size": 2, "commune": "COTONOU", "disposition": "OSM_GRAPH_FRAGMENTATION"}}, {"type": "Feature", "geometry": {"type": "Point", "coordinates": [2.2309757144088986, 6.375113480527866]}, "properties": {"component_size": 21, "commune": "ABOMEY-CALAVI", "disposition": "OSM_GRAPH_FRAGMENTATION"}}, {"type": "Feature", "geometry": {"type": "Point", "coordinates": [2.4074274, 6.6113458]}, "properties": {"component_size": 124, "commune": "ABOMEY-CALAVI", "disposition": "OSM_GRAPH_FRAGMENTATION"}}, {"type": "Feature", "geometry": {"type": "Point", "coordinates": [2.4592518, 6.3784291]}, "properties": {"component_size": 2, "commune": "COTONOU", "disposition": "OSM_GRAPH_FRAGMENTATION"}}, {"type": "Feature", "geometry": {"type": "Point", "coordinates": [2.4423221, 6.3824397]}, "properties": {"component_size": 2, "commune": "COTONOU", "disposition": "OSM_GRAPH_FRAGMENTATION"}}, {"type": "Feature", "geometry": {"type": "Point", "coordinates": [2.4418388, 6.3824423]}, "properties": {"component_size": 2, "commune": "COTONOU", "disposition": "OSM_GRAPH_FRAGMENTATION"}}, {"type": "Feature", "geometry": {"type": "Point", "coordinates": [2.4521474, 6.3943264]}, "properties": {"component_size": 1, "commune": "COTONOU", "disposition": "OSM_GRAPH_FRAGMENTATION"}}, {"type": "Feature", "geometry": {"type": "Point", "coordinates": [2.4681621, 6.377749]}, "properties": {"component_size": 2, "commune": "COTONOU", "disposition": "OSM_GRAPH_FRAGMENTATION"}}, {"type": "Feature", "geometry": {"type": "Point", "coordinates": [2.3996474, 6.3566424]}, "properties": {"component_size": 2, "commune": "COTONOU", "disposition": "OSM_GRAPH_FRAGMENTATION"}}, {"type": "Feature", "geometry": {"type": "Point", "coordinates": [2.4270225, 6.3549945]}, "properties": {"component_size": 4, "commune": "COTONOU", "disposition": "OSM_GRAPH_FRAGMENTATION"}}, {"type": "Feature", "geometry": {"type": "Point", "coordinates": [2.4000487, 6.4960489]}, "properties": {"component_size": 4, "commune": "ABOMEY-CALAVI", "disposition": "OSM_GRAPH_FRAGMENTATION"}}, {"type": "Feature", "geometry": {"type": "Point", "coordinates": [2.2272044, 6.4620265]}, "properties": {"component_size": 1, "commune": "ABOMEY-CALAVI", "disposition": "OSM_GRAPH_FRAGMENTATION"}}, {"type": "Feature", "geometry": {"type": "Point", "coordinates": [2.4060374, 6.5424624]}, "properties": {"component_size": 12, "commune": "ABOMEY-CALAVI", "disposition": "OSM_GRAPH_FRAGMENTATION"}}, {"type": "Feature", "geometry": {"type": "Point", "coordinates": [2.4681379, 6.3749302]}, "properties": {"component_size": 2, "commune": "COTONOU", "disposition": "OSM_GRAPH_FRAGMENTATION"}}, {"type": "Feature", "geometry": {"type": "Point", "coordinates": [2.3911281, 6.4746353]}, "properties": {"component_size": 6, "commune": "ABOMEY-CALAVI", "disposition": "WATER_OR_BRIDGE_BLOCK"}}, {"type": "Feature", "geometry": {"type": "Point", "coordinates": [2.3990105, 6.3681927]}, "properties": {"component_size": 2, "commune": "COTONOU", "disposition": "OSM_GRAPH_FRAGMENTATION"}}, {"type": "Feature", "geometry": {"type": "Point", "coordinates": [2.3245176, 6.5875834]}, "properties": {"component_size": 6, "commune": "ABOMEY-CALAVI", "disposition": "OSM_GRAPH_FRAGMENTATION"}}, {"type": "Feature", "geometry": {"type": "Point", "coordinates": [2.425207256193484, 6.343896534899212]}, "properties": {"component_size": 13, "commune": "COTONOU", "disposition": "OSM_GRAPH_FRAGMENTATION"}}, {"type": "Feature", "geometry": {"type": "Point", "coordinates": [2.424092, 6.3558751]}, "properties": {"component_size": 1, "commune": "COTONOU", "disposition": "OSM_GRAPH_FRAGMENTATION"}}, {"type": "Feature", "geometry": {"type": "Point", "coordinates": [2.2381761, 6.3648924]}, "properties": {"component_size": 5, "commune": "ABOMEY-CALAVI", "disposition": "OSM_GRAPH_FRAGMENTATION"}}, {"type": "Feature", "geometry": {"type": "Point", "coordinates": [2.4439652, 6.3599663]}, "properties": {"component_size": 1, "commune": "COTONOU", "disposition": "OSM_GRAPH_FRAGMENTATION"}}, {"type": "Feature", "geometry": {"type": "Point", "coordinates": [2.3957077, 6.3653865]}, "properties": {"component_size": 11, "commune": "COTONOU", "disposition": "OSM_GRAPH_FRAGMENTATION"}}, {"type": "Feature", "geometry": {"type": "Point", "coordinates": [2.2700019, 6.3969966]}, "properties": {"component_size": 2, "commune": "ABOMEY-CALAVI", "disposition": "OSM_GRAPH_FRAGMENTATION"}}, {"type": "Feature", "geometry": {"type": "Point", "coordinates": [2.2234453, 6.4213237]}, "properties": {"component_size": 1, "commune": "ABOMEY-CALAVI", "disposition": "OSM_GRAPH_FRAGMENTATION"}}, {"type": "Feature", "geometry": {"type": "Point", "coordinates": [2.4026558, 6.3882886]}, "properties": {"component_size": 3, "commune": "COTONOU", "disposition": "OSM_GRAPH_FRAGMENTATION"}}, {"type": "Feature", "geometry": {"type": "Point", "coordinates": [2.3759034, 6.3594951]}, "properties": {"component_size": 2, "commune": "COTONOU", "disposition": "OSM_GRAPH_FRAGMENTATION"}}, {"type": "Feature", "geometry": {"type": "Point", "coordinates": [2.2248756, 6.4235447]}, "properties": {"component_size": 4, "commune": "ABOMEY-CALAVI", "disposition": "OSM_GRAPH_FRAGMENTATION"}}, {"type": "Feature", "geometry": {"type": "Point", "coordinates": [2.3952306, 6.3657256]}, "properties": {"component_size": 1, "commune": "COTONOU", "disposition": "OSM_GRAPH_FRAGMENTATION"}}, {"type": "Feature", "geometry": {"type": "Point", "coordinates": [2.4330944, 6.3700339]}, "properties": {"component_size": 2, "commune": "COTONOU", "disposition": "OSM_GRAPH_FRAGMENTATION"}}, {"type": "Feature", "geometry": {"type": "Point", "coordinates": [2.4387342, 6.3710935]}, "properties": {"component_size": 1, "commune": "COTONOU", "disposition": "OSM_GRAPH_FRAGMENTATION"}}, {"type": "Feature", "geometry": {"type": "Point", "coordinates": [2.2999969, 6.5696211]}, "properties": {"component_size": 12, "commune": "ABOMEY-CALAVI", "disposition": "OSM_GRAPH_FRAGMENTATION"}}, {"type": "Feature", "geometry": {"type": "Point", "coordinates": [2.3838272, 6.636956]}, "properties": {"component_size": 5, "commune": "ABOMEY-CALAVI", "disposition": "OSM_GRAPH_FRAGMENTATION"}}, {"type": "Feature", "geometry": {"type": "Point", "coordinates": [2.3838599, 6.6497288]}, "properties": {"component_size": 7, "commune": "ABOMEY-CALAVI", "disposition": "OSM_GRAPH_FRAGMENTATION"}}, {"type": "Feature", "geometry": {"type": "Point", "coordinates": [2.3525621, 6.3894483]}, "properties": {"component_size": 20, "commune": "ABOMEY-CALAVI", "disposition": "OSM_GRAPH_FRAGMENTATION"}}, {"type": "Feature", "geometry": {"type": "Point", "coordinates": [2.3615006, 6.6846259]}, "properties": {"component_size": 14, "commune": "ABOMEY-CALAVI", "disposition": "OSM_GRAPH_FRAGMENTATION"}}, {"type": "Feature", "geometry": {"type": "Point", "coordinates": [2.4829422118501405, 6.3772040535678025]}, "properties": {"component_size": 2, "commune": "COTONOU", "disposition": "OSM_GRAPH_FRAGMENTATION"}}, {"type": "Feature", "geometry": {"type": "Point", "coordinates": [2.4188777, 6.344442]}, "properties": {"component_size": 1, "commune": "COTONOU", "disposition": "OSM_GRAPH_FRAGMENTATION"}}, {"type": "Feature", "geometry": {"type": "Point", "coordinates": [2.4264208, 6.3540098]}, "properties": {"component_size": 17, "commune": "COTONOU", "disposition": "OSM_GRAPH_FRAGMENTATION"}}, {"type": "Feature", "geometry": {"type": "Point", "coordinates": [2.359019, 6.3829583]}, "properties": {"component_size": 2, "commune": "ABOMEY-CALAVI", "disposition": "OSM_GRAPH_FRAGMENTATION"}}, {"type": "Feature", "geometry": {"type": "Point", "coordinates": [2.480696606495776, 6.384829350015753]}, "properties": {"component_size": 2, "commune": "COTONOU", "disposition": "OSM_GRAPH_FRAGMENTATION"}}, {"type": "Feature", "geometry": {"type": "Point", "coordinates": [2.4387175, 6.3713283]}, "properties": {"component_size": 1, "commune": "COTONOU", "disposition": "OSM_GRAPH_FRAGMENTATION"}}, {"type": "Feature", "geometry": {"type": "Point", "coordinates": [2.2984962, 6.3693542]}, "properties": {"component_size": 48, "commune": "ABOMEY-CALAVI", "disposition": "OSM_GRAPH_FRAGMENTATION"}}, {"type": "Feature", "geometry": {"type": "Point", "coordinates": [2.3968611, 6.3774672]}, "properties": {"component_size": 2, "commune": "COTONOU", "disposition": "OSM_GRAPH_FRAGMENTATION"}}, {"type": "Feature", "geometry": {"type": "Point", "coordinates": [2.2509098, 6.4564669]}, "properties": {"component_size": 2, "commune": "ABOMEY-CALAVI", "disposition": "OSM_GRAPH_FRAGMENTATION"}}, {"type": "Feature", "geometry": {"type": "Point", "coordinates": [2.3986097, 6.3788593]}, "properties": {"component_size": 2, "commune": "COTONOU", "disposition": "OSM_GRAPH_FRAGMENTATION"}}, {"type": "Feature", "geometry": {"type": "Point", "coordinates": [2.279309, 6.3562456]}, "properties": {"component_size": 2, "commune": "ABOMEY-CALAVI", "disposition": "OSM_GRAPH_FRAGMENTATION"}}, {"type": "Feature", "geometry": {"type": "Point", "coordinates": [2.4074838, 6.5451569]}, "properties": {"component_size": 11, "commune": "ABOMEY-CALAVI", "disposition": "OSM_GRAPH_FRAGMENTATION"}}, {"type": "Feature", "geometry": {"type": "Point", "coordinates": [2.2329269, 6.4970443]}, "properties": {"component_size": 2, "commune": "ABOMEY-CALAVI", "disposition": "OSM_GRAPH_FRAGMENTATION"}}, {"type": "Feature", "geometry": {"type": "Point", "coordinates": [2.2437165, 6.3748537]}, "properties": {"component_size": 2, "commune": "ABOMEY-CALAVI", "disposition": "OSM_GRAPH_FRAGMENTATION"}}]}