{"type": "FeatureCollection", "features": [{"type": "Feature", "geometry": {"type": "Point", "coordinates": [2.3512022, 6.3883616]}, "properties": {"quartier": "Sèdjannako\n", "component_size": 168, "disposition": "EQUAL_SPLIT", "eligible_owners": ["Plateau\n", "Yolomahouto"], "iteration": 1, "vertex_ids": [0, 1, 4580, 152070, 152071, 152072, 152073, 152074, 152075, 152076, 152077, 152078]}}, {"type": "Feature", "geometry": {"type": "Point", "coordinates": [2.3553061, 6.3893295]}, "properties": {"quartier": "Sèdjannako\n", "component_size": 12, "disposition": "REASSIGNED_TO_NEIGHBOUR", "new_owner": "Hlouacomey", "iteration": 1, "vertex_ids": [4904, 4905, 4906, 4907, 4908, 4909, 4910, 4911, 4912, 4913, 16236, 47536]}}, {"type": "Feature", "geometry": {"type": "Point", "coordinates": [2.3348884, 6.383234]}, "properties": {"quartier": "Ounvènoumèdé\n", "component_size": 6, "disposition": "EQUAL_SPLIT", "eligible_owners": ["Atrokpo-Codji", "Dénou\n"], "iteration": 1, "vertex_ids": [34, 35, 36, 37, 38, 39]}}, {"type": "Feature", "geometry": {"type": "Point", "coordinates": [2.3291232, 6.3855234]}, "properties": {"quartier": "Ounvènoumèdé\n", "component_size": 6, "disposition": "EQUAL_SPLIT", "eligible_owners": ["Atrokpo-Codji", "Dénou\n"], "iteration": 1, "vertex_ids": [16626, 16627, 16628, 16629, 16630, 16631]}}, {"type": "Feature", "geometry": {"type": "Point", "coordinates": [2.306545, 6.3857099]}, "properties": {"quartier": "Tokpa\n", "component_size": 1, "disposition": "REASSIGNED_TO_NEIGHBOUR", "new_owner": "Cocotomey", "iteration": 1, "vertex_ids": [31681]}}, {"type": "Feature", "geometry": {"type": "Point", "coordinates": [2.3065427, 6.3841114]}, "properties": {"quartier": "Tokpa\n", "component_size": 19, "disposition": "EQUAL_SPLIT", "eligible_owners": ["Logbozounkpa", "Cocotomey"], "iteration": 1, "vertex_ids": [51344, 51345, 51346, 51351, 51352, 130471, 130472, 51389, 51409, 51410, 51412, 51413]}}, {"type": "Feature", "geometry": {"type": "Point", "coordinates": [2.3056336, 6.3857594]}, "properties": {"quartier": "Tokpa\n", "component_size": 1, "disposition": "REASSIGNED_TO_NEIGHBOUR", "new_owner": "Cocotomey", "iteration": 1, "vertex_ids": [31657]}}, {"type": "Feature", "geometry": {"type": "Point", "coordinates": [2.3049, 6.3915159]}, "properties": {"quartier": "Tokpa\n", "component_size": 1, "disposition": "REASSIGNED_TO_NEIGHBOUR", "new_owner": "Cocotomey", "iteration": 1, "vertex_ids": [124796]}}, {"type": "Feature", "geometry": {"type": "Point", "coordinates": [2.2960755, 6.3866979]}, "properties": {"quartier": "Fandji\n", "component_size": 1, "disposition": "REASSIGNED_TO_NEIGHBOUR", "new_owner": "Cocotomey", "iteration": 1, "vertex_ids": [31793]}}, {"type": "Feature", "geometry": {"type": "Point", "coordinates": [2.2952276, 6.3870071]}, "properties": {"quartier": "Fandji\n", "component_size": 10, "disposition": "REASSIGNED_TO_NEIGHBOUR", "new_owner": "Gbodjè-Womey\n", "iteration": 1, "vertex_ids": [80, 81, 82, 83, 84, 85, 86, 87, 88, 89]}}, {"type": "Feature", "geometry": {"type": "Point", "coordinates": [2.2976256, 6.3940205]}, "properties": {"quartier": "Fandji\n", "component_size": 1, "disposition": "REASSIGNED_TO_NEIGHBOUR", "new_owner": "Cocotomey", "iteration": 1, "vertex_ids": [58010]}}, {"type": "Feature", "geometry": {"type": "Point", "coordinates": [2.3451767, 6.4761632]}, "properties": {"quartier": "Fandji\n", "component_size": 1, "disposition": "REASSIGNED_TO_NEIGHBOUR", "new_owner": "Cité-les-Palmiers\n", "iteration": 1, "vertex_ids": [152279]}}, {"type": "Feature", "geometry": {"type": "Point", "coordinates": [2.4389704, 6.3696522]}, "properties": {"quartier": "Gbénonkpô", "component_size": 8, "disposition": "REASSIGNED_TO_NEIGHBOUR", "new_owner": "Dédokpo", "iteration": 1, "vertex_ids": [63779, 63780, 63781, 130220, 130221, 130222, 32408, 32409]}}, {"type": "Feature", "geometry": {"type": "Point", "coordinates": [2.4421756, 6.3742882]}, "properties": {"quartier": "Gbénonkpô", "component_size": 2, "disposition": "EQUAL_SPLIT", "eligible_owners": ["Adjégounlè", "Kpankpan"], "iteration": 1, "vertex_ids": [7732, 7719]}}, {"type": "Feature", "geometry": {"type": "Point", "coordinates": [2.4396756, 6.3718132]}, "properties": {"quartier": "Gbénonkpô", "component_size": 7, "disposition": "REASSIGNED_TO_NEIGHBOUR", "new_owner": "Kpankpan", "iteration": 1, "vertex_ids": [7884, 7885, 7886, 7727, 7739, 7738, 7867]}}, {"type": "Feature", "geometry": {"type": "Point", "coordinates": [2.4386968, 6.3714179]}, "properties": {"quartier": "Gbénonkpô", "component_size": 1, "disposition": "REASSIGNED_TO_NEIGHBOUR", "new_owner": "Dantôkpa", "iteration": 1, "vertex_ids": [224]}}, {"type": "Feature", "geometry": {"type": "Point", "coordinates": [2.4387175, 6.3713283]}, "properties": {"quartier": "Gbénonkpô", "component_size": 1, "disposition": "REASSIGNED_TO_NEIGHBOUR", "new_owner": "Dantôkpa", "iteration": 1, "vertex_ids": [2163]}}, {"type": "Feature", "geometry": {"type": "Point", "coordinates": [2.4333094, 6.3690709]}, "properties": {"quartier": "Dantôkpa", "component_size": 3, "disposition": "REASSIGNED_TO_NEIGHBOUR", "new_owner": "Nouveau-Pont", "iteration": 1, "vertex_ids": [33298, 33299, 33300]}}, {"type": "Feature", "geometry": {"type": "Point", "coordinates": [2.43453, 6.3694285]}, "properties": {"quartier": "Dantôkpa", "component_size": 1, "disposition": "REASSIGNED_TO_NEIGHBOUR", "new_owner": "Bocossi-Tokpa", "iteration": 1, "vertex_ids": [40055]}}, {"type": "Feature", "geometry": {"type": "Point", "coordinates": [2.4407337, 6.3718183]}, "properties": {"quartier": "Kpankpan", "component_size": 4, "disposition": "REASSIGNED_TO_NEIGHBOUR", "new_owner": "Dantôkpa", "iteration": 1, "vertex_ids": [130208, 237, 130206, 130207]}}, {"type": "Feature", "geometry": {"type": "Point", "coordinates": [2.4407208, 6.3717118]}, "properties": {"quartier": "Kpankpan", "component_size": 4, "disposition": "REASSIGNED_TO_NEIGHBOUR", "new_owner": "Dantôkpa", "iteration": 1, "vertex_ids": [130209, 130210, 130211, 53202]}}, {"type": "Feature", "geometry": {"type": "Point", "coordinates": [2.4152461, 6.3577838]}, "properties": {"quartier": "Gbégamey-Mifongou", "component_size": 1, "disposition": "REASSIGNED_TO_NEIGHBOUR", "new_owner": "Gbèdiga-Guêdêhounguè", "iteration": 1, "vertex_ids": [130977]}}, {"type": "Feature", "geometry": {"type": "Point", "coordinates": [2.3949766, 6.3651611]}, "properties": {"quartier": "Cadjèhoun-Kpota", "component_size": 88, "disposition": "EQUAL_SPLIT", "eligible_owners": ["Cadjèhoun-Azalokogon", "Haie-Vive-Cocotiers"], "iteration": 1, "vertex_ids": [519, 520, 521, 522, 523, 524, 525, 526, 527, 528, 529, 530]}}, {"type": "Feature", "geometry": {"type": "Point", "coordinates": [2.3952306, 6.3657256]}, "properties": {"quartier": "Cadjèhoun-Kpota", "component_size": 2, "disposition": "REASSIGNED_TO_NEIGHBOUR", "new_owner": "Cadjèhoun-Azalokogon", "iteration": 1, "vertex_ids": [5000, 4999]}}, {"type": "Feature", "geometry": {"type": "Point", "coordinates": [2.4187678, 6.3546902]}, "properties": {"quartier": "Gbèdiga-Guêdêhounguè", "component_size": 4, "disposition": "REASSIGNED_TO_NEIGHBOUR", "new_owner": "Zongo-Ehuzu", "iteration": 1, "vertex_ids": [344, 345, 346, 343]}}, {"type": "Feature", "geometry": {"type": "Point", "coordinates": [2.423231, 6.3647346]}, "properties": {"quartier": "Gbèdomidji", "component_size": 5, "disposition": "REASSIGNED_TO_NEIGHBOUR", "new_owner": "Gbènan", "iteration": 1, "vertex_ids": [151968, 151969, 151965, 151966, 151967]}}, {"type": "Feature", "geometry": {"type": "Point", "coordinates": [2.4270372, 6.3623519]}, "properties": {"quartier": "Mifongou", "component_size": 1, "disposition": "EQUAL_SPLIT", "eligible_owners": ["Gbédokpo", "Gbéto"], "iteration": 1, "vertex_ids": [56702]}}, {"type": "Feature", "geometry": {"type": "Point", "coordinates": [2.399437, 6.35647]}, "properties": {"quartier": "Haie-Vive-Cocotiers", "component_size": 22, "disposition": "REASSIGNED_TO_NEIGHBOUR", "new_owner": "Cadjèhoun-Azalokogon", "iteration": 1, "vertex_ids": [412, 413, 414, 415, 416, 418, 4914, 4915, 4916, 962, 966, 967]}}, {"type": "Feature", "geometry": {"type": "Point", "coordinates": [2.3997463, 6.3566798]}, "properties": {"quartier": "Haie-Vive-Cocotiers", "component_size": 1, "disposition": "REASSIGNED_TO_NEIGHBOUR", "new_owner": "Cadjèhoun-Azalokogon", "iteration": 1, "vertex_ids": [863]}}, {"type": "Feature", "geometry": {"type": "Point", "coordinates": [2.3972498, 6.3565767]}, "properties": {"quartier": "Haie-Vive-Cocotiers", "component_size": 1, "disposition": "EQUAL_SPLIT", "eligible_owners": ["Cadjèhoun-Azalokogon", "Cadjèhoun-Agonga"], "iteration": 1, "vertex_ids": [16524]}}, {"type": "Feature", "geometry": {"type": "Point", "coordinates": [2.3905342, 6.3577518]}, "properties": {"quartier": "Haie-Vive-Cocotiers", "component_size": 1, "disposition": "REASSIGNED_TO_NEIGHBOUR", "new_owner": "Cadjèhoun-Agonga", "iteration": 1, "vertex_ids": [7662]}}, {"type": "Feature", "geometry": {"type": "Point", "coordinates": [2.389983, 6.3573581]}, "properties": {"quartier": "Haie-Vive-Cocotiers", "component_size": 2, "disposition": "REASSIGNED_TO_NEIGHBOUR", "new_owner": "Cadjèhoun-Agonga", "iteration": 1, "vertex_ids": [7675, 7676]}}, {"type": "Feature", "geometry": {"type": "Point", "coordinates": [2.4246715, 6.3562419]}, "properties": {"quartier": "Zongo-Ehuzu", "component_size": 24, "disposition": "EQUAL_SPLIT", "eligible_owners": ["Gbèdiga-Guêdêhounguè", "Zongo-Nima"], "iteration": 1, "vertex_ids": [146836, 146837, 146838, 16533, 16534, 58337, 58338, 58339, 58340, 58341, 58081, 58082]}}, {"type": "Feature", "geometry": {"type": "Point", "coordinates": [2.427746, 6.3549013]}, "properties": {"quartier": "Zongo-Ehuzu", "component_size": 7, "disposition": "REASSIGNED_TO_NEIGHBOUR", "new_owner": "Zongo-Nima", "iteration": 1, "vertex_ids": [119118, 119119, 119120, 119093, 119094, 119095, 6872]}}, {"type": "Feature", "geometry": {"type": "Point", "coordinates": [2.4255921, 6.3530637]}, "properties": {"quartier": "Zongo-Ehuzu", "component_size": 12, "disposition": "REASSIGNED_TO_NEIGHBOUR", "new_owner": "Zongo-Nima", "iteration": 1, "vertex_ids": [130275, 130276, 130277, 130278, 130279, 130280, 130281, 130282, 130283, 130284, 130285, 130286]}}, {"type": "Feature", "geometry": {"type": "Point", "coordinates": [2.3997421, 6.3694411]}, "properties": {"quartier": "Vodjè-Kpota", "component_size": 8, "disposition": "REASSIGNED_TO_NEIGHBOUR", "new_owner": "Houéyihô", "iteration": 1, "vertex_ids": [2035, 2036, 2037, 2038, 2039, 2040, 7452, 7453]}}, {"type": "Feature", "geometry": {"type": "Point", "coordinates": [2.3970104, 6.3691796]}, "properties": {"quartier": "Vodjè-Kpota", "component_size": 2, "disposition": "EQUAL_SPLIT", "eligible_owners": ["Vodjè-Finagnon", "Houéyihô"], "iteration": 1, "vertex_ids": [146970, 146971]}}, {"type": "Feature", "geometry": {"type": "Point", "coordinates": [2.3957077, 6.3653865]}, "properties": {"quartier": "Vodjè-Kpota", "component_size": 15, "disposition": "REASSIGNED_TO_NEIGHBOUR", "new_owner": "Cadjèhoun-Azalokogon", "iteration": 1, "vertex_ids": [40866, 40867, 40868, 40869, 40870, 40871, 40872, 40873, 40874, 40875, 40876, 6712]}}, {"type": "Feature", "geometry": {"type": "Point", "coordinates": [2.3896421, 6.3772967]}, "properties": {"quartier": "Houéyihô-Tannou", "component_size": 59, "disposition": "EQUAL_SPLIT", "eligible_owners": ["Missogbé", "Védokô"], "iteration": 1, "vertex_ids": [1670, 1671, 1672, 393, 394, 395, 396, 5133, 5132, 397, 398, 399]}}, {"type": "Feature", "geometry": {"type": "Point", "coordinates": [2.3896068, 6.3734606]}, "properties": {"quartier": "Houéyihô-Tannou", "component_size": 191, "disposition": "REASSIGNED_TO_NEIGHBOUR", "new_owner": "Ahogbohoué-Cité-Eucharistie", "iteration": 1, "vertex_ids": [82128, 125175, 125176, 13522, 82130, 125177, 82131, 125178, 125179, 125180, 82136, 82137]}}, {"type": "Feature", "geometry": {"type": "Point", "coordinates": [2.3946105, 6.3668104]}, "properties": {"quartier": "Houéyihô-Tannou", "component_size": 5, "disposition": "REASSIGNED_TO_NEIGHBOUR", "new_owner": "Cadjèhoun-Azalokogon", "iteration": 1, "vertex_ids": [1201, 1202, 1203, 1204, 1205]}}, {"type": "Feature", "geometry": {"type": "Point", "coordinates": [2.395108, 6.3659274]}, "properties": {"quartier": "Houéyihô-Tannou", "component_size": 6, "disposition": "EQUAL_SPLIT", "eligible_owners": ["Cadjèhoun-Azalokogon", "Houéyihô"], "iteration": 1, "vertex_ids": [5001, 5002, 5003, 5004, 5005, 5006]}}, {"type": "Feature", "geometry": {"type": "Point", "coordinates": [2.4005905, 6.3583222]}, "properties": {"quartier": "Cadjèhoun-Azalokogon", "component_size": 3, "disposition": "REASSIGNED_TO_NEIGHBOUR", "new_owner": "Cadjèhoun-Gare", "iteration": 1, "vertex_ids": [40259, 40260, 40261]}}, {"type": "Feature", "geometry": {"type": "Point", "coordinates": [2.4011435, 6.3556564]}, "properties": {"quartier": "Cadjèhoun-Azalokogon", "component_size": 5, "disposition": "REASSIGNED_TO_NEIGHBOUR", "new_owner": "Ahouanlèko", "iteration": 1, "vertex_ids": [55302, 55303, 55304, 55305, 55306]}}, {"type": "Feature", "geometry": {"type": "Point", "coordinates": [2.3991916, 6.3557679]}, "properties": {"quartier": "Cadjèhoun-Azalokogon", "component_size": 8, "disposition": "REASSIGNED_TO_NEIGHBOUR", "new_owner": "Haie-Vive-Cocotiers", "iteration": 1, "vertex_ids": [40416, 40417, 40418, 965, 59541, 16508, 16509, 16510]}}, {"type": "Feature", "geometry": {"type": "Point", "coordinates": [2.4005171, 6.356665]}, "properties": {"quartier": "Cadjèhoun-Azalokogon", "component_size": 2, "disposition": "REASSIGNED_TO_NEIGHBOUR", "new_owner": "Cadjèhoun-Aupiais", "iteration": 1, "vertex_ids": [864, 865]}}, {"type": "Feature", "geometry": {"type": "Point", "coordinates": [2.3979959, 6.3565556]}, "properties": {"quartier": "Cadjèhoun-Azalokogon", "component_size": 1, "disposition": "REASSIGNED_TO_NEIGHBOUR", "new_owner": "Haie-Vive-Cocotiers", "iteration": 1, "vertex_ids": [7593]}}, {"type": "Feature", "geometry": {"type": "Point", "coordinates": [2.4268734, 6.3701952]}, "properties": {"quartier": "Jéricho-Sud", "component_size": 21, "disposition": "EQUAL_SPLIT", "eligible_owners": ["Sèdami", "Jéricho-Nord"], "iteration": 1, "vertex_ids": [151459, 151460, 421, 422, 151463, 423, 151461, 151462, 151465, 151464, 3156, 3157]}}, {"type": "Feature", "geometry": {"type": "Point", "coordinates": [2.426628, 6.3705484]}, "properties": {"quartier": "Jéricho-Sud", "component_size": 1, "disposition": "REASSIGNED_TO_NEIGHBOUR", "new_owner": "Jéricho-Nord", "iteration": 1, "vertex_ids": [151458]}}, {"type": "Feature", "geometry": {"type": "Point", "coordinates": [2.4274874, 6.3698148]}, "properties": {"quartier": "Sèdami", "component_size": 2, "disposition": "REASSIGNED_TO_NEIGHBOUR", "new_owner": "Jéricho-Sud", "iteration": 1, "vertex_ids": [5611, 5612]}}, {"type": "Feature", "geometry": {"type": "Point", "coordinates": [2.4274776, 6.369714]}, "properties": {"quartier": "Sèdami", "component_size": 1, "disposition": "REASSIGNED_TO_NEIGHBOUR", "new_owner": "Gbènan", "iteration": 1, "vertex_ids": [145996]}}, {"type": "Feature", "geometry": {"type": "Point", "coordinates": [2.4201009, 6.3708704]}, "properties": {"quartier": "Sèhogan-Sikê", "component_size": 1, "disposition": "EQUAL_SPLIT", "eligible_owners": ["Sèdami", "Fignon-Sikê"], "iteration": 1, "vertex_ids": [6283]}}, {"type": "Feature", "geometry": {"type": "Point", "coordinates": [2.4125947, 6.3691223]}, "properties": {"quartier": "Dagbédji-Sikê", "component_size": 2, "disposition": "REASSIGNED_TO_NEIGHBOUR", "new_owner": "Saint-Jean-Gbèdiga", "iteration": 1, "vertex_ids": [68164, 68165]}}, {"type": "Feature", "geometry": {"type": "Point", "coordinates": [2.4129032, 6.3686264]}, "properties": {"quartier": "Dagbédji-Sikê", "component_size": 4, "disposition": "EQUAL_SPLIT", "eligible_owners": ["Saint-Jean-Gbèdiga", "Gbégamey-Dodo-Ayidjè"], "iteration": 1, "vertex_ids": [3064, 3002, 3003, 2983]}}, {"type": "Feature", "geometry": {"type": "Point", "coordinates": [2.4141981, 6.371138]}, "properties": {"quartier": "Dagbédji-Sikê", "component_size": 2, "disposition": "REASSIGNED_TO_NEIGHBOUR", "new_owner": "Énagnon-Sikê", "iteration": 1, "vertex_ids": [441, 442]}}, {"type": "Feature", "geometry": {"type": "Point", "coordinates": [2.4120481, 6.3694528]}, "properties": {"quartier": "Dagbédji-Sikê", "component_size": 2, "disposition": "REASSIGNED_TO_NEIGHBOUR", "new_owner": "Saint-Jean-Gbèdiga", "iteration": 1, "vertex_ids": [2130, 2131]}}, {"type": "Feature", "geometry": {"type": "Point", "coordinates": [2.3927397, 6.3672869]}, "properties": {"quartier": "Houéyihô", "component_size": 2, "disposition": "REASSIGNED_TO_NEIGHBOUR", "new_owner": "Houénoussou", "iteration": 1, "vertex_ids": [6725, 6726]}}, {"type": "Feature", "geometry": {"type": "Point", "coordinates": [2.3935041, 6.3701805]}, "properties": {"quartier": "Houéyihô", "component_size": 10, "disposition": "REASSIGNED_TO_NEIGHBOUR", "new_owner": "Ahogbohoué-Cité-Eucharistie", "iteration": 1, "vertex_ids": [118670, 118671, 59635, 59636, 59637, 16442, 16443, 16444, 16445, 16446]}}, {"type": "Feature", "geometry": {"type": "Point", "coordinates": [2.3945629, 6.3669557]}, "properties": {"quartier": "Houéyihô", "component_size": 4, "disposition": "EQUAL_SPLIT", "eligible_owners": ["Cadjèhoun-Azalokogon", "Ahogbohoué-Cité-Eucharistie"], "iteration": 1, "vertex_ids": [1200, 1199, 486, 487]}}, {"type": "Feature", "geometry": {"type": "Point", "coordinates": [2.4229451, 6.3757797]}, "properties": {"quartier": "Jéricho-Nord", "component_size": 2, "disposition": "EQUAL_SPLIT", "eligible_owners": ["Aïdjèdo-Ahito", "Fignon-Sikê"], "iteration": 1, "vertex_ids": [73728, 73729]}}, {"type": "Feature", "geometry": {"type": "Point", "coordinates": [2.3950776, 6.3765872]}, "properties": {"quartier": "Tonato", "component_size": 19, "disposition": "EQUAL_SPLIT", "eligible_owners": ["Vodjè-Finagnon", "Houéyihô-Tannou"], "iteration": 1, "vertex_ids": [7552, 7554, 7555, 7556, 7557, 7558, 7559, 7580, 7459, 7462, 7484, 7517]}}, {"type": "Feature", "geometry": {"type": "Point", "coordinates": [2.4256266, 6.3530235]}, "properties": {"quartier": "Zongo-Nima", "component_size": 58, "disposition": "REASSIGNED_TO_NEIGHBOUR", "new_owner": "Zongo-Ehuzu", "iteration": 1, "vertex_ids": [130273, 130267, 130268, 119096, 119097, 130269, 142011, 142012, 142013, 142014, 142015, 142016]}}, {"type": "Feature", "geometry": {"type": "Point", "coordinates": [2.4238902, 6.3550757]}, "properties": {"quartier": "Zongo-Nima", "component_size": 3, "disposition": "REASSIGNED_TO_NEIGHBOUR", "new_owner": "Zongo-Ehuzu", "iteration": 1, "vertex_ids": [6792, 6793, 6791]}}, {"type": "Feature", "geometry": {"type": "Point", "coordinates": [2.4063009, 6.3648345]}, "properties": {"quartier": "Gbégamey-Ahito", "component_size": 5, "disposition": "EQUAL_SPLIT", "eligible_owners": ["Gbégamey-Mifongou", "Cadjèhoun-Détinsa"], "iteration": 1, "vertex_ids": [145648, 145649, 145650, 145651, 145652]}}, {"type": "Feature", "geometry": {"type": "Point", "coordinates": [2.4073231, 6.3627424]}, "properties": {"quartier": "Gbégamey-Ahito", "component_size": 1, "disposition": "EQUAL_SPLIT", "eligible_owners": ["Gbégamey-Mifongou", "Cadjèhoun-Gare"], "iteration": 1, "vertex_ids": [3105]}}, {"type": "Feature", "geometry": {"type": "Point", "coordinates": [2.4097623, 6.3661474]}, "properties": {"quartier": "Gbégamey-Ahito", "component_size": 1, "disposition": "REASSIGNED_TO_NEIGHBOUR", "new_owner": "Gbégamey-Dodo-Ayidjè", "iteration": 1, "vertex_ids": [3061]}}, {"type": "Feature", "geometry": {"type": "Point", "coordinates": [2.4140465, 6.3656635]}, "properties": {"quartier": "Gbégamey-Dodo-Ayidjè", "component_size": 2, "disposition": "EQUAL_SPLIT", "eligible_owners": ["Gbégamey-Mifongou", "Saint-Jean-Gbèdiga"], "iteration": 1, "vertex_ids": [3088, 3089]}}, {"type": "Feature", "geometry": {"type": "Point", "coordinates": [2.4039821, 6.3537811]}, "properties": {"quartier": "Ahouanlèko", "component_size": 9, "disposition": "REASSIGNED_TO_NEIGHBOUR", "new_owner": "Haie-Vive-Cocotiers", "iteration": 1, "vertex_ids": [15013, 15014, 15015, 15016, 15017, 4918, 4919, 4920, 4921]}}, {"type": "Feature", "geometry": {"type": "Point", "coordinates": [2.4386156, 6.360036]}, "properties": {"quartier": "Tokpa-Hoho", "component_size": 11, "disposition": "EQUAL_SPLIT", "eligible_owners": ["Guinkômey", "Missèbô"], "iteration": 1, "vertex_ids": [6918, 68170, 68171, 68172, 68173, 68174, 68175, 1843, 59575, 59576, 59577]}}, {"type": "Feature", "geometry": {"type": "Point", "coordinates": [2.4382416, 6.3613955]}, "properties": {"quartier": "Tokpa-Hoho", "component_size": 1, "disposition": "REASSIGNED_TO_NEIGHBOUR", "new_owner": "Missèbô", "iteration": 1, "vertex_ids": [126170]}}, {"type": "Feature", "geometry": {"type": "Point", "coordinates": [2.4390399, 6.360708]}, "properties": {"quartier": "Tokpa-Hoho", "component_size": 1, "disposition": "REASSIGNED_TO_NEIGHBOUR", "new_owner": "Missèbô", "iteration": 1, "vertex_ids": [126181]}}, {"type": "Feature", "geometry": {"type": "Point", "coordinates": [2.3801454, 6.3499554]}, "properties": {"quartier": "Fiyégnon-Jacquot", "component_size": 144, "disposition": "REASSIGNED_TO_NEIGHBOUR", "new_owner": "Cadjèhoun-Azalokogon", "iteration": 1, "vertex_ids": [38915, 38916, 38917, 38918, 38919, 38920, 38921, 38922, 38923, 38924, 38925, 38926]}}, {"type": "Feature", "geometry": {"type": "Point", "coordinates": [2.3573437, 6.3527846]}, "properties": {"quartier": "Togbin-Fandji", "component_size": 2, "disposition": "REASSIGNED_TO_NEIGHBOUR", "new_owner": "Fidjrossè-Kpota", "iteration": 1, "vertex_ids": [102725, 102726]}}, {"type": "Feature", "geometry": {"type": "Point", "coordinates": [2.3566331, 6.3590726]}, "properties": {"quartier": "Togbin-Fandji", "component_size": 6, "disposition": "REASSIGNED_TO_NEIGHBOUR", "new_owner": "Fidjrossè-Kpota", "iteration": 1, "vertex_ids": [130824, 130825, 130826, 41430, 41431, 41435]}}, {"type": "Feature", "geometry": {"type": "Point", "coordinates": [2.355463, 6.3665216]}, "properties": {"quartier": "Godomey-N'Gbèho", "component_size": 1, "disposition": "REASSIGNED_TO_NEIGHBOUR", "new_owner": "Hlazounto", "iteration": 1, "vertex_ids": [125184]}}, {"type": "Feature", "geometry": {"type": "Point", "coordinates": [2.3561063, 6.3668722]}, "properties": {"quartier": "Godomey-N'Gbèho", "component_size": 4, "disposition": "REASSIGNED_TO_NEIGHBOUR", "new_owner": "Hlazounto", "iteration": 1, "vertex_ids": [40424, 40425, 132080, 132081]}}, {"type": "Feature", "geometry": {"type": "Point", "coordinates": [2.3549567, 6.3669457]}, "properties": {"quartier": "Godomey-N'Gbèho", "component_size": 1, "disposition": "REASSIGNED_TO_NEIGHBOUR", "new_owner": "Hlazounto", "iteration": 1, "vertex_ids": [40427]}}, {"type": "Feature", "geometry": {"type": "Point", "coordinates": [2.3762917, 6.3595991]}, "properties": {"quartier": "Adjaha-Cité", "component_size": 5, "disposition": "REASSIGNED_TO_NEIGHBOUR", "new_owner": "Fidjrossè-Centre", "iteration": 1, "vertex_ids": [130883, 130884, 132261, 132262, 132263]}}, {"type": "Feature", "geometry": {"type": "Point", "coordinates": [2.3646784, 6.361785]}, "properties": {"quartier": "Adjaha-Cité", "component_size": 1, "disposition": "REASSIGNED_TO_NEIGHBOUR", "new_owner": "Fidjrossè-Kpota", "iteration": 1, "vertex_ids": [147314]}}, {"type": "Feature", "geometry": {"type": "Point", "coordinates": [2.3760349, 6.3600976]}, "properties": {"quartier": "Adjaha-Cité", "component_size": 7, "disposition": "EQUAL_SPLIT", "eligible_owners": ["Aïbatin-Dodo", "Fidjrossè-Centre"], "iteration": 1, "vertex_ids": [116116, 116117, 116118, 116119, 116120, 116121, 116122]}}, {"type": "Feature", "geometry": {"type": "Point", "coordinates": [2.3727862, 6.3847904]}, "properties": {"quartier": "Kouhounou", "component_size": 4, "disposition": "REASSIGNED_TO_NEIGHBOUR", "new_owner": "Agla-Petit-Château", "iteration": 1, "vertex_ids": [125930, 126059, 126060, 126061]}}, {"type": "Feature", "geometry": {"type": "Point", "coordinates": [2.3816487, 6.3776323]}, "properties": {"quartier": "Védokô", "component_size": 38, "disposition": "EQUAL_SPLIT", "eligible_owners": ["Kouhounou", "Ahogbohoué-Cité-Eucharistie"], "iteration": 1, "vertex_ids": [80777, 80778, 80779, 80780, 80781, 80782, 80783, 80784, 80785, 12610, 81352, 81353]}}, {"type": "Feature", "geometry": {"type": "Point", "coordinates": [2.4514584, 6.3654771]}, "properties": {"quartier": "Ohé", "component_size": 83, "disposition": "EQUAL_SPLIT", "eligible_owners": ["Énagnon", "Akpakpa-Dodomè"], "iteration": 1, "vertex_ids": [2068, 2069, 2070, 2071, 2072, 2073, 2074, 2075, 2076, 2077, 2078, 2079]}}, {"type": "Feature", "geometry": {"type": "Point", "coordinates": [2.4443692, 6.3624738]}, "properties": {"quartier": "Ohé", "component_size": 2, "disposition": "REASSIGNED_TO_NEIGHBOUR", "new_owner": "Abokicodji-Lagune", "iteration": 1, "vertex_ids": [7834, 7812]}}, {"type": "Feature", "geometry": {"type": "Point", "coordinates": [2.4493393, 6.3650414]}, "properties": {"quartier": "Ohé", "component_size": 6, "disposition": "EQUAL_SPLIT", "eligible_owners": ["Abokicodji-Centre", "Sodjatinmè-Ouest"], "iteration": 1, "vertex_ids": [32460, 32461, 32462, 32463, 32464, 32446]}}, {"type": "Feature", "geometry": {"type": "Point", "coordinates": [2.45186, 6.3657095]}, "properties": {"quartier": "Sodjatinmè-Centre", "component_size": 17, "disposition": "REASSIGNED_TO_NEIGHBOUR", "new_owner": "Énagnon", "iteration": 1, "vertex_ids": [1738, 1739, 1740, 2061, 2062, 2063, 2064, 2065, 2066, 2067, 1744, 1743]}}, {"type": "Feature", "geometry": {"type": "Point", "coordinates": [2.4544274, 6.3661842]}, "properties": {"quartier": "Sodjatinmè-Centre", "component_size": 9, "disposition": "REASSIGNED_TO_NEIGHBOUR", "new_owner": "Akpakpa-Dodomè", "iteration": 1, "vertex_ids": [1774, 1775, 1776, 1777, 1778, 1779, 1780, 1781, 1782]}}, {"type": "Feature", "geometry": {"type": "Point", "coordinates": [2.4496844, 6.3588078]}, "properties": {"quartier": "Akpakpa-Dodomè", "component_size": 142, "disposition": "REASSIGNED_TO_NEIGHBOUR", "new_owner": "Énagnon", "iteration": 1, "vertex_ids": [12887, 152261, 12925, 12926, 12927, 12928, 12929, 12930, 12931, 12932, 150176, 150177]}}, {"type": "Feature", "geometry": {"type": "Point", "coordinates": [2.4360517, 6.365222]}, "properties": {"quartier": "Missèbô", "component_size": 1, "disposition": "REASSIGNED_TO_NEIGHBOUR", "new_owner": "Bocossi-Tokpa", "iteration": 1, "vertex_ids": [6919]}}, {"type": "Feature", "geometry": {"type": "Point", "coordinates": [2.4017824, 6.3705622]}, "properties": {"quartier": "Vodjè-Centre", "component_size": 2, "disposition": "REASSIGNED_TO_NEIGHBOUR", "new_owner": "Vodjè-Ayidoté", "iteration": 1, "vertex_ids": [16400, 6700]}}, {"type": "Feature", "geometry": {"type": "Point", "coordinates": [2.4056268, 6.3681151]}, "properties": {"quartier": "Vodjè-Centre", "component_size": 3, "disposition": "EQUAL_SPLIT", "eligible_owners": ["Vodjè-Allobatin", "Cadjèhoun-Détinsa"], "iteration": 1, "vertex_ids": [3031, 16447, 2967]}}, {"type": "Feature", "geometry": {"type": "Point", "coordinates": [2.4026893, 6.3720331]}, "properties": {"quartier": "Vodjè-Finagnon", "component_size": 11, "disposition": "EQUAL_SPLIT", "eligible_owners": ["Houéyihô", "Vodjè-Ayidoté"], "iteration": 1, "vertex_ids": [6723, 149707, 6701, 6702, 6703, 6704, 6705, 130959, 5723, 7454, 7455]}}, {"type": "Feature", "geometry": {"type": "Point", "coordinates": [2.4002153, 6.3693418]}, "properties": {"quartier": "Vodjè-Finagnon", "component_size": 2, "disposition": "REASSIGNED_TO_NEIGHBOUR", "new_owner": "Vodjè-Kpota", "iteration": 1, "vertex_ids": [3207, 16391]}}, {"type": "Feature", "geometry": {"type": "Point", "coordinates": [2.4021454, 6.3700934]}, "properties": {"quartier": "Vodjè-Finagnon", "component_size": 2, "disposition": "EQUAL_SPLIT", "eligible_owners": ["Vodjè-Centre", "Vodjè-Ayidoté"], "iteration": 1, "vertex_ids": [5721, 5722]}}, {"type": "Feature", "geometry": {"type": "Point", "coordinates": [2.4103328, 6.3779097]}, "properties": {"quartier": "Houéhoun", "component_size": 1, "disposition": "EQUAL_SPLIT", "eligible_owners": ["Agontinkon", "Minonkpô-Wologuèdè"], "iteration": 1, "vertex_ids": [6104]}}, {"type": "Feature", "geometry": {"type": "Point", "coordinates": [2.4440124, 6.3634423]}, "properties": {"quartier": "Abokicodji-Centre", "component_size": 2, "disposition": "REASSIGNED_TO_NEIGHBOUR", "new_owner": "Abokicodji-Lagune", "iteration": 1, "vertex_ids": [7811, 7813]}}, {"type": "Feature", "geometry": {"type": "Point", "coordinates": [2.4442341, 6.3642457]}, "properties": {"quartier": "Abokicodji-Centre", "component_size": 1, "disposition": "REASSIGNED_TO_NEIGHBOUR", "new_owner": "Abokicodji-Lagune", "iteration": 1, "vertex_ids": [7775]}}, {"type": "Feature", "geometry": {"type": "Point", "coordinates": [2.3559934, 6.5420978]}, "properties": {"quartier": "Agassa-Godomey", "component_size": 13, "disposition": "REASSIGNED_TO_NEIGHBOUR", "new_owner": "Gbétagbo", "iteration": 1, "vertex_ids": [88608, 88609, 88612, 88613, 88614, 88615, 109578, 109579, 109580, 109581, 110326, 88606]}}, {"type": "Feature", "geometry": {"type": "Point", "coordinates": [2.3536599, 6.5445373]}, "properties": {"quartier": "Agassa-Godomey", "component_size": 2, "disposition": "REASSIGNED_TO_NEIGHBOUR", "new_owner": "Gbétagbo", "iteration": 1, "vertex_ids": [109356, 109357]}}, {"type": "Feature", "geometry": {"type": "Point", "coordinates": [2.3576429, 6.5677693]}, "properties": {"quartier": "Dokomè", "component_size": 66, "disposition": "REASSIGNED_TO_NEIGHBOUR", "new_owner": "Kpodji-Les-Monts", "iteration": 1, "vertex_ids": [76544, 76545, 76546, 76547, 76548, 76549, 76550, 76551, 76552, 76553, 76554, 76555]}}, {"type": "Feature", "geometry": {"type": "Point", "coordinates": [2.3524028, 6.3976777]}, "properties": {"quartier": "Finafa\n", "component_size": 104, "disposition": "REASSIGNED_TO_NEIGHBOUR", "new_owner": "Yolomahouto", "iteration": 1, "vertex_ids": [4608, 4617, 4618, 4619, 4620, 4639, 4640, 4641, 4642, 4643, 4644, 4645]}}, {"type": "Feature", "geometry": {"type": "Point", "coordinates": [2.3538597, 6.4444152]}, "properties": {"quartier": "Agori", "component_size": 13, "disposition": "REASSIGNED_TO_NEIGHBOUR", "new_owner": "Tokpa-Zoungo-Nord\n", "iteration": 1, "vertex_ids": [149824, 149825, 149826, 149827, 149828, 149829, 149830, 149831, 149832, 149833, 149834, 149822]}}, {"type": "Feature", "geometry": {"type": "Point", "coordinates": [2.3399243, 6.4301908]}, "properties": {"quartier": "Tchinangbégbo\n", "component_size": 2, "disposition": "REASSIGNED_TO_NEIGHBOUR", "new_owner": "Zogbadjè", "iteration": 1, "vertex_ids": [66051, 66052]}}, {"type": "Feature", "geometry": {"type": "Point", "coordinates": [2.3438615, 6.4169757]}, "properties": {"quartier": "Tokpa-Zoungo-Sud\n", "component_size": 12, "disposition": "REASSIGNED_TO_NEIGHBOUR", "new_owner": "Zogbadjè", "iteration": 1, "vertex_ids": [117732, 117733, 117734, 117735, 117736, 117737, 117738, 117739, 117740, 117741, 117742, 117743]}}, {"type": "Feature", "geometry": {"type": "Point", "coordinates": [2.3511916, 6.4284675]}, "properties": {"quartier": "Tokpa-Zoungo-Nord\n", "component_size": 73, "disposition": "EQUAL_SPLIT", "eligible_owners": ["Agori", "Tokpa-Zoungo-Sud\n"], "iteration": 1, "vertex_ids": [104832, 104817, 104833, 104834, 104835, 104818, 104839, 104840, 104841, 104842, 104819, 104843]}}, {"type": "Feature", "geometry": {"type": "Point", "coordinates": [2.401379, 6.3763208]}, "properties": {"quartier": "Vodjè-Ayidoté", "component_size": 48, "disposition": "EQUAL_SPLIT", "eligible_owners": ["Agontinkon", "Vodjè-Finagnon"], "iteration": 1, "vertex_ids": [130947, 130948, 130949, 130950, 130951, 130952, 130953, 130954, 124051, 7569, 7570, 7571]}}, {"type": "Feature", "geometry": {"type": "Point", "coordinates": [2.4064809, 6.3742422]}, "properties": {"quartier": "Vodjè-Ayidoté", "component_size": 1, "disposition": "REASSIGNED_TO_NEIGHBOUR", "new_owner": "Agontinkon", "iteration": 1, "vertex_ids": [152145]}}, {"type": "Feature", "geometry": {"type": "Point", "coordinates": [2.40616, 6.3746346]}, "properties": {"quartier": "Vodjè-Ayidoté", "component_size": 1, "disposition": "REASSIGNED_TO_NEIGHBOUR", "new_owner": "Agontinkon", "iteration": 1, "vertex_ids": [6102]}}, {"type": "Feature", "geometry": {"type": "Point", "coordinates": [2.4037474, 6.3758463]}, "properties": {"quartier": "Vodjè-Ayidoté", "component_size": 9, "disposition": "REASSIGNED_TO_NEIGHBOUR", "new_owner": "Agontinkon", "iteration": 1, "vertex_ids": [152182, 152183, 152184, 152185, 152186, 152187, 152188, 152189, 152190]}}, {"type": "Feature", "geometry": {"type": "Point", "coordinates": [2.3634902, 6.3895394]}, "properties": {"quartier": "Mènontin", "component_size": 3, "disposition": "REASSIGNED_TO_NEIGHBOUR", "new_owner": "Kindonou", "iteration": 1, "vertex_ids": [53536, 53537, 53532]}}, {"type": "Feature", "geometry": {"type": "Point", "coordinates": [2.3748227, 6.3859282]}, "properties": {"quartier": "Agla-Petit-Château", "component_size": 1, "disposition": "EQUAL_SPLIT", "eligible_owners": ["Kouhounou", "Mènontin"], "iteration": 1, "vertex_ids": [3127]}}, {"type": "Feature", "geometry": {"type": "Point", "coordinates": [2.4477382, 6.3859042]}, "properties": {"quartier": "Ayélawadjè-Agongbomè", "component_size": 1, "disposition": "EQUAL_SPLIT", "eligible_owners": ["Sègbèya-Nord", "Kpondéhou"], "iteration": 1, "vertex_ids": [8080]}}, {"type": "Feature", "geometry": {"type": "Point", "coordinates": [2.4497302, 6.3878068]}, "properties": {"quartier": "Ayélawadjè-Agongbomè", "component_size": 3, "disposition": "EQUAL_SPLIT", "eligible_owners": ["Sègbèya-Nord", "Kpondéhou"], "iteration": 1, "vertex_ids": [8014, 8165, 8174]}}, {"type": "Feature", "geometry": {"type": "Point", "coordinates": [2.3431068, 6.3967943]}, "properties": {"quartier": "Nonhouénou\n", "component_size": 2, "disposition": "REASSIGNED_TO_NEIGHBOUR", "new_owner": "Godomey-Togoudo", "iteration": 1, "vertex_ids": [16255, 47559]}}, {"type": "Feature", "geometry": {"type": "Point", "coordinates": [2.3499262, 6.3969347]}, "properties": {"quartier": "Hlouacomey", "component_size": 82, "disposition": "EQUAL_SPLIT", "eligible_owners": ["Yolomahouto", "Nonhouénou\n"], "iteration": 1, "vertex_ids": [12288, 12289, 12290, 43525, 4621, 4622, 42001, 42002, 42003, 42004, 42005, 42006]}}, {"type": "Feature", "geometry": {"type": "Point", "coordinates": [2.347354, 6.3921523]}, "properties": {"quartier": "Hlouacomey", "component_size": 44, "disposition": "EQUAL_SPLIT", "eligible_owners": ["Yolomahouto", "Nonhouénou\n"], "iteration": 1, "vertex_ids": [103050, 103051, 103055, 4624, 103056, 103057, 103058, 4500, 4501, 4502, 4503, 103060]}}, {"type": "Feature", "geometry": {"type": "Point", "coordinates": [2.3463884, 6.393627]}, "properties": {"quartier": "Hlouacomey", "component_size": 9, "disposition": "EQUAL_SPLIT", "eligible_owners": ["Sèdjannako\n", "Nonhouénou\n"], "iteration": 1, "vertex_ids": [47527, 47528, 47529, 47530, 47531, 47532, 47533, 47534, 47535]}}, {"type": "Feature", "geometry": {"type": "Point", "coordinates": [2.3454879, 6.3965848]}, "properties": {"quartier": "Godomey-Togoudo", "component_size": 6, "disposition": "REASSIGNED_TO_NEIGHBOUR", "new_owner": "Nonhouénou\n", "iteration": 1, "vertex_ids": [4517, 12270, 4721, 12274, 4722, 4575]}}, {"type": "Feature", "geometry": {"type": "Point", "coordinates": [2.3441434, 6.3955369]}, "properties": {"quartier": "Godomey-Togoudo", "component_size": 5, "disposition": "REASSIGNED_TO_NEIGHBOUR", "new_owner": "Nonhouénou\n", "iteration": 1, "vertex_ids": [126868, 126869, 126870, 126871, 126872]}}, {"type": "Feature", "geometry": {"type": "Point", "coordinates": [2.3832138, 6.3875083]}, "properties": {"quartier": "Agounvocôdji", "component_size": 3, "disposition": "REASSIGNED_TO_NEIGHBOUR", "new_owner": "Kouhounou", "iteration": 1, "vertex_ids": [7360, 7361, 7362]}}, {"type": "Feature", "geometry": {"type": "Point", "coordinates": [2.3842355, 6.3839817]}, "properties": {"quartier": "Agounvocôdji", "component_size": 4, "disposition": "EQUAL_SPLIT", "eligible_owners": ["Kouhounou", "Sètôvi"], "iteration": 1, "vertex_ids": [5490, 5491, 5492, 5493]}}, {"type": "Feature", "geometry": {"type": "Point", "coordinates": [2.3895492, 6.3782387]}, "properties": {"quartier": "Sètôvi", "component_size": 2, "disposition": "EQUAL_SPLIT", "eligible_owners": ["Missogbé", "Védokô"], "iteration": 1, "vertex_ids": [4784, 4785]}}, {"type": "Feature", "geometry": {"type": "Point", "coordinates": [2.3894392, 6.3803085]}, "properties": {"quartier": "Sètôvi", "component_size": 3, "disposition": "EQUAL_SPLIT", "eligible_owners": ["Missogbé", "Védokô"], "iteration": 1, "vertex_ids": [5162, 5163, 5164]}}, {"type": "Feature", "geometry": {"type": "Point", "coordinates": [2.3568772, 6.3892223]}, "properties": {"quartier": "Kindonou", "component_size": 5, "disposition": "REASSIGNED_TO_NEIGHBOUR", "new_owner": "Mènontin", "iteration": 1, "vertex_ids": [4865, 4866, 4867, 4868, 4869]}}, {"type": "Feature", "geometry": {"type": "Point", "coordinates": [2.3654569, 6.3898594]}, "properties": {"quartier": "Kindonou", "component_size": 1, "disposition": "REASSIGNED_TO_NEIGHBOUR", "new_owner": "Mènontin", "iteration": 1, "vertex_ids": [15404]}}, {"type": "Feature", "geometry": {"type": "Point", "coordinates": [2.3569628, 6.3893305]}, "properties": {"quartier": "Kindonou", "component_size": 4, "disposition": "REASSIGNED_TO_NEIGHBOUR", "new_owner": "Mènontin", "iteration": 1, "vertex_ids": [33392, 71227, 71228, 71229]}}, {"type": "Feature", "geometry": {"type": "Point", "coordinates": [2.3649243, 6.3955809]}, "properties": {"quartier": "Kindonou", "component_size": 3, "disposition": "REASSIGNED_TO_NEIGHBOUR", "new_owner": "Mènontin", "iteration": 1, "vertex_ids": [12736, 12734, 12735]}}, {"type": "Feature", "geometry": {"type": "Point", "coordinates": [2.3756513, 6.3603295]}, "properties": {"quartier": "Fidjrossè-Centre", "component_size": 2, "disposition": "REASSIGNED_TO_NEIGHBOUR", "new_owner": "Adjaha-Cité", "iteration": 1, "vertex_ids": [108675, 16430]}}, {"type": "Feature", "geometry": {"type": "Point", "coordinates": [2.3752704, 6.3602307]}, "properties": {"quartier": "Fidjrossè-Centre", "component_size": 3, "disposition": "REASSIGNED_TO_NEIGHBOUR", "new_owner": "Adjaha-Cité", "iteration": 1, "vertex_ids": [116114, 116115, 130885]}}, {"type": "Feature", "geometry": {"type": "Point", "coordinates": [2.3730186, 6.361824]}, "properties": {"quartier": "Fidjrossè-Centre", "component_size": 1, "disposition": "REASSIGNED_TO_NEIGHBOUR", "new_owner": "Adjaha-Cité", "iteration": 1, "vertex_ids": [13798]}}, {"type": "Feature", "geometry": {"type": "Point", "coordinates": [2.3749276, 6.3622159]}, "properties": {"quartier": "Fidjrossè-Centre", "component_size": 2, "disposition": "REASSIGNED_TO_NEIGHBOUR", "new_owner": "Adjaha-Cité", "iteration": 1, "vertex_ids": [38512, 38513]}}, {"type": "Feature", "geometry": {"type": "Point", "coordinates": [2.3752966, 6.3596156]}, "properties": {"quartier": "Fidjrossè-Centre", "component_size": 1, "disposition": "REASSIGNED_TO_NEIGHBOUR", "new_owner": "Adjaha-Cité", "iteration": 1, "vertex_ids": [13625]}}, {"type": "Feature", "geometry": {"type": "Point", "coordinates": [2.3896229, 6.3697017]}, "properties": {"quartier": "Houénoussou", "component_size": 42, "disposition": "EQUAL_SPLIT", "eligible_owners": ["Houéyihô", "Ahogbohoué-Cité-Eucharistie"], "iteration": 1, "vertex_ids": [127104, 127105, 132229, 13608, 13609, 13610, 13611, 13612, 116141, 82094, 82095, 82096]}}, {"type": "Feature", "geometry": {"type": "Point", "coordinates": [2.393024, 6.3700566]}, "properties": {"quartier": "Houénoussou", "component_size": 1, "disposition": "REASSIGNED_TO_NEIGHBOUR", "new_owner": "Ahogbohoué-Cité-Eucharistie", "iteration": 1, "vertex_ids": [118666]}}, {"type": "Feature", "geometry": {"type": "Point", "coordinates": [2.3928394, 6.3675085]}, "properties": {"quartier": "Houénoussou", "component_size": 1, "disposition": "REASSIGNED_TO_NEIGHBOUR", "new_owner": "Houéyihô", "iteration": 1, "vertex_ids": [34086]}}, {"type": "Feature", "geometry": {"type": "Point", "coordinates": [2.3455958, 6.450826]}, "properties": {"quartier": "Sèmè", "component_size": 6, "disposition": "EQUAL_SPLIT", "eligible_owners": ["Agori", "Aïtchédji\n"], "iteration": 1, "vertex_ids": [49669, 49670, 49671, 49672, 49673, 49741]}}, {"type": "Feature", "geometry": {"type": "Point", "coordinates": [2.3569965, 6.4534339]}, "properties": {"quartier": "Agamandin", "component_size": 4, "disposition": "REASSIGNED_TO_NEIGHBOUR", "new_owner": "Agori", "iteration": 1, "vertex_ids": [37672, 37673, 37670, 37671]}}, {"type": "Feature", "geometry": {"type": "Point", "coordinates": [2.3571413, 6.4531861]}, "properties": {"quartier": "Agamandin", "component_size": 3, "disposition": "REASSIGNED_TO_NEIGHBOUR", "new_owner": "Agori", "iteration": 1, "vertex_ids": [37744, 37745, 37746]}}, {"type": "Feature", "geometry": {"type": "Point", "coordinates": [2.3570796, 6.4532021]}, "properties": {"quartier": "Agamandin", "component_size": 2, "disposition": "REASSIGNED_TO_NEIGHBOUR", "new_owner": "Agori", "iteration": 1, "vertex_ids": [16272, 16273]}}, {"type": "Feature", "geometry": {"type": "Point", "coordinates": [2.2821642, 6.4301008]}, "properties": {"quartier": "Ahouato", "component_size": 176, "disposition": "REASSIGNED_TO_NEIGHBOUR", "new_owner": "Alansankomè", "iteration": 1, "vertex_ids": [79963, 79964, 79965, 79966, 79967, 79968, 79969, 79970, 79971, 79972, 79973, 79974]}}, {"type": "Feature", "geometry": {"type": "Point", "coordinates": [2.3979269, 6.3903628]}, "properties": {"quartier": "Fifadji", "component_size": 2, "disposition": "REASSIGNED_TO_NEIGHBOUR", "new_owner": "Yénawa-Fifadji", "iteration": 1, "vertex_ids": [5809, 5828]}}, {"type": "Feature", "geometry": {"type": "Point", "coordinates": [2.4241026, 6.37431]}, "properties": {"quartier": "Aïdjèdo-Ahito", "component_size": 9, "disposition": "EQUAL_SPLIT", "eligible_owners": ["Jéricho-Nord", "Fignon-Sikê"], "iteration": 1, "vertex_ids": [73730, 67589, 73735, 5677, 5678, 5679, 6285, 53297, 6202]}}, {"type": "Feature", "geometry": {"type": "Point", "coordinates": [2.3971601, 6.3907707]}, "properties": {"quartier": "Yénawa-Fifadji", "component_size": 1, "disposition": "REASSIGNED_TO_NEIGHBOUR", "new_owner": "Fifadji", "iteration": 1, "vertex_ids": [5857]}}, {"type": "Feature", "geometry": {"type": "Point", "coordinates": [2.4332321, 6.3784446]}, "properties": {"quartier": "Hindé-Sud", "component_size": 4, "disposition": "EQUAL_SPLIT", "eligible_owners": ["Hindé-Nord", "Djidjè"], "iteration": 1, "vertex_ids": [6592, 129320, 131133, 129319]}}, {"type": "Feature", "geometry": {"type": "Point", "coordinates": [2.433468, 6.3780141]}, "properties": {"quartier": "Hindé-Sud", "component_size": 1, "disposition": "REASSIGNED_TO_NEIGHBOUR", "new_owner": "Hindé-Nord", "iteration": 1, "vertex_ids": [117375]}}, {"type": "Feature", "geometry": {"type": "Point", "coordinates": [2.4339572, 6.3789917]}, "properties": {"quartier": "Hindé-Nord", "component_size": 4, "disposition": "REASSIGNED_TO_NEIGHBOUR", "new_owner": "Djidjè", "iteration": 1, "vertex_ids": [6593, 6594, 6595, 62115]}}, {"type": "Feature", "geometry": {"type": "Point", "coordinates": [2.428177, 6.3895327]}, "properties": {"quartier": "Ahouansori-Towéta", "component_size": 2, "disposition": "REASSIGNED_TO_NEIGHBOUR", "new_owner": "Ladji", "iteration": 1, "vertex_ids": [73675, 73676]}}, {"type": "Feature", "geometry": {"type": "Point", "coordinates": [2.3867235, 6.3646479]}, "properties": {"quartier": "Gbèdégbé", "component_size": 1, "disposition": "REASSIGNED_TO_NEIGHBOUR", "new_owner": "Aïbatin-Dodo", "iteration": 1, "vertex_ids": [12609]}}, {"type": "Feature", "geometry": {"type": "Point", "coordinates": [2.4244915, 6.3587813]}, "properties": {"quartier": "Gbéto", "component_size": 14, "disposition": "EQUAL_SPLIT", "eligible_owners": ["Gbèdiga-Guêdêhounguè", "Zongo-Nima"], "iteration": 1, "vertex_ids": [67584, 6819, 6820, 6821, 6822, 6823, 6803, 6806, 6807, 6808, 6809, 6811]}}, {"type": "Feature", "geometry": {"type": "Point", "coordinates": [2.4227068, 6.3605334]}, "properties": {"quartier": "Gbéto", "component_size": 1, "disposition": "EQUAL_SPLIT", "eligible_owners": ["Todoté", "Zongo-Nima"], "iteration": 1, "vertex_ids": [68154]}}, {"type": "Feature", "geometry": {"type": "Point", "coordinates": [2.4357657, 6.3650032]}, "properties": {"quartier": "Bocossi-Tokpa", "component_size": 1, "disposition": "REASSIGNED_TO_NEIGHBOUR", "new_owner": "Missèbô", "iteration": 1, "vertex_ids": [59608]}}, {"type": "Feature", "geometry": {"type": "Point", "coordinates": [2.4404692, 6.3810719]}, "properties": {"quartier": "Adôgléta", "component_size": 2, "disposition": "REASSIGNED_TO_NEIGHBOUR", "new_owner": "Kpankpan", "iteration": 1, "vertex_ids": [7697, 7698]}}, {"type": "Feature", "geometry": {"type": "Point", "coordinates": [2.4376285, 6.3871416]}, "properties": {"quartier": "Adôgléta", "component_size": 2, "disposition": "REASSIGNED_TO_NEIGHBOUR", "new_owner": "Hlacômey", "iteration": 1, "vertex_ids": [8040, 8039]}}, {"type": "Feature", "geometry": {"type": "Point", "coordinates": [2.4418583, 6.3865467]}, "properties": {"quartier": "Hlacômey", "component_size": 1, "disposition": "EQUAL_SPLIT", "eligible_owners": ["Sègbèya-Nord", "Adôgléta"], "iteration": 1, "vertex_ids": [8099]}}, {"type": "Feature", "geometry": {"type": "Point", "coordinates": [2.4433386, 6.3964169]}, "properties": {"quartier": "Hlacômey", "component_size": 1, "disposition": "REASSIGNED_TO_NEIGHBOUR", "new_owner": "Agbodjèdo", "iteration": 1, "vertex_ids": [7726]}}, {"type": "Feature", "geometry": {"type": "Point", "coordinates": [2.4448895, 6.3628911]}, "properties": {"quartier": "Abokicodji-Lagune", "component_size": 1, "disposition": "REASSIGNED_TO_NEIGHBOUR", "new_owner": "Ohé", "iteration": 1, "vertex_ids": [7814]}}, {"type": "Feature", "geometry": {"type": "Point", "coordinates": [2.4451735, 6.3650066]}, "properties": {"quartier": "Abokicodji-Lagune", "component_size": 7, "disposition": "EQUAL_SPLIT", "eligible_owners": ["Ohé", "Abokicodji-Centre"], "iteration": 1, "vertex_ids": [7782, 7831, 15114, 7830, 131286, 7832, 7774]}}, {"type": "Feature", "geometry": {"type": "Point", "coordinates": [2.466251, 6.3673135]}, "properties": {"quartier": "Nvènamèdé", "component_size": 2, "disposition": "REASSIGNED_TO_NEIGHBOUR", "new_owner": "Tanto", "iteration": 1, "vertex_ids": [125341, 125342]}}, {"type": "Feature", "geometry": {"type": "Point", "coordinates": [2.3541834, 6.5112826]}, "properties": {"quartier": "Houèkè-Honou", "component_size": 3, "disposition": "EQUAL_SPLIT", "eligible_owners": ["Akassato", "Misséssinto"], "iteration": 1, "vertex_ids": [9056, 9054, 9055]}}, {"type": "Feature", "geometry": {"type": "Point", "coordinates": [2.3659229, 6.4999344]}, "properties": {"quartier": "Houèkè-Gbo", "component_size": 3, "disposition": "REASSIGNED_TO_NEIGHBOUR", "new_owner": "Akassato", "iteration": 1, "vertex_ids": [58279, 58278, 118327]}}, {"type": "Feature", "geometry": {"type": "Point", "coordinates": [2.3676668, 6.4994246]}, "properties": {"quartier": "Houèkè-Gbo", "component_size": 3, "disposition": "REASSIGNED_TO_NEIGHBOUR", "new_owner": "Akassato", "iteration": 1, "vertex_ids": [35340, 35341, 35342]}}, {"type": "Feature", "geometry": {"type": "Point", "coordinates": [2.3670766, 6.5003717]}, "properties": {"quartier": "Houèkè-Gbo", "component_size": 14, "disposition": "REASSIGNED_TO_NEIGHBOUR", "new_owner": "Akassato", "iteration": 1, "vertex_ids": [118112, 118113, 119151, 119152, 35284, 35285, 35286, 14391, 14392, 14393, 14394, 14390]}}, {"type": "Feature", "geometry": {"type": "Point", "coordinates": [2.343206, 6.5198627]}, "properties": {"quartier": "Zèkanmey-Domè", "component_size": 2, "disposition": "REASSIGNED_TO_NEIGHBOUR", "new_owner": "Adjagbo", "iteration": 1, "vertex_ids": [37446, 37447]}}, {"type": "Feature", "geometry": {"type": "Point", "coordinates": [2.2803108, 6.4718929]}, "properties": {"quartier": "Adjagbo", "component_size": 2, "disposition": "REASSIGNED_TO_NEIGHBOUR", "new_owner": "Adjagbo-Aïdjèdo", "iteration": 1, "vertex_ids": [115357, 115358]}}, {"type": "Feature", "geometry": {"type": "Point", "coordinates": [2.2794378, 6.4734266]}, "properties": {"quartier": "Adjagbo", "component_size": 3, "disposition": "REASSIGNED_TO_NEIGHBOUR", "new_owner": "Adjagbo-Aïdjèdo", "iteration": 1, "vertex_ids": [71684, 71685, 71686]}}, {"type": "Feature", "geometry": {"type": "Point", "coordinates": [2.2801311, 6.4714038]}, "properties": {"quartier": "Adjagbo", "component_size": 2, "disposition": "REASSIGNED_TO_NEIGHBOUR", "new_owner": "Adjagbo-Aïdjèdo", "iteration": 1, "vertex_ids": [121206, 121207]}}, {"type": "Feature", "geometry": {"type": "Point", "coordinates": [2.2897294, 6.4863802]}, "properties": {"quartier": "Adjagbo", "component_size": 132, "disposition": "REASSIGNED_TO_NEIGHBOUR", "new_owner": "Adjagbo-Aïdjèdo", "iteration": 1, "vertex_ids": [81526, 81523, 81524, 81525, 80502, 80503, 80504, 80505, 80506, 80507, 80508, 80509]}}, {"type": "Feature", "geometry": {"type": "Point", "coordinates": [2.2960567, 6.5369148]}, "properties": {"quartier": "Agongbé", "component_size": 170, "disposition": "REASSIGNED_TO_NEIGHBOUR", "new_owner": "Golo-Djigbé", "iteration": 1, "vertex_ids": [69632, 69633, 69634, 69635, 69636, 69637, 69638, 69639, 69640, 69641, 69642, 69643]}}, {"type": "Feature", "geometry": {"type": "Point", "coordinates": [2.3203472, 6.5208107]}, "properties": {"quartier": "Kansounkpa", "component_size": 18, "disposition": "REASSIGNED_TO_NEIGHBOUR", "new_owner": "Domey-Gbo", "iteration": 1, "vertex_ids": [145504, 145505, 88296, 29998, 29999, 29968, 29969, 29970, 29971, 29972, 29973, 85750]}}, {"type": "Feature", "geometry": {"type": "Point", "coordinates": [2.3309778, 6.4768914]}, "properties": {"quartier": "Cité-les-Palmiers\n", "component_size": 4, "disposition": "REASSIGNED_TO_NEIGHBOUR", "new_owner": "Aïfa-Calavi", "iteration": 1, "vertex_ids": [66139, 66140, 66141, 66142]}}, {"type": "Feature", "geometry": {"type": "Point", "coordinates": [2.3042925, 6.4896942]}, "properties": {"quartier": "Ouéga-Agué", "component_size": 7, "disposition": "REASSIGNED_TO_NEIGHBOUR", "new_owner": "Drabo", "iteration": 1, "vertex_ids": [117561, 117562, 117563, 117564, 117565, 117566, 117567]}}, {"type": "Feature", "geometry": {"type": "Point", "coordinates": [2.2990318, 6.4890088]}, "properties": {"quartier": "Ouéga-Agué", "component_size": 19, "disposition": "REASSIGNED_TO_NEIGHBOUR", "new_owner": "Drabo", "iteration": 1, "vertex_ids": [99532, 99533, 99534, 99535, 99536, 99537, 99538, 99539, 99540, 99541, 99542, 99543]}}, {"type": "Feature", "geometry": {"type": "Point", "coordinates": [2.2988141, 6.5701208]}, "properties": {"quartier": "Golo-Djigbé", "component_size": 75, "disposition": "REASSIGNED_TO_NEIGHBOUR", "new_owner": "Djissoukpa", "iteration": 1, "vertex_ids": [107081, 107082, 107083, 107019, 107020, 107021, 107022, 107023, 107024, 107025, 107026, 143379]}}, {"type": "Feature", "geometry": {"type": "Point", "coordinates": [2.2963551, 6.5484878]}, "properties": {"quartier": "Zèkanmey", "component_size": 51, "disposition": "REASSIGNED_TO_NEIGHBOUR", "new_owner": "Golo-Djigbé", "iteration": 1, "vertex_ids": [78594, 78595, 78596, 78597, 78598, 78599, 78600, 78601, 78602, 78624, 78625, 78626]}}, {"type": "Feature", "geometry": {"type": "Point", "coordinates": [2.2973482, 6.559425]}, "properties": {"quartier": "Adjamè\n", "component_size": 24, "disposition": "REASSIGNED_TO_NEIGHBOUR", "new_owner": "Golo-Djigbé", "iteration": 1, "vertex_ids": [88881, 88882, 88883, 88884, 88885, 88886, 88887, 88923, 88924, 88925, 88926, 88927]}}, {"type": "Feature", "geometry": {"type": "Point", "coordinates": [2.2410849, 6.4755414]}, "properties": {"quartier": "Dassèkomey", "component_size": 50, "disposition": "REASSIGNED_TO_NEIGHBOUR", "new_owner": "Zoungo", "iteration": 1, "vertex_ids": [82330, 82331, 82332, 82333, 82334, 82335, 82336, 82337, 82338, 82339, 114596, 114597]}}, {"type": "Feature", "geometry": {"type": "Point", "coordinates": [2.2756559, 6.5587948]}, "properties": {"quartier": "Djissoukpa", "component_size": 178, "disposition": "REASSIGNED_TO_NEIGHBOUR", "new_owner": "Adjamè\n", "iteration": 1, "vertex_ids": [143995, 143996, 143997, 143998, 143999, 144000, 144001, 144002, 144003, 144004, 144005, 144006]}}, {"type": "Feature", "geometry": {"type": "Point", "coordinates": [2.3489968, 6.5845174]}, "properties": {"quartier": "Sokan", "component_size": 90, "disposition": "REASSIGNED_TO_NEIGHBOUR", "new_owner": "Kolètin", "iteration": 1, "vertex_ids": [108544, 108545, 108546, 108547, 108548, 108549, 108550, 108551, 108552, 90891, 90892, 90893]}}, {"type": "Feature", "geometry": {"type": "Point", "coordinates": [2.3514001, 6.5846439]}, "properties": {"quartier": "Sokan", "component_size": 9, "disposition": "REASSIGNED_TO_NEIGHBOUR", "new_owner": "Kolètin", "iteration": 1, "vertex_ids": [90784, 90783, 91230, 90778, 90779, 90780, 90781, 90782, 91231]}}, {"type": "Feature", "geometry": {"type": "Point", "coordinates": [2.3482545, 6.6115915]}, "properties": {"quartier": "Zinvié-Fandji", "component_size": 13, "disposition": "REASSIGNED_TO_NEIGHBOUR", "new_owner": "Zinvié-Zounmè", "iteration": 1, "vertex_ids": [80128, 80129, 80130, 80131, 80132, 80133, 72502, 72503, 72504, 72505, 72506, 80126]}}, {"type": "Feature", "geometry": {"type": "Point", "coordinates": [2.3606792, 6.6119198]}, "properties": {"quartier": "Zinvié-Fandji", "component_size": 22, "disposition": "REASSIGNED_TO_NEIGHBOUR", "new_owner": "Yèvié-Nougo", "iteration": 1, "vertex_ids": [17162, 17163, 17164, 17165, 17166, 17167, 17168, 17169, 17170, 17171, 17172, 111894]}}, {"type": "Feature", "geometry": {"type": "Point", "coordinates": [2.3364145, 6.6284222]}, "properties": {"quartier": "Wawata", "component_size": 14, "disposition": "REASSIGNED_TO_NEIGHBOUR", "new_owner": "Zinvié-Zounmè", "iteration": 1, "vertex_ids": [141315, 141316, 141317, 141318, 141319, 141320, 141321, 141322, 141323, 141324, 141325, 141326]}}, {"type": "Feature", "geometry": {"type": "Point", "coordinates": [2.3125735, 6.4272882]}, "properties": {"quartier": "Maria-Gléta\n", "component_size": 29, "disposition": "REASSIGNED_TO_NEIGHBOUR", "new_owner": "Tankpê-Yoho", "iteration": 1, "vertex_ids": [149407, 149408, 149409, 149410, 149412, 149413, 44219, 44220, 44221, 44222, 44223, 44224]}}, {"type": "Feature", "geometry": {"type": "Point", "coordinates": [2.2936307, 6.4164833]}, "properties": {"quartier": "Sodo\n", "component_size": 5, "disposition": "REASSIGNED_TO_NEIGHBOUR", "new_owner": "Womey-Yénawa", "iteration": 1, "vertex_ids": [45060, 98201, 98202, 98203, 98204]}}, {"type": "Feature", "geometry": {"type": "Point", "coordinates": [2.2999594, 6.3954942]}, "properties": {"quartier": "Sodo\n", "component_size": 3, "disposition": "REASSIGNED_TO_NEIGHBOUR", "new_owner": "Cocotomey", "iteration": 1, "vertex_ids": [125160, 125161, 125162]}}, {"type": "Feature", "geometry": {"type": "Point", "coordinates": [2.2940478, 6.4161962]}, "properties": {"quartier": "Sodo\n", "component_size": 1, "disposition": "REASSIGNED_TO_NEIGHBOUR", "new_owner": "Womey-Yénawa", "iteration": 1, "vertex_ids": [45085]}}, {"type": "Feature", "geometry": {"type": "Point", "coordinates": [2.3563257, 6.4714246]}, "properties": {"quartier": "Gbodjo", "component_size": 11, "disposition": "EQUAL_SPLIT", "eligible_owners": ["Zopah-Kokpo", "Agamandin"], "iteration": 1, "vertex_ids": [11826, 11827, 11828, 11829, 11830, 11831, 11832, 11833, 11834, 11835, 11836]}}, {"type": "Feature", "geometry": {"type": "Point", "coordinates": [2.3376219, 6.4298482]}, "properties": {"quartier": "Zogbadjè", "component_size": 2, "disposition": "REASSIGNED_TO_NEIGHBOUR", "new_owner": "Tchinangbégbo\n", "iteration": 1, "vertex_ids": [39408, 90046]}}, {"type": "Feature", "geometry": {"type": "Point", "coordinates": [2.3381718, 6.4298002]}, "properties": {"quartier": "Zogbadjè", "component_size": 2, "disposition": "REASSIGNED_TO_NEIGHBOUR", "new_owner": "Tchinangbégbo\n", "iteration": 1, "vertex_ids": [39704, 39421]}}, {"type": "Feature", "geometry": {"type": "Point", "coordinates": [2.4731046, 6.3727087]}, "properties": {"quartier": "Yagbé", "component_size": 1, "disposition": "REASSIGNED_TO_NEIGHBOUR", "new_owner": "Tanto", "iteration": 1, "vertex_ids": [47720]}}, {"type": "Feature", "geometry": {"type": "Point", "coordinates": [2.4657762, 6.3702325]}, "properties": {"quartier": "Yagbé", "component_size": 1, "disposition": "REASSIGNED_TO_NEIGHBOUR", "new_owner": "Nvènamèdé", "iteration": 1, "vertex_ids": [152505]}}, {"type": "Feature", "geometry": {"type": "Point", "coordinates": [2.3616045, 6.3801672]}, "properties": {"quartier": "Agla-Agongbomey", "component_size": 1, "disposition": "REASSIGNED_TO_NEIGHBOUR", "new_owner": "Agla-Les-Pylônes", "iteration": 1, "vertex_ids": [132012]}}, {"type": "Feature", "geometry": {"type": "Point", "coordinates": [2.3229271, 6.5529272]}, "properties": {"quartier": "Agonkèssa", "component_size": 34, "disposition": "REASSIGNED_TO_NEIGHBOUR", "new_owner": "Azonsa", "iteration": 1, "vertex_ids": [72325, 72326, 72327, 72328, 72329, 72330, 72331, 141838, 141839, 141840, 141841, 141842]}}, {"type": "Feature", "geometry": {"type": "Point", "coordinates": [2.461952, 6.3661241]}, "properties": {"quartier": "Sodjatinmè-Est", "component_size": 27, "disposition": "REASSIGNED_TO_NEIGHBOUR", "new_owner": "Fifadji-Houto (Jak)", "iteration": 1, "vertex_ids": [131664, 131665, 131666, 131667, 131668, 131669, 131670, 131671, 131672, 131673, 131674, 131675]}}, {"type": "Feature", "geometry": {"type": "Point", "coordinates": [2.4427159, 6.3541664]}, "properties": {"quartier": "Xwlacôdji-Plage", "component_size": 5, "disposition": "REASSIGNED_TO_NEIGHBOUR", "new_owner": "Xwlacôdji-Kpodji", "iteration": 1, "vertex_ids": [40229, 40230, 40231, 32909, 32910]}}, {"type": "Feature", "geometry": {"type": "Point", "coordinates": [2.4397449, 6.3547395]}, "properties": {"quartier": "Xwlacôdji-Plage", "component_size": 1, "disposition": "REASSIGNED_TO_NEIGHBOUR", "new_owner": "Xwlacôdji-Kpodji", "iteration": 1, "vertex_ids": [58073]}}, {"type": "Feature", "geometry": {"type": "Point", "coordinates": [2.4413466, 6.3534212]}, "properties": {"quartier": "Xwlacôdji-Plage", "component_size": 1, "disposition": "REASSIGNED_TO_NEIGHBOUR", "new_owner": "Xwlacôdji-Kpodji", "iteration": 1, "vertex_ids": [15068]}}, {"type": "Feature", "geometry": {"type": "Point", "coordinates": [2.4400163, 6.3528815]}, "properties": {"quartier": "Xwlacôdji-Plage", "component_size": 10, "disposition": "REASSIGNED_TO_NEIGHBOUR", "new_owner": "Xwlacôdji-Kpodji", "iteration": 1, "vertex_ids": [32942, 32943, 32944, 32945, 32946, 32947, 32948, 32949, 32950, 32951]}}, {"type": "Feature", "geometry": {"type": "Point", "coordinates": [2.3596573, 6.6037108]}, "properties": {"quartier": "Yèvié-Nougo", "component_size": 36, "disposition": "EQUAL_SPLIT", "eligible_owners": ["Zinvié-Fandji", "Sokan"], "iteration": 1, "vertex_ids": [17536, 17537, 104600, 104601, 104602, 104603, 104604, 104605, 104606, 104607, 87849, 87850]}}, {"type": "Feature", "geometry": {"type": "Point", "coordinates": [2.3600127, 6.6064925]}, "properties": {"quartier": "Yèvié-Nougo", "component_size": 3, "disposition": "REASSIGNED_TO_NEIGHBOUR", "new_owner": "Zinvié-Fandji", "iteration": 1, "vertex_ids": [87840, 87838, 87839]}}, {"type": "Feature", "geometry": {"type": "Point", "coordinates": [2.3054096, 6.5595555]}, "properties": {"quartier": "Yêkon-Aga", "component_size": 6, "disposition": "REASSIGNED_TO_NEIGHBOUR", "new_owner": "Golo-Djigbé", "iteration": 1, "vertex_ids": [95732, 95733, 95734, 95735, 95736, 95737]}}, {"type": "Feature", "geometry": {"type": "Point", "coordinates": [2.474206, 6.3728896]}, "properties": {"quartier": "Avotrou-Houézèkomè", "component_size": 2, "disposition": "EQUAL_SPLIT", "eligible_owners": ["Yagbé", "Dandji"], "iteration": 1, "vertex_ids": [63847, 131703]}}, {"type": "Feature", "geometry": {"type": "Point", "coordinates": [2.4742681, 6.3727436]}, "properties": {"quartier": "Avotrou-Houézèkomè", "component_size": 4, "disposition": "EQUAL_SPLIT", "eligible_owners": ["Dandji", "Tanto"], "iteration": 1, "vertex_ids": [47721, 47722, 17981, 101102]}}, {"type": "Feature", "geometry": {"type": "Point", "coordinates": [2.4752773, 6.3728436]}, "properties": {"quartier": "Avotrou-Houézèkomè", "component_size": 1, "disposition": "EQUAL_SPLIT", "eligible_owners": ["Yagbé", "Dandji"], "iteration": 1, "vertex_ids": [143257]}}, {"type": "Feature", "geometry": {"type": "Point", "coordinates": [2.3408959, 6.5861307]}, "properties": {"quartier": "Adjogansa", "component_size": 24, "disposition": "REASSIGNED_TO_NEIGHBOUR", "new_owner": "Kolètin", "iteration": 1, "vertex_ids": [108497, 108498, 143699, 143700, 143701, 108502, 108503, 108504, 108505, 108506, 108507, 143702]}}, {"type": "Feature", "geometry": {"type": "Point", "coordinates": [2.3399018, 6.5747314]}, "properties": {"quartier": "Adjogansa", "component_size": 13, "disposition": "REASSIGNED_TO_NEIGHBOUR", "new_owner": "Lohoussa", "iteration": 1, "vertex_ids": [144503, 111758, 111759, 111760, 111761, 111762, 144499, 111763, 144500, 144501, 144502, 144504]}}, {"type": "Feature", "geometry": {"type": "Point", "coordinates": [2.2914997, 6.3590047]}, "properties": {"quartier": "Togbin-Daho", "component_size": 24, "disposition": "REASSIGNED_TO_NEIGHBOUR", "new_owner": "Djèkpota", "iteration": 1, "vertex_ids": [71311, 71312, 71313, 71314, 71315, 71316, 71317, 71318, 71319, 71320, 71321, 71322]}}, {"type": "Feature", "geometry": {"type": "Point", "coordinates": [2.2502205, 6.4337443]}, "properties": {"quartier": "Adovié", "component_size": 5, "disposition": "REASSIGNED_TO_NEIGHBOUR", "new_owner": "Hêvié", "iteration": 1, "vertex_ids": [72973, 72974, 72975, 72976, 72977]}}, {"type": "Feature", "geometry": {"type": "Point", "coordinates": [2.2276846, 6.4407047]}, "properties": {"quartier": "Hêvié", "component_size": 13, "disposition": "REASSIGNED_TO_NEIGHBOUR", "new_owner": "Hounzévié\n", "iteration": 1, "vertex_ids": [114425, 84115, 84116, 84117, 84118, 84119, 84120, 84121, 114426, 114427, 114428, 114429]}}, {"type": "Feature", "geometry": {"type": "Point", "coordinates": [2.2363481, 6.4360298]}, "properties": {"quartier": "Hêvié", "component_size": 7, "disposition": "REASSIGNED_TO_NEIGHBOUR", "new_owner": "Hounzévié\n", "iteration": 1, "vertex_ids": [83031, 83032, 83033, 83034, 83035, 83036, 83037]}}, {"type": "Feature", "geometry": {"type": "Point", "coordinates": [2.2914299, 6.4487285]}, "properties": {"quartier": "Togba_Maria-Gléta", "component_size": 1, "disposition": "REASSIGNED_TO_NEIGHBOUR", "new_owner": "Somè", "iteration": 1, "vertex_ids": [145691]}}, {"type": "Feature", "geometry": {"type": "Point", "coordinates": [2.238054, 6.4559412]}, "properties": {"quartier": "Zoungo", "component_size": 206, "disposition": "REASSIGNED_TO_NEIGHBOUR", "new_owner": "Hêvié", "iteration": 1, "vertex_ids": [115215, 97296, 111121, 111122, 111123, 111120, 115217, 97302, 97303, 97304, 97305, 97306]}}, {"type": "Feature", "geometry": {"type": "Point", "coordinates": [2.2452115, 6.4537524]}, "properties": {"quartier": "Zoungo", "component_size": 8, "disposition": "REASSIGNED_TO_NEIGHBOUR", "new_owner": "Hêvié", "iteration": 1, "vertex_ids": [97472, 97473, 97463, 97464, 97465, 97466, 97470, 97471]}}, {"type": "Feature", "geometry": {"type": "Point", "coordinates": [2.2538066, 6.4462471]}, "properties": {"quartier": "Zoungo", "component_size": 5, "disposition": "REASSIGNED_TO_NEIGHBOUR", "new_owner": "Hêvié", "iteration": 1, "vertex_ids": [102961, 102962, 102963, 102964, 102965]}}, {"type": "Feature", "geometry": {"type": "Point", "coordinates": [2.257158, 6.4688266]}, "properties": {"quartier": "Ouèdo", "component_size": 31, "disposition": "REASSIGNED_TO_NEIGHBOUR", "new_owner": "Dessato\n", "iteration": 1, "vertex_ids": [107919, 107920, 107921, 107922, 107923, 107924, 64945, 64946, 64947, 64948, 64949, 64950]}}, {"type": "Feature", "geometry": {"type": "Point", "coordinates": [2.2673243, 6.4590135]}, "properties": {"quartier": "Ouèdo", "component_size": 7, "disposition": "REASSIGNED_TO_NEIGHBOUR", "new_owner": "Dessato\n", "iteration": 1, "vertex_ids": [124736, 124737, 124134, 124135, 124136, 124137, 124138]}}, {"type": "Feature", "geometry": {"type": "Point", "coordinates": [2.2321545, 6.4877953]}, "properties": {"quartier": "Dossounou", "component_size": 6, "disposition": "REASSIGNED_TO_NEIGHBOUR", "new_owner": "Dassèkomey", "iteration": 1, "vertex_ids": [142899, 142900, 142901, 142902, 142903, 142904]}}, {"type": "Feature", "geometry": {"type": "Point", "coordinates": [2.2631635, 6.4125705]}, "properties": {"quartier": "Akossavié", "component_size": 2, "disposition": "REASSIGNED_TO_NEIGHBOUR", "new_owner": "Adovié", "iteration": 1, "vertex_ids": [149688, 149689]}}, {"type": "Feature", "geometry": {"type": "Point", "coordinates": [2.4281998, 6.3892795]}, "properties": {"quartier": "Ladji", "component_size": 1, "disposition": "EQUAL_SPLIT", "eligible_owners": ["Ahouansori-Towéta-Kpota", "Ahouansori-Towéta"], "iteration": 1, "vertex_ids": [73674]}}, {"type": "Feature", "geometry": {"type": "Point", "coordinates": [2.3539576, 6.3894941]}, "properties": {"quartier": "Plateau\n", "component_size": 2, "disposition": "REASSIGNED_TO_NEIGHBOUR", "new_owner": "Yolomahouto", "iteration": 2, "vertex_ids": [131826, 131827]}}, {"type": "Feature", "geometry": {"type": "Point", "coordinates": [2.3997463, 6.3566798]}, "properties": {"quartier": "Cadjèhoun-Azalokogon", "component_size": 1, "disposition": "REASSIGNED_TO_NEIGHBOUR", "new_owner": "Cadjèhoun-Aupiais", "iteration": 2, "vertex_ids": [863]}}, {"type": "Feature", "geometry": {"type": "Point", "coordinates": [2.4255921, 6.3530637]}, "properties": {"quartier": "Zongo-Nima", "component_size": 12, "disposition": "REASSIGNED_TO_NEIGHBOUR", "new_owner": "Zongo-Ehuzu", "iteration": 2, "vertex_ids": [130275, 130276, 130277, 130278, 130279, 130280, 130281, 130282, 130283, 130284, 130285, 130286]}}, {"type": "Feature", "geometry": {"type": "Point", "coordinates": [2.3760349, 6.3600976]}, "properties": {"quartier": "Fidjrossè-Centre", "component_size": 1, "disposition": "EQUAL_SPLIT", "eligible_owners": ["Aïbatin-Dodo", "Adjaha-Cité"], "iteration": 2, "vertex_ids": [116116]}}]}