{"type": "FeatureCollection", "features": [{"type": "Feature", "geometry": {"type": "LineString", "coordinates": [[2.2250828918158922, 6.386675613102287], [2.2250347110818205, 6.3867475102068045]]}, "properties": {"kind": "virtual_connector", "length_m": 9.6, "penalty_m": 25.0, "winner": "Cococodji"}}, {"type": "Feature", "geometry": {"type": "LineString", "coordinates": [[2.3551378, 6.3893535], [2.355111, 6.3892742]]}, "properties": {"kind": "virtual_connector", "length_m": 9.3, "penalty_m": 25.0, "winner": "Mènontin"}}, {"type": "Feature", "geometry": {"type": "LineString", "coordinates": [[2.3943539, 6.3674437], [2.394328, 6.3675701]]}, "properties": {"kind": "virtual_connector", "length_m": 14.3, "penalty_m": 25.0, "winner": "Houéyihô"}}, {"type": "Feature", "geometry": {"type": "LineString", "coordinates": [[2.249675063112334, 6.518171482109859], [2.2497320097627114, 6.518277173601723]]}, "properties": {"kind": "virtual_connector", "length_m": 13.3, "penalty_m": 25.0, "winner": "Dassèkomey"}}, {"type": "Feature", "geometry": {"type": "LineString", "coordinates": [[2.4841921591446976, 6.376611055112278], [2.4841798507918638, 6.376616894425865]]}, "properties": {"kind": "virtual_connector", "length_m": 1.5, "penalty_m": 25.0, "winner": "Tchanhounkpamè"}}, {"type": "Feature", "geometry": {"type": "LineString", "coordinates": [[2.480837965386702, 6.381471914811809], [2.4808423385276455, 6.3814524238233865]]}, "properties": {"kind": "virtual_connector", "length_m": 2.2, "penalty_m": 25.0, "winner": "Tchanhounkpamè"}}, {"type": "Feature", "geometry": {"type": "LineString", "coordinates": [[2.3929716252241526, 6.684177593378246], [2.3928788766322184, 6.684182204481475]]}, "properties": {"kind": "virtual_connector", "length_m": 10.3, "penalty_m": 25.0, "winner": "Bozoun"}}, {"type": "Feature", "geometry": {"type": "LineString", "coordinates": [[2.4424636, 6.3962154], [2.442485, 6.3962882]]}, "properties": {"kind": "virtual_connector", "length_m": 8.4, "penalty_m": 25.0, "winner": "Agbodjèdo"}}, {"type": "Feature", "geometry": {"type": "LineString", "coordinates": [[2.4424636, 6.3962154], [2.4424142, 6.3962772]]}, "properties": {"kind": "virtual_connector", "length_m": 8.7, "penalty_m": 25.0, "winner": "Agbodjèdo"}}, {"type": "Feature", "geometry": {"type": "LineString", "coordinates": [[2.3145132, 6.5076715], [2.3143996, 6.5076149]]}, "properties": {"kind": "virtual_connector", "length_m": 14.0, "penalty_m": 25.0, "winner": "Kansounkpa"}}, {"type": "Feature", "geometry": {"type": "LineString", "coordinates": [[2.487273361628544, 6.3691691067228176], [2.4872795724568415, 6.369069075728135]]}, "properties": {"kind": "virtual_connector", "length_m": 11.1, "penalty_m": 25.0, "winner": "Dandji-Hokanmè"}}, {"type": "Feature", "geometry": {"type": "LineString", "coordinates": [[2.487273361628544, 6.3691691067228176], [2.487265056506901, 6.369302868201812]]}, "properties": {"kind": "virtual_connector", "length_m": 14.8, "penalty_m": 25.0, "winner": "Dandji-Hokanmè"}}, {"type": "Feature", "geometry": {"type": "LineString", "coordinates": [[2.4812501086170404, 6.3796350019305645], [2.481256511024761, 6.379606466546875]]}, "properties": {"kind": "virtual_connector", "length_m": 3.2, "penalty_m": 25.0, "winner": "Tchanhounkpamè"}}, {"type": "Feature", "geometry": {"type": "LineString", "coordinates": [[2.3553833, 6.4626856], [2.3553126, 6.4625801]]}, "properties": {"kind": "virtual_connector", "length_m": 14.0, "penalty_m": 25.0, "winner": "Agamandin"}}, {"type": "Feature", "geometry": {"type": "LineString", "coordinates": [[2.3552204, 6.4642925], [2.3552231, 6.464194]]}, "properties": {"kind": "virtual_connector", "length_m": 10.9, "penalty_m": 25.0, "winner": "Agamandin"}}, {"type": "Feature", "geometry": {"type": "LineString", "coordinates": [[2.2914865, 6.3842944], [2.2915694, 6.3843576]]}, "properties": {"kind": "virtual_connector", "length_m": 11.5, "penalty_m": 25.0, "winner": "Zounga\n"}}, {"type": "Feature", "geometry": {"type": "LineString", "coordinates": [[2.3239349, 6.4712708], [2.3240617, 6.4712346]]}, "properties": {"kind": "virtual_connector", "length_m": 14.6, "penalty_m": 25.0, "winner": "Aïfa-Calavi"}}, {"type": "Feature", "geometry": {"type": "LineString", "coordinates": [[2.2699548, 6.4869212], [2.2700366, 6.4869905]]}, "properties": {"kind": "virtual_connector", "length_m": 11.9, "penalty_m": 25.0, "winner": "Kpossidja"}}, {"type": "Feature", "geometry": {"type": "LineString", "coordinates": [[2.2240697599785375, 6.422523780950543], [2.224056800635791, 6.422506565693537]]}, "properties": {"kind": "virtual_connector", "length_m": 2.4, "penalty_m": 25.0, "winner": "Houinmè"}}, {"type": "Feature", "geometry": {"type": "LineString", "coordinates": [[2.2230195440612075, 6.389836694078834], [2.223011631426273, 6.3899253039538735]]}, "properties": {"kind": "virtual_connector", "length_m": 9.8, "penalty_m": 25.0, "winner": "Cococodji"}}, {"type": "Feature", "geometry": {"type": "LineString", "coordinates": [[2.218233744000656, 6.415434750119855], [2.218240863269, 6.415441580358074]]}, "properties": {"kind": "virtual_connector", "length_m": 1.1, "penalty_m": 25.0, "winner": "Houinmè"}}, {"type": "Feature", "geometry": {"type": "LineString", "coordinates": [[2.225786823327507, 6.4257609677551075], [2.225807190052976, 6.42584466634119]]}, "properties": {"kind": "virtual_connector", "length_m": 9.5, "penalty_m": 25.0, "winner": "Houinmè"}}, {"type": "Feature", "geometry": {"type": "LineString", "coordinates": [[2.3217577, 6.5553254], [2.3218057, 6.5552911]]}, "properties": {"kind": "virtual_connector", "length_m": 6.5, "penalty_m": 25.0, "winner": "Agonkèssa"}}, {"type": "Feature", "geometry": {"type": "LineString", "coordinates": [[2.3290861, 6.5267633], [2.3291309, 6.5267233]]}, "properties": {"kind": "virtual_connector", "length_m": 6.6, "penalty_m": 25.0, "winner": "Domey-Gbo"}}, {"type": "Feature", "geometry": {"type": "LineString", "coordinates": [[2.349835, 6.4597971], [2.349719, 6.4597996]]}, "properties": {"kind": "virtual_connector", "length_m": 12.8, "penalty_m": 25.0, "winner": "Sèmè"}}, {"type": "Feature", "geometry": {"type": "LineString", "coordinates": [[2.344594, 6.4734466], [2.3444954, 6.4734589]]}, "properties": {"kind": "virtual_connector", "length_m": 11.0, "penalty_m": 25.0, "winner": "Fandji\n"}}, {"type": "Feature", "geometry": {"type": "LineString", "coordinates": [[2.4334033, 6.3781414], [2.433418, 6.3782054]]}, "properties": {"kind": "virtual_connector", "length_m": 7.3, "penalty_m": 25.0, "winner": "Hindé-Nord"}}, {"type": "Feature", "geometry": {"type": "LineString", "coordinates": [[2.4383375, 6.3770791], [2.4382769, 6.3770525]]}, "properties": {"kind": "virtual_connector", "length_m": 7.3, "penalty_m": 25.0, "winner": "Kpankpan"}}, {"type": "Feature", "geometry": {"type": "LineString", "coordinates": [[2.4383375, 6.3770791], [2.438305, 6.3771471]]}, "properties": {"kind": "virtual_connector", "length_m": 8.3, "penalty_m": 25.0, "winner": "Kpankpan"}}, {"type": "Feature", "geometry": {"type": "LineString", "coordinates": [[2.4383375, 6.3770791], [2.4383037, 6.3770991]]}, "properties": {"kind": "virtual_connector", "length_m": 4.3, "penalty_m": 25.0, "winner": "Kpankpan"}}, {"type": "Feature", "geometry": {"type": "LineString", "coordinates": [[2.438305, 6.3771471], [2.4382769, 6.3770525]]}, "properties": {"kind": "virtual_connector", "length_m": 10.9, "penalty_m": 25.0, "winner": "Kpankpan"}}, {"type": "Feature", "geometry": {"type": "LineString", "coordinates": [[2.4383037, 6.3770991], [2.4382769, 6.3770525]]}, "properties": {"kind": "virtual_connector", "length_m": 5.9, "penalty_m": 25.0, "winner": "Kpankpan"}}, {"type": "Feature", "geometry": {"type": "LineString", "coordinates": [[2.4505198, 6.3816387], [2.4504554, 6.3815334]]}, "properties": {"kind": "virtual_connector", "length_m": 13.6, "penalty_m": 25.0, "winner": "Ayélawadjè-Agongbomè"}}, {"type": "Feature", "geometry": {"type": "LineString", "coordinates": [[2.4869668280786827, 6.374106106173793], [2.486961902959956, 6.374185429655551]]}, "properties": {"kind": "virtual_connector", "length_m": 8.8, "penalty_m": 25.0, "winner": "Dandji-Hokanmè"}}, {"type": "Feature", "geometry": {"type": "LineString", "coordinates": [[2.4869668280786827, 6.374106106173793], [2.486972446779088, 6.374015611933181]]}, "properties": {"kind": "virtual_connector", "length_m": 10.0, "penalty_m": 25.0, "winner": "Dandji-Hokanmè"}}, {"type": "Feature", "geometry": {"type": "LineString", "coordinates": [[2.442485, 6.3962882], [2.4424142, 6.3962772]]}, "properties": {"kind": "virtual_connector", "length_m": 7.9, "penalty_m": 25.0, "winner": "Agbodjèdo"}}, {"type": "Feature", "geometry": {"type": "LineString", "coordinates": [[2.2531602, 6.3632698], [2.253128, 6.3631658]]}, "properties": {"kind": "virtual_connector", "length_m": 12.0, "penalty_m": 25.0, "winner": "Cococodji"}}, {"type": "Feature", "geometry": {"type": "LineString", "coordinates": [[2.486972446779088, 6.374015611933181], [2.4869769120122767, 6.373943695323045]]}, "properties": {"kind": "virtual_connector", "length_m": 8.0, "penalty_m": 25.0, "winner": "Dandji-Hokanmè"}}, {"type": "Feature", "geometry": {"type": "LineString", "coordinates": [[2.2770481980608235, 6.34654083286671], [2.2770492573260723, 6.346441405562469]]}, "properties": {"kind": "virtual_connector", "length_m": 11.0, "penalty_m": 25.0, "winner": "Togbin-Fandji"}}, {"type": "Feature", "geometry": {"type": "LineString", "coordinates": [[2.4376739, 6.3865733], [2.4376754, 6.3866481]]}, "properties": {"kind": "virtual_connector", "length_m": 8.3, "penalty_m": 25.0, "winner": "Adôgléta"}}, {"type": "Feature", "geometry": {"type": "LineString", "coordinates": [[2.4382765, 6.3797667], [2.4383142, 6.3798965]]}, "properties": {"kind": "virtual_connector", "length_m": 14.9, "penalty_m": 25.0, "winner": "Kpankpan"}}, {"type": "Feature", "geometry": {"type": "LineString", "coordinates": [[2.4657869, 6.3700432], [2.465803, 6.3699419]]}, "properties": {"kind": "virtual_connector", "length_m": 11.3, "penalty_m": 25.0, "winner": "Nvènamèdé"}}]}