{"type": "FeatureCollection", "features": [{"type": "Feature", "geometry": {"type": "Point", "coordinates": [2.3909869, 6.371847]}, "properties": {"kind": "isolated_contested", "claims": ["Houéyihô", "Védokô"], "current_owner": "Houéyihô-Tannou"}}, {"type": "Feature", "geometry": {"type": "Point", "coordinates": [2.3867235, 6.3646479]}, "properties": {"kind": "isolated_contested", "claims": ["Gbèdégbé", "Missité"], "current_owner": "Aïbatin-Dodo"}}, {"type": "Feature", "geometry": {"type": "Point", "coordinates": [2.3863323, 6.3771706]}, "properties": {"kind": "isolated_contested", "claims": ["Ahogbohoué-Cité-Eucharistie", "Kouhounou"], "current_owner": "Védokô"}}, {"type": "Feature", "geometry": {"type": "Point", "coordinates": [2.4469078, 6.3718277]}, "properties": {"kind": "isolated_contested", "claims": ["Ayélawadjè", "Misséssin"], "current_owner": "Gbèdjèwin"}}, {"type": "Feature", "geometry": {"type": "Point", "coordinates": [2.4574327, 6.3905581]}, "properties": {"kind": "isolated_contested", "claims": ["Gankpodo", "Yénawa"], "current_owner": "Djédjé-Layé"}}, {"type": "Feature", "geometry": {"type": "Point", "coordinates": [2.3961775, 6.3923235]}, "properties": {"kind": "isolated_contested", "claims": ["Fifadji", "Zogbo"], "current_owner": "Yénawa-Fifadji"}}, {"type": "Feature", "geometry": {"type": "Point", "coordinates": [2.3724136, 6.3862505]}, "properties": {"kind": "isolated_contested", "claims": ["Kouhounou", "Mènontin"], "current_owner": "Agla-Petit-Château"}}, {"type": "Feature", "geometry": {"type": "Point", "coordinates": [2.4564202, 6.3900652]}, "properties": {"kind": "isolated_contested", "claims": ["Gankpodo", "Yénawa"], "current_owner": "Djédjé-Layé"}}, {"type": "Feature", "geometry": {"type": "Point", "coordinates": [2.3993142, 6.3575093]}, "properties": {"kind": "isolated_contested", "claims": ["Cadjèhoun-Gare", "Cadjèhoun-Kpota"], "current_owner": "Cadjèhoun-Azalokogon"}}, {"type": "Feature", "geometry": {"type": "Point", "coordinates": [2.3724846, 6.3862985]}, "properties": {"kind": "isolated_contested", "claims": ["Kouhounou", "Mènontin"], "current_owner": "Agla-Petit-Château"}}, {"type": "Feature", "geometry": {"type": "Point", "coordinates": [2.4271698, 6.3699379]}, "properties": {"kind": "isolated_contested", "claims": ["Jéricho-Nord", "Sèdjro-Saint-Michel"], "current_owner": "Jéricho-Sud"}}, {"type": "Feature", "geometry": {"type": "Point", "coordinates": [2.4414043, 6.3717692]}, "properties": {"kind": "isolated_contested", "claims": ["Dédokpo", "Kpankpan"], "current_owner": "Gbénonkpô"}}, {"type": "Feature", "geometry": {"type": "Point", "coordinates": [2.3530008, 6.5073535]}, "properties": {"kind": "isolated_contested", "claims": ["Akassato", "Zopah-Akassato"], "current_owner": "Houèkè-Honou"}}, {"type": "Feature", "geometry": {"type": "Point", "coordinates": [2.4073231, 6.3627424]}, "properties": {"kind": "isolated_contested", "claims": ["Gbégamey-Ahito", "Gbégamey-Centre"], "current_owner": "Gbégamey-Mifongou"}}, {"type": "Feature", "geometry": {"type": "Point", "coordinates": [2.4477437, 6.3865708]}, "properties": {"kind": "isolated_contested", "claims": ["Ayélawadjè-Agongbomè", "Sègbèya-Sud"], "current_owner": "Sègbèya-Nord"}}, {"type": "Feature", "geometry": {"type": "Point", "coordinates": [2.3982567, 6.3705947]}, "properties": {"kind": "isolated_contested", "claims": ["Houéyihô", "Vodjè-Centre"], "current_owner": "Vodjè-Finagnon"}}, {"type": "Feature", "geometry": {"type": "Point", "coordinates": [2.374075, 6.3862222]}, "properties": {"kind": "isolated_contested", "claims": ["Kouhounou", "Mènontin"], "current_owner": "Agla-Petit-Château"}}, {"type": "Feature", "geometry": {"type": "Point", "coordinates": [2.4458881, 6.3886745]}, "properties": {"kind": "isolated_contested", "claims": ["Ayélawadjè-Agongbomè", "Sègbèya-Sud"], "current_owner": "Sègbèya-Nord"}}, {"type": "Feature", "geometry": {"type": "Point", "coordinates": [2.4413869, 6.3718879]}, "properties": {"kind": "isolated_contested", "claims": ["Dédokpo", "Kpankpan"], "current_owner": "Gbénonkpô"}}, {"type": "Feature", "geometry": {"type": "Point", "coordinates": [2.3725424, 6.3863877]}, "properties": {"kind": "isolated_contested", "claims": ["Kouhounou", "Mènontin"], "current_owner": "Agla-Petit-Château"}}, {"type": "Feature", "geometry": {"type": "Point", "coordinates": [2.3961457, 6.3609346]}, "properties": {"kind": "isolated_contested", "claims": ["Cadjèhoun-Azalokogon", "Cadjèhoun-Kpota"], "current_owner": "Cadjèhoun-Agonga"}}, {"type": "Feature", "geometry": {"type": "Point", "coordinates": [2.4777898, 6.3762724]}, "properties": {"kind": "isolated_contested", "claims": ["Avotrou-Aïmonlonfidé", "Avotrou-Gbègo"], "current_owner": "Avotrou-Houézèkomè"}}, {"type": "Feature", "geometry": {"type": "Point", "coordinates": [2.4080108, 6.362698]}, "properties": {"kind": "isolated_contested", "claims": ["Gbégamey-Ahito", "Gbégamey-Centre"], "current_owner": "Gbégamey-Mifongou"}}, {"type": "Feature", "geometry": {"type": "Point", "coordinates": [2.4146985, 6.3637117]}, "properties": {"kind": "isolated_contested", "claims": ["Gbégamey-Dodo-Ayidjè", "Saint-Jean-Gbèdiga"], "current_owner": "Gbégamey-Centre"}}, {"type": "Feature", "geometry": {"type": "Point", "coordinates": [2.3990105, 6.3681927]}, "properties": {"kind": "isolated_contested", "claims": ["Vodjè-Centre", "Vodjè-Finagnon"], "current_owner": "Vodjè-Kpota"}}]}