{"type": "FeatureCollection", "features": [{"type": "Feature", "geometry": {"type": "LineString", "coordinates": [[2.4140498, 6.3872225], [2.4128541, 6.3887937]]}, "properties": {"reason": "hard_water_no_bridge", "way_id": 155441804, "highway": "tertiary"}}, {"type": "Feature", "geometry": {"type": "LineString", "coordinates": [[2.3551378, 6.3893535], [2.3549433, 6.3893908]]}, "properties": {"reason": "hard_water_no_bridge", "way_id": 241123174, "highway": "trunk"}}, {"type": "Feature", "geometry": {"type": "LineString", "coordinates": [[2.3996688, 6.3846775], [2.3993754, 6.3844416]]}, "properties": {"reason": "hard_water_no_bridge", "way_id": 272245097, "highway": "residential"}}, {"type": "Feature", "geometry": {"type": "LineString", "coordinates": [[2.3550514, 6.3891], [2.3552529, 6.3891084]]}, "properties": {"reason": "hard_water_no_bridge", "way_id": 358569810, "highway": "residential"}}, {"type": "Feature", "geometry": {"type": "LineString", "coordinates": [[2.3548011, 6.3893408], [2.355111, 6.3892742]]}, "properties": {"reason": "hard_water_no_bridge", "way_id": 366186120, "highway": "trunk"}}, {"type": "Feature", "geometry": {"type": "LineString", "coordinates": [[2.3071208, 6.3539038], [2.3071128, 6.3534827]]}, "properties": {"reason": "hard_water_no_bridge", "way_id": 388245318, "highway": "tertiary"}}, {"type": "Feature", "geometry": {"type": "LineString", "coordinates": [[2.3545839, 6.3891742], [2.3555832, 6.389208]]}, "properties": {"reason": "hard_water_no_bridge", "way_id": 410819363, "highway": "trunk"}}, {"type": "Feature", "geometry": {"type": "LineString", "coordinates": [[2.4126998, 6.3887024], [2.4131977, 6.3880739]]}, "properties": {"reason": "hard_water_no_bridge", "way_id": 448168807, "highway": "tertiary"}}, {"type": "Feature", "geometry": {"type": "LineString", "coordinates": [[2.37589, 6.3595751], [2.3759034, 6.3594951]]}, "properties": {"reason": "hard_water_no_bridge", "way_id": 836734164, "highway": "residential"}}, {"type": "Feature", "geometry": {"type": "LineString", "coordinates": [[2.3552826, 6.3881427], [2.3551109, 6.3881293]]}, "properties": {"reason": "hard_water_no_bridge", "way_id": 1451951732, "highway": "residential"}}]}