{"type": "FeatureCollection", "features": [{"type": "Feature", "geometry": {"type": "Point", "coordinates": [2.444421, 6.3969552]}, "properties": {"component_size": 9, "commune": "COTONOU", "nearest_chef_lieu": "Agbodjèdo", "nearest_chef_dist_m": 533.8, "disposition": "GRAPH_FRAGMENTATION_UNRECOVERED"}}, {"type": "Feature", "geometry": {"type": "Point", "coordinates": [2.2714207, 6.4780626]}, "properties": {"component_size": 1388, "commune": "ABOMEY-CALAVI", "nearest_chef_lieu": "Adjagbo-Aïdjèdo", "nearest_chef_dist_m": 1004.4, "disposition": "GRAPH_FRAGMENTATION_UNRECOVERED"}}, {"type": "Feature", "geometry": {"type": "Point", "coordinates": [2.4024214, 6.3688182]}, "properties": {"component_size": 16, "commune": "COTONOU", "nearest_chef_lieu": "Vodjè-Centre", "nearest_chef_dist_m": 148.8, "disposition": "GRAPH_FRAGMENTATION_UNRECOVERED"}}, {"type": "Feature", "geometry": {"type": "Point", "coordinates": [2.3968611, 6.3774672]}, "properties": {"component_size": 2, "commune": "COTONOU", "nearest_chef_lieu": "Tonato", "nearest_chef_dist_m": 239.7, "disposition": "GRAPH_FRAGMENTATION_UNRECOVERED"}}, {"type": "Feature", "geometry": {"type": "Point", "coordinates": [2.3985538, 6.3789259]}, "properties": {"component_size": 2, "commune": "COTONOU", "nearest_chef_lieu": "Tonato", "nearest_chef_dist_m": 81.7, "disposition": "GRAPH_FRAGMENTATION_UNRECOVERED"}}, {"type": "Feature", "geometry": {"type": "Point", "coordinates": [2.4521474, 6.3943264]}, "properties": {"component_size": 1, "commune": "COTONOU", "nearest_chef_lieu": "Minontchou", "nearest_chef_dist_m": 259.7, "disposition": "GRAPH_FRAGMENTATION_UNRECOVERED"}}, {"type": "Feature", "geometry": {"type": "Point", "coordinates": [2.4292289, 6.3771003]}, "properties": {"component_size": 2, "commune": "COTONOU", "nearest_chef_lieu": "Aïdjèdo-Vignon", "nearest_chef_dist_m": 112.5, "disposition": "GRAPH_FRAGMENTATION_UNRECOVERED"}}, {"type": "Feature", "geometry": {"type": "Point", "coordinates": [2.3991983, 6.3811697]}, "properties": {"component_size": 2, "commune": "COTONOU", "nearest_chef_lieu": "Gbénonkpô", "nearest_chef_dist_m": 242.8, "disposition": "GRAPH_FRAGMENTATION_UNRECOVERED"}}, {"type": "Feature", "geometry": {"type": "Point", "coordinates": [2.4024342, 6.386449]}, "properties": {"component_size": 10, "commune": "COTONOU", "nearest_chef_lieu": "Missèkplé", "nearest_chef_dist_m": 268.4, "disposition": "GRAPH_FRAGMENTATION_UNRECOVERED"}}, {"type": "Feature", "geometry": {"type": "Point", "coordinates": [2.4556382, 6.3661028]}, "properties": {"component_size": 165, "commune": "COTONOU", "nearest_chef_lieu": "Sodjatinmè-Centre", "nearest_chef_dist_m": 221.6, "disposition": "GRAPH_FRAGMENTATION_UNRECOVERED"}}, {"type": "Feature", "geometry": {"type": "Point", "coordinates": [2.4397291, 6.3558165]}, "properties": {"component_size": 53, "commune": "COTONOU", "nearest_chef_lieu": "Tokpa-Hoho", "nearest_chef_dist_m": 116.2, "disposition": "GRAPH_FRAGMENTATION_UNRECOVERED"}}, {"type": "Feature", "geometry": {"type": "Point", "coordinates": [2.4711042, 6.3675332]}, "properties": {"component_size": 11, "commune": "COTONOU", "nearest_chef_lieu": "Tanto", "nearest_chef_dist_m": 187.9, "disposition": "GRAPH_FRAGMENTATION_UNRECOVERED"}}, {"type": "Feature", "geometry": {"type": "Point", "coordinates": [2.4434589, 6.3602975]}, "properties": {"component_size": 13, "commune": "COTONOU", "nearest_chef_lieu": "Akpakpa-Dodomè", "nearest_chef_dist_m": 87.5, "disposition": "GRAPH_FRAGMENTATION_UNRECOVERED"}}, {"type": "Feature", "geometry": {"type": "Point", "coordinates": [2.4641151, 6.3742275]}, "properties": {"component_size": 30, "commune": "COTONOU", "nearest_chef_lieu": "Nvènamèdé", "nearest_chef_dist_m": 313.8, "disposition": "GRAPH_FRAGMENTATION_UNRECOVERED"}}, {"type": "Feature", "geometry": {"type": "Point", "coordinates": [2.4593403, 6.3784264]}, "properties": {"component_size": 2, "commune": "COTONOU", "nearest_chef_lieu": "Sènadé", "nearest_chef_dist_m": 266.4, "disposition": "GRAPH_FRAGMENTATION_UNRECOVERED"}}, {"type": "Feature", "geometry": {"type": "Point", "coordinates": [2.4423221, 6.3824397]}, "properties": {"component_size": 2, "commune": "COTONOU", "nearest_chef_lieu": "Sègbèya-Sud", "nearest_chef_dist_m": 256.7, "disposition": "GRAPH_FRAGMENTATION_UNRECOVERED"}}, {"type": "Feature", "geometry": {"type": "Point", "coordinates": [2.4418388, 6.3824423]}, "properties": {"component_size": 2, "commune": "COTONOU", "nearest_chef_lieu": "Sègbèya-Sud", "nearest_chef_dist_m": 310.1, "disposition": "GRAPH_FRAGMENTATION_UNRECOVERED"}}, {"type": "Feature", "geometry": {"type": "Point", "coordinates": [2.4177673, 6.6245914]}, "properties": {"component_size": 123, "commune": "ABOMEY-CALAVI", "nearest_chef_lieu": "Yèvié", "nearest_chef_dist_m": 4050.5, "disposition": "GRAPH_FRAGMENTATION_UNRECOVERED"}}, {"type": "Feature", "geometry": {"type": "Point", "coordinates": [2.3898755, 6.3769186]}, "properties": {"component_size": 6, "commune": "COTONOU", "nearest_chef_lieu": "Houéyihô-Tannou", "nearest_chef_dist_m": 439.5, "disposition": "GRAPH_FRAGMENTATION_UNRECOVERED"}}, {"type": "Feature", "geometry": {"type": "Point", "coordinates": [2.359019, 6.3829583]}, "properties": {"component_size": 2, "commune": "ABOMEY-CALAVI", "nearest_chef_lieu": "Agla-Les-Pylônes", "nearest_chef_dist_m": 961.7, "disposition": "GRAPH_FRAGMENTATION_UNRECOVERED"}}, {"type": "Feature", "geometry": {"type": "Point", "coordinates": [2.4251916, 6.3443494]}, "properties": {"component_size": 12, "commune": "COTONOU", "nearest_chef_lieu": "Zongo-Ehuzu", "nearest_chef_dist_m": 876.3, "disposition": "GRAPH_FRAGMENTATION_UNRECOVERED"}}, {"type": "Feature", "geometry": {"type": "Point", "coordinates": [2.4104551, 6.3718012]}, "properties": {"component_size": 46, "commune": "COTONOU", "nearest_chef_lieu": "Gbégamey-Gbagoudo", "nearest_chef_dist_m": 139.7, "disposition": "GRAPH_FRAGMENTATION_UNRECOVERED"}}, {"type": "Feature", "geometry": {"type": "Point", "coordinates": [2.3555482, 6.3893116]}, "properties": {"component_size": 5, "commune": "ABOMEY-CALAVI", "nearest_chef_lieu": "Sèdjannako\n", "nearest_chef_dist_m": 469.3, "disposition": "GRAPH_FRAGMENTATION_UNRECOVERED"}}, {"type": "Feature", "geometry": {"type": "Point", "coordinates": [2.2950576, 6.3870325]}, "properties": {"component_size": 215, "commune": "ABOMEY-CALAVI", "nearest_chef_lieu": "Cocotomey", "nearest_chef_dist_m": 933.5, "disposition": "GRAPH_FRAGMENTATION_UNRECOVERED"}}, {"type": "Feature", "geometry": {"type": "Point", "coordinates": [2.4456947, 6.397495]}, "properties": {"component_size": 18, "commune": "COTONOU", "nearest_chef_lieu": "Agbodjèdo", "nearest_chef_dist_m": 496.0, "disposition": "GRAPH_FRAGMENTATION_UNRECOVERED"}}, {"type": "Feature", "geometry": {"type": "Point", "coordinates": [2.3563018, 6.4720101]}, "properties": {"component_size": 80, "commune": "ABOMEY-CALAVI", "nearest_chef_lieu": "Gbodjo", "nearest_chef_dist_m": 561.5, "disposition": "GRAPH_FRAGMENTATION_UNRECOVERED"}}, {"type": "Feature", "geometry": {"type": "Point", "coordinates": [2.4139537, 6.3619624]}, "properties": {"component_size": 4, "commune": "COTONOU", "nearest_chef_lieu": "Gbégamey-Centre", "nearest_chef_dist_m": 261.5, "disposition": "GRAPH_FRAGMENTATION_UNRECOVERED"}}, {"type": "Feature", "geometry": {"type": "Point", "coordinates": [2.2984962, 6.3693542]}, "properties": {"component_size": 48, "commune": "ABOMEY-CALAVI", "nearest_chef_lieu": "Ganganzounmè\n", "nearest_chef_dist_m": 508.5, "disposition": "GRAPH_FRAGMENTATION_UNRECOVERED"}}, {"type": "Feature", "geometry": {"type": "Point", "coordinates": [2.4681379, 6.3749302]}, "properties": {"component_size": 2, "commune": "COTONOU", "nearest_chef_lieu": "Avotrou-Gbègo", "nearest_chef_dist_m": 222.6, "disposition": "GRAPH_FRAGMENTATION_UNRECOVERED"}}, {"type": "Feature", "geometry": {"type": "Point", "coordinates": [2.3539978, 6.3893848]}, "properties": {"component_size": 4, "commune": "ABOMEY-CALAVI", "nearest_chef_lieu": "Sèdjannako\n", "nearest_chef_dist_m": 260.9, "disposition": "GRAPH_FRAGMENTATION_UNRECOVERED"}}, {"type": "Feature", "geometry": {"type": "Point", "coordinates": [2.4417821, 6.3965047]}, "properties": {"component_size": 1, "commune": "COTONOU", "nearest_chef_lieu": "Agbatô", "nearest_chef_dist_m": 333.2, "disposition": "GRAPH_FRAGMENTATION_UNRECOVERED"}}, {"type": "Feature", "geometry": {"type": "Point", "coordinates": [2.444983, 6.3968563]}, "properties": {"component_size": 15, "commune": "COTONOU", "nearest_chef_lieu": "Agbodjèdo", "nearest_chef_dist_m": 496.8, "disposition": "GRAPH_FRAGMENTATION_UNRECOVERED"}}, {"type": "Feature", "geometry": {"type": "Point", "coordinates": [2.3553054, 6.388813]}, "properties": {"component_size": 3, "commune": "ABOMEY-CALAVI", "nearest_chef_lieu": "Sèdjannako\n", "nearest_chef_dist_m": 419.4, "disposition": "GRAPH_FRAGMENTATION_UNRECOVERED"}}, {"type": "Feature", "geometry": {"type": "Point", "coordinates": [2.3579196, 6.3889711]}, "properties": {"component_size": 52, "commune": "ABOMEY-CALAVI", "nearest_chef_lieu": "Sèdjannako\n", "nearest_chef_dist_m": 752.8, "disposition": "GRAPH_FRAGMENTATION_UNRECOVERED"}}, {"type": "Feature", "geometry": {"type": "Point", "coordinates": [2.3245176, 6.5875834]}, "properties": {"component_size": 6, "commune": "ABOMEY-CALAVI", "nearest_chef_lieu": "Gbodjoko", "nearest_chef_dist_m": 335.7, "disposition": "GRAPH_FRAGMENTATION_UNRECOVERED"}}, {"type": "Feature", "geometry": {"type": "Point", "coordinates": [2.2992191, 6.5686872]}, "properties": {"component_size": 10, "commune": "ABOMEY-CALAVI", "nearest_chef_lieu": "Adjamè\n", "nearest_chef_dist_m": 709.1, "disposition": "GRAPH_FRAGMENTATION_UNRECOVERED"}}, {"type": "Feature", "geometry": {"type": "Point", "coordinates": [2.3432435, 6.4145276]}, "properties": {"component_size": 263, "commune": "ABOMEY-CALAVI", "nearest_chef_lieu": "Tokpa-Zoungo-Sud\n", "nearest_chef_dist_m": 562.3, "disposition": "GRAPH_FRAGMENTATION_UNRECOVERED"}}, {"type": "Feature", "geometry": {"type": "Point", "coordinates": [2.279309, 6.3562456]}, "properties": {"component_size": 2, "commune": "ABOMEY-CALAVI", "nearest_chef_lieu": "Djèkpota", "nearest_chef_dist_m": 1545.6, "disposition": "GRAPH_FRAGMENTATION_UNRECOVERED"}}, {"type": "Feature", "geometry": {"type": "Point", "coordinates": [2.3362428, 6.6285901]}, "properties": {"component_size": 8, "commune": "ABOMEY-CALAVI", "nearest_chef_lieu": "Houégoudo\n", "nearest_chef_dist_m": 712.4, "disposition": "GRAPH_FRAGMENTATION_UNRECOVERED"}}, {"type": "Feature", "geometry": {"type": "Point", "coordinates": [2.4022347, 6.504738]}, "properties": {"component_size": 77, "commune": "ABOMEY-CALAVI", "nearest_chef_lieu": "Akassato", "nearest_chef_dist_m": 4042.4, "disposition": "GRAPH_FRAGMENTATION_UNRECOVERED"}}, {"type": "Feature", "geometry": {"type": "Point", "coordinates": [2.4191226, 6.344302]}, "properties": {"component_size": 10, "commune": "COTONOU", "nearest_chef_lieu": "Zongo-Ehuzu", "nearest_chef_dist_m": 954.4, "disposition": "GRAPH_FRAGMENTATION_UNRECOVERED"}}, {"type": "Feature", "geometry": {"type": "Point", "coordinates": [2.3130918, 6.4389464]}, "properties": {"component_size": 30, "commune": "ABOMEY-CALAVI", "nearest_chef_lieu": "Tankpê-Yoho", "nearest_chef_dist_m": 839.1, "disposition": "GRAPH_FRAGMENTATION_UNRECOVERED"}}, {"type": "Feature", "geometry": {"type": "Point", "coordinates": [2.4060374, 6.5424624]}, "properties": {"component_size": 11, "commune": "ABOMEY-CALAVI", "nearest_chef_lieu": "Agassa-Godomey", "nearest_chef_dist_m": 4671.8, "disposition": "GRAPH_FRAGMENTATION_UNRECOVERED"}}, {"type": "Feature", "geometry": {"type": "Point", "coordinates": [2.3877694, 6.3566297]}, "properties": {"component_size": 9, "commune": "COTONOU", "nearest_chef_lieu": "Aïbatin-Dodo", "nearest_chef_dist_m": 759.9, "disposition": "GRAPH_FRAGMENTATION_UNRECOVERED"}}, {"type": "Feature", "geometry": {"type": "Point", "coordinates": [2.3537913, 6.3905479]}, "properties": {"component_size": 31, "commune": "ABOMEY-CALAVI", "nearest_chef_lieu": "Sèdjannako\n", "nearest_chef_dist_m": 283.4, "disposition": "GRAPH_FRAGMENTATION_UNRECOVERED"}}, {"type": "Feature", "geometry": {"type": "Point", "coordinates": [2.3566202, 6.3929536]}, "properties": {"component_size": 4, "commune": "ABOMEY-CALAVI", "nearest_chef_lieu": "Sèdjannako\n", "nearest_chef_dist_m": 549.0, "disposition": "GRAPH_FRAGMENTATION_UNRECOVERED"}}, {"type": "Feature", "geometry": {"type": "Point", "coordinates": [2.355639, 6.3897329]}, "properties": {"component_size": 19, "commune": "ABOMEY-CALAVI", "nearest_chef_lieu": "Sèdjannako\n", "nearest_chef_dist_m": 339.0, "disposition": "GRAPH_FRAGMENTATION_UNRECOVERED"}}, {"type": "Feature", "geometry": {"type": "Point", "coordinates": [2.4119805, 6.3694168]}, "properties": {"component_size": 2, "commune": "COTONOU", "nearest_chef_lieu": "Dagbédji-Sikê", "nearest_chef_dist_m": 55.1, "disposition": "GRAPH_FRAGMENTATION_UNRECOVERED"}}, {"type": "Feature", "geometry": {"type": "Point", "coordinates": [2.3614389, 6.6845473]}, "properties": {"component_size": 14, "commune": "ABOMEY-CALAVI", "nearest_chef_lieu": "Kpanroun", "nearest_chef_dist_m": 1086.8, "disposition": "GRAPH_FRAGMENTATION_UNRECOVERED"}}, {"type": "Feature", "geometry": {"type": "Point", "coordinates": [2.3151525, 6.554878]}, "properties": {"component_size": 1, "commune": "ABOMEY-CALAVI", "nearest_chef_lieu": "Yêkon-Aga", "nearest_chef_dist_m": 542.7, "disposition": "GRAPH_FRAGMENTATION_UNRECOVERED"}}, {"type": "Feature", "geometry": {"type": "Point", "coordinates": [2.4074838, 6.5451569]}, "properties": {"component_size": 11, "commune": "ABOMEY-CALAVI", "nearest_chef_lieu": "Agassa-Godomey", "nearest_chef_dist_m": 4676.3, "disposition": "GRAPH_FRAGMENTATION_UNRECOVERED"}}, {"type": "Feature", "geometry": {"type": "Point", "coordinates": [2.2422865, 6.3627673]}, "properties": {"component_size": 13, "commune": "ABOMEY-CALAVI", "nearest_chef_lieu": "Cococodji", "nearest_chef_dist_m": 4272.8, "disposition": "GRAPH_FRAGMENTATION_UNRECOVERED"}}, {"type": "Feature", "geometry": {"type": "Point", "coordinates": [2.4433193, 6.3599573]}, "properties": {"component_size": 2, "commune": "COTONOU", "nearest_chef_lieu": "Tokpa-Hoho", "nearest_chef_dist_m": 290.7, "disposition": "GRAPH_FRAGMENTATION_UNRECOVERED"}}, {"type": "Feature", "geometry": {"type": "Point", "coordinates": [2.405166, 6.6675422]}, "properties": {"component_size": 12, "commune": "ABOMEY-CALAVI", "nearest_chef_lieu": "Bozoun", "nearest_chef_dist_m": 1973.6, "disposition": "GRAPH_FRAGMENTATION_UNRECOVERED"}}, {"type": "Feature", "geometry": {"type": "Point", "coordinates": [2.4029867, 6.6739932]}, "properties": {"component_size": 8, "commune": "ABOMEY-CALAVI", "nearest_chef_lieu": "Bozoun", "nearest_chef_dist_m": 1833.8, "disposition": "GRAPH_FRAGMENTATION_UNRECOVERED"}}, {"type": "Feature", "geometry": {"type": "Point", "coordinates": [2.3997157, 6.6670493]}, "properties": {"component_size": 44, "commune": "ABOMEY-CALAVI", "nearest_chef_lieu": "Bozoun", "nearest_chef_dist_m": 1917.6, "disposition": "GRAPH_FRAGMENTATION_UNRECOVERED"}}, {"type": "Feature", "geometry": {"type": "Point", "coordinates": [2.3909453, 6.4743368]}, "properties": {"component_size": 1, "commune": "ABOMEY-CALAVI", "nearest_chef_lieu": "Gbodjo", "nearest_chef_dist_m": 3478.3, "disposition": "GRAPH_FRAGMENTATION_UNRECOVERED"}}, {"type": "Feature", "geometry": {"type": "Point", "coordinates": [2.3993272, 6.3830149]}, "properties": {"component_size": 2, "commune": "COTONOU", "nearest_chef_lieu": "Gbénonkpô", "nearest_chef_dist_m": 218.1, "disposition": "GRAPH_FRAGMENTATION_UNRECOVERED"}}, {"type": "Feature", "geometry": {"type": "Point", "coordinates": [2.3983245, 6.488299]}, "properties": {"component_size": 37, "commune": "ABOMEY-CALAVI", "nearest_chef_lieu": "Houèkè-Gbo", "nearest_chef_dist_m": 3557.0, "disposition": "GRAPH_FRAGMENTATION_UNRECOVERED"}}, {"type": "Feature", "geometry": {"type": "Point", "coordinates": [2.3999088, 6.4967458]}, "properties": {"component_size": 10, "commune": "ABOMEY-CALAVI", "nearest_chef_lieu": "Houèkè-Gbo", "nearest_chef_dist_m": 3969.9, "disposition": "GRAPH_FRAGMENTATION_UNRECOVERED"}}, {"type": "Feature", "geometry": {"type": "Point", "coordinates": [2.3253793, 6.4983911]}, "properties": {"component_size": 32, "commune": "ABOMEY-CALAVI", "nearest_chef_lieu": "Zoundja\n", "nearest_chef_dist_m": 1291.7, "disposition": "GRAPH_FRAGMENTATION_UNRECOVERED"}}, {"type": "Feature", "geometry": {"type": "Point", "coordinates": [2.3521753, 6.4316533]}, "properties": {"component_size": 1, "commune": "ABOMEY-CALAVI", "nearest_chef_lieu": "Tokpa-Zoungo-Nord\n", "nearest_chef_dist_m": 228.6, "disposition": "GRAPH_FRAGMENTATION_UNRECOVERED"}}, {"type": "Feature", "geometry": {"type": "Point", "coordinates": [2.3525621, 6.3894483]}, "properties": {"component_size": 20, "commune": "ABOMEY-CALAVI", "nearest_chef_lieu": "Sèdjannako\n", "nearest_chef_dist_m": 250.2, "disposition": "GRAPH_FRAGMENTATION_UNRECOVERED"}}, {"type": "Feature", "geometry": {"type": "Point", "coordinates": [2.2437165, 6.3748537]}, "properties": {"component_size": 2, "commune": "ABOMEY-CALAVI", "nearest_chef_lieu": "Cococodji", "nearest_chef_dist_m": 3477.2, "disposition": "GRAPH_FRAGMENTATION_UNRECOVERED"}}, {"type": "Feature", "geometry": {"type": "Point", "coordinates": [2.355988, 6.3879507]}, "properties": {"component_size": 3, "commune": "ABOMEY-CALAVI", "nearest_chef_lieu": "Sèdjannako\n", "nearest_chef_dist_m": 498.2, "disposition": "GRAPH_FRAGMENTATION_UNRECOVERED"}}, {"type": "Feature", "geometry": {"type": "Point", "coordinates": [2.3838272, 6.636956]}, "properties": {"component_size": 5, "commune": "ABOMEY-CALAVI", "nearest_chef_lieu": "Kpotomey", "nearest_chef_dist_m": 3072.1, "disposition": "GRAPH_FRAGMENTATION_UNRECOVERED"}}, {"type": "Feature", "geometry": {"type": "Point", "coordinates": [2.3838599, 6.6497288]}, "properties": {"component_size": 7, "commune": "ABOMEY-CALAVI", "nearest_chef_lieu": "Avagbé", "nearest_chef_dist_m": 2254.0, "disposition": "GRAPH_FRAGMENTATION_UNRECOVERED"}}, {"type": "Feature", "geometry": {"type": "Point", "coordinates": [2.4188777, 6.344442]}, "properties": {"component_size": 1, "commune": "COTONOU", "nearest_chef_lieu": "Zongo-Ehuzu", "nearest_chef_dist_m": 1069.7, "disposition": "GRAPH_FRAGMENTATION_UNRECOVERED"}}, {"type": "Feature", "geometry": {"type": "Point", "coordinates": [2.4458288, 6.3583366]}, "properties": {"component_size": 2, "commune": "COTONOU", "nearest_chef_lieu": "Akpakpa-Dodomè", "nearest_chef_dist_m": 322.5, "disposition": "GRAPH_FRAGMENTATION_UNRECOVERED"}}, {"type": "Feature", "geometry": {"type": "Point", "coordinates": [2.3570582, 6.3565415]}, "properties": {"component_size": 1, "commune": "ABOMEY-CALAVI", "nearest_chef_lieu": "Fidjrossè-Kpota", "nearest_chef_dist_m": 419.1, "disposition": "GRAPH_FRAGMENTATION_UNRECOVERED"}}, {"type": "Feature", "geometry": {"type": "Point", "coordinates": [2.4330944, 6.3700339]}, "properties": {"component_size": 2, "commune": "COTONOU", "nearest_chef_lieu": "Dantôkpa", "nearest_chef_dist_m": 146.4, "disposition": "GRAPH_FRAGMENTATION_UNRECOVERED"}}, {"type": "Feature", "geometry": {"type": "Point", "coordinates": [2.3908678, 6.4746918]}, "properties": {"component_size": 6, "commune": "ABOMEY-CALAVI", "nearest_chef_lieu": "Houèkè-Gbo", "nearest_chef_dist_m": 3495.4, "disposition": "GRAPH_FRAGMENTATION_UNRECOVERED"}}, {"type": "Feature", "geometry": {"type": "Point", "coordinates": [2.468201, 6.3777485]}, "properties": {"component_size": 2, "commune": "COTONOU", "nearest_chef_lieu": "Avotrou-Gbègo", "nearest_chef_dist_m": 89.2, "disposition": "GRAPH_FRAGMENTATION_UNRECOVERED"}}, {"type": "Feature", "geometry": {"type": "Point", "coordinates": [2.3567337, 6.3782587]}, "properties": {"component_size": 1, "commune": "ABOMEY-CALAVI", "nearest_chef_lieu": "Agla-Agongbomey", "nearest_chef_dist_m": 888.5, "disposition": "GRAPH_FRAGMENTATION_UNRECOVERED"}}, {"type": "Feature", "geometry": {"type": "Point", "coordinates": [2.4088499, 6.3723427]}, "properties": {"component_size": 1, "commune": "COTONOU", "nearest_chef_lieu": "Gbégamey-Gbagoudo", "nearest_chef_dist_m": 219.1, "disposition": "GRAPH_FRAGMENTATION_UNRECOVERED"}}, {"type": "Feature", "geometry": {"type": "Point", "coordinates": [2.4083969, 6.3727357]}, "properties": {"component_size": 1, "commune": "COTONOU", "nearest_chef_lieu": "Agbondjèdo", "nearest_chef_dist_m": 274.8, "disposition": "GRAPH_FRAGMENTATION_UNRECOVERED"}}, {"type": "Feature", "geometry": {"type": "Point", "coordinates": [2.4065808, 6.374282]}, "properties": {"component_size": 1, "commune": "COTONOU", "nearest_chef_lieu": "Agbondjèdo", "nearest_chef_dist_m": 328.2, "disposition": "GRAPH_FRAGMENTATION_UNRECOVERED"}}, {"type": "Feature", "geometry": {"type": "Point", "coordinates": [2.4000487, 6.4960489]}, "properties": {"component_size": 4, "commune": "ABOMEY-CALAVI", "nearest_chef_lieu": "Houèkè-Gbo", "nearest_chef_dist_m": 3921.6, "disposition": "GRAPH_FRAGMENTATION_UNRECOVERED"}}, {"type": "Feature", "geometry": {"type": "Point", "coordinates": [2.2509098, 6.4564669]}, "properties": {"component_size": 2, "commune": "ABOMEY-CALAVI", "nearest_chef_lieu": "Zoungo", "nearest_chef_dist_m": 140.5, "disposition": "GRAPH_FRAGMENTATION_UNRECOVERED"}}, {"type": "Feature", "geometry": {"type": "Point", "coordinates": [2.4432193, 6.3798261]}, "properties": {"component_size": 2, "commune": "COTONOU", "nearest_chef_lieu": "Sègbèya-Sud", "nearest_chef_dist_m": 320.3, "disposition": "GRAPH_FRAGMENTATION_UNRECOVERED"}}, {"type": "Feature", "geometry": {"type": "Point", "coordinates": [2.2700019, 6.3969966]}, "properties": {"component_size": 2, "commune": "ABOMEY-CALAVI", "nearest_chef_lieu": "Sogan", "nearest_chef_dist_m": 451.7, "disposition": "GRAPH_FRAGMENTATION_UNRECOVERED"}}, {"type": "Feature", "geometry": {"type": "Point", "coordinates": [2.2248756, 6.4235447]}, "properties": {"component_size": 4, "commune": "ABOMEY-CALAVI", "nearest_chef_lieu": "Houinmè", "nearest_chef_dist_m": 672.4, "disposition": "GRAPH_FRAGMENTATION_UNRECOVERED"}}, {"type": "Feature", "geometry": {"type": "Point", "coordinates": [2.464405, 6.3669156]}, "properties": {"component_size": 22, "commune": "COTONOU", "nearest_chef_lieu": "Donaten", "nearest_chef_dist_m": 379.8, "disposition": "GRAPH_FRAGMENTATION_UNRECOVERED"}}, {"type": "Feature", "geometry": {"type": "Point", "coordinates": [2.3635089, 6.3657222]}, "properties": {"component_size": 1, "commune": "ABOMEY-CALAVI", "nearest_chef_lieu": "Hlazounto", "nearest_chef_dist_m": 355.4, "disposition": "GRAPH_FRAGMENTATION_UNRECOVERED"}}, {"type": "Feature", "geometry": {"type": "Point", "coordinates": [2.3567881, 6.3899812]}, "properties": {"component_size": 3, "commune": "ABOMEY-CALAVI", "nearest_chef_lieu": "Sèdjannako\n", "nearest_chef_dist_m": 507.5, "disposition": "GRAPH_FRAGMENTATION_UNRECOVERED"}}, {"type": "Feature", "geometry": {"type": "Point", "coordinates": [2.3984067, 6.375029]}, "properties": {"component_size": 2, "commune": "COTONOU", "nearest_chef_lieu": "Tonato", "nearest_chef_dist_m": 359.1, "disposition": "GRAPH_FRAGMENTATION_UNRECOVERED"}}]}