{"type": "FeatureCollection", "features": [{"type": "Feature", "geometry": {"type": "Point", "coordinates": [2.2793707, 6.4732374]}, "properties": {"component_size": 1388, "commune": "ABOMEY-CALAVI", "eligible_quartiers": ["Adjagbo-Aïdjèdo", "Kpossidja", "Dessato\n", "Drabo"], "disposition": "MULTI_QUARTIER_REVIEW"}}, {"type": "Feature", "geometry": {"type": "Point", "coordinates": [2.2950576, 6.3870325]}, "properties": {"component_size": 215, "commune": "ABOMEY-CALAVI", "eligible_quartiers": ["Cocotomey", "Gbodjè-Womey\n", "Sodo\n"], "disposition": "MULTI_QUARTIER_REVIEW"}}, {"type": "Feature", "geometry": {"type": "Point", "coordinates": [2.4556382, 6.3661028]}, "properties": {"component_size": 165, "commune": "COTONOU", "eligible_quartiers": ["Énagnon", "Sodjatinmè-Centre", "Fifatin", "Irédé", "Fifadji-Houto (Jak)", "Sodjatinmè-Est"], "disposition": "MULTI_QUARTIER_REVIEW"}}, {"type": "Feature", "geometry": {"type": "Point", "coordinates": [2.4397291, 6.3558165]}, "properties": {"component_size": 53, "commune": "COTONOU", "eligible_quartiers": ["Guinkômey", "Xwlacôdji-Kpodji", "Akpakpa-Dodomè"], "disposition": "MULTI_QUARTIER_REVIEW"}}, {"type": "Feature", "geometry": {"type": "Point", "coordinates": [2.3130918, 6.4389464]}, "properties": {"component_size": 30, "commune": "ABOMEY-CALAVI", "eligible_quartiers": ["Houèto", "Fifonsi\n", "Tokan"], "disposition": "MULTI_QUARTIER_REVIEW"}}, {"type": "Feature", "geometry": {"type": "Point", "coordinates": [2.4641151, 6.3742275]}, "properties": {"component_size": 30, "commune": "COTONOU", "eligible_quartiers": ["Sodjatinmè-Est", "Sènadé-Sèkon", "Suru-Léré", "Yagbé"], "disposition": "MULTI_QUARTIER_REVIEW"}}, {"type": "Feature", "geometry": {"type": "Point", "coordinates": [2.464405, 6.3669156]}, "properties": {"component_size": 22, "commune": "COTONOU", "eligible_quartiers": ["Fifadji-Houto (Jak)", "Nvènamèdé", "Donaten"], "disposition": "MULTI_QUARTIER_REVIEW"}}, {"type": "Feature", "geometry": {"type": "Point", "coordinates": [2.4024214, 6.3688182]}, "properties": {"component_size": 16, "commune": "COTONOU", "eligible_quartiers": ["Vodjè-Kpota", "Cadjèhoun-Kpota", "Cadjèhoun-Détinsa"], "disposition": "MULTI_QUARTIER_REVIEW"}}, {"type": "Feature", "geometry": {"type": "Point", "coordinates": [2.4434589, 6.3602975]}, "properties": {"component_size": 13, "commune": "COTONOU", "eligible_quartiers": ["Tokpa-Hoho", "Ohé", "Abokicodji-Lagune"], "disposition": "MULTI_QUARTIER_REVIEW"}}, {"type": "Feature", "geometry": {"type": "Point", "coordinates": [2.4711042, 6.3675332]}, "properties": {"component_size": 11, "commune": "COTONOU", "eligible_quartiers": ["Nvènamèdé", "Donaten", "Finagnon"], "disposition": "MULTI_QUARTIER_REVIEW"}}, {"type": "Feature", "geometry": {"type": "Point", "coordinates": [2.3898755, 6.3769186]}, "properties": {"component_size": 6, "commune": "COTONOU", "eligible_quartiers": ["Ahogbohoué-Cité-Eucharistie", "Missogbé", "Houéyihô-Tannou"], "disposition": "MULTI_QUARTIER_REVIEW"}}, {"type": "Feature", "geometry": {"type": "Point", "coordinates": [2.4119805, 6.3694168]}, "properties": {"component_size": 2, "commune": "COTONOU", "eligible_quartiers": ["Gbégamey-Dodo-Ayidjè", "Saint-Jean-Gbèdiga", "Gbégamey-Gbagoudo"], "disposition": "MULTI_QUARTIER_REVIEW"}}]}