{"type": "FeatureCollection", "generator": "eya · build_menontin_kouhounou_frontier_pilot.py", "note": "POI anchors — VALID or INVALID per pilot rules.", "features": [{"type": "Feature", "geometry": {"type": "Point", "coordinates": [2.3653212, 6.3930128999999996]}, "properties": {"poi_name": "Menontin", "matched_quartier": "Mènontin", "status": "VALID", "reason": "reached_X_network", "n_seeds": 11, "n_X_seeds": 0, "paths": [{"Y_id": 241, "Y_name": "Kindonou", "cost_m": 146.7, "path_len": 2}], "n_reassignable": 11, "target_color": "#93d64b"}}, {"type": "Feature", "geometry": {"type": "Point", "coordinates": [2.3727256999999997, 6.3871500999999995]}, "properties": {"poi_name": "Epp Menontin", "matched_quartier": "Mènontin", "status": "VALID", "reason": "reached_X_network", "n_seeds": 27, "n_X_seeds": 3, "paths": [{"Y_id": 2, "Y_name": "Agla-Petit-Château", "cost_m": 42.5, "path_len": 2}], "n_reassignable": 24, "target_color": "#93d64b"}}, {"type": "Feature", "geometry": {"type": "Point", "coordinates": [2.3720171, 6.388129999999999]}, "properties": {"poi_name": "Complexe Scolaire Universitaire \"Clé De La Réussite\" Menontin", "matched_quartier": "Mènontin", "status": "VALID", "reason": "already_on_X_network", "n_seeds": 10, "n_X_seeds": 10, "paths": [], "n_reassignable": 0, "target_color": "#93d64b"}}, {"type": "Feature", "geometry": {"type": "Point", "coordinates": [2.367636, 6.3917154]}, "properties": {"poi_name": "Eglise Catholique de Menontin Marie Auxiliatrice", "matched_quartier": "Mènontin", "status": "VALID", "reason": "already_on_X_network", "n_seeds": 29, "n_X_seeds": 29, "paths": [], "n_reassignable": 0, "target_color": "#93d64b"}}, {"type": "Feature", "geometry": {"type": "Point", "coordinates": [2.3709629999999997, 6.3903209]}, "properties": {"poi_name": "Clinique De Menontin", "matched_quartier": "Mènontin", "status": "VALID", "reason": "already_on_X_network", "n_seeds": 16, "n_X_seeds": 16, "paths": [], "n_reassignable": 0, "target_color": "#93d64b"}}, {"type": "Feature", "geometry": {"type": "Point", "coordinates": [2.3700986000000004, 6.3918098]}, "properties": {"poi_name": "Clinique le Bon Berger à Cotonou / Menontin au Bénin", "matched_quartier": "Mènontin", "status": "VALID", "reason": "already_on_X_network", "n_seeds": 27, "n_X_seeds": 27, "paths": [], "n_reassignable": 0, "target_color": "#93d64b"}}, {"type": "Feature", "geometry": {"type": "Point", "coordinates": [2.3640670999999998, 6.3885046999999995]}, "properties": {"poi_name": "Carrefour Menontin", "matched_quartier": "Mènontin", "status": "VALID", "reason": "reached_X_network", "n_seeds": 34, "n_X_seeds": 0, "paths": [{"Y_id": 241, "Y_name": "Kindonou", "cost_m": 125.8, "path_len": 3}], "n_reassignable": 35, "target_color": "#93d64b"}}, {"type": "Feature", "geometry": {"type": "Point", "coordinates": [2.364257, 6.3887432]}, "properties": {"poi_name": "Agence BOA MENONTIN", "matched_quartier": "Mènontin", "status": "VALID", "reason": "reached_X_network", "n_seeds": 38, "n_X_seeds": 0, "paths": [{"Y_id": 241, "Y_name": "Kindonou", "cost_m": 107.9, "path_len": 3}], "n_reassignable": 39, "target_color": "#93d64b"}}, {"type": "Feature", "geometry": {"type": "Point", "coordinates": [2.3722684, 6.390218099999999]}, "properties": {"poi_name": "Marché moderne de Menontin", "matched_quartier": "Mènontin", "status": "VALID", "reason": "already_on_X_network", "n_seeds": 26, "n_X_seeds": 26, "paths": [], "n_reassignable": 0, "target_color": "#93d64b"}}, {"type": "Feature", "geometry": {"type": "Point", "coordinates": [2.3685136, 6.3876765]}, "properties": {"poi_name": "Nouvelle pharmacie Menontin", "matched_quartier": "Mènontin", "status": "VALID", "reason": "reached_X_network", "n_seeds": 21, "n_X_seeds": 20, "paths": [{"Y_id": -1, "Y_name": "<unclaimed>", "cost_m": 84.6, "path_len": 2}], "n_reassignable": 1, "target_color": "#93d64b"}}, {"type": "Feature", "geometry": {"type": "Point", "coordinates": [2.3744815999999997, 6.387450599999999]}, "properties": {"poi_name": "supermarche mont sinai menontin", "matched_quartier": "Mènontin", "status": "VALID", "reason": "reached_X_network", "n_seeds": 20, "n_X_seeds": 3, "paths": [{"Y_id": 2, "Y_name": "Agla-Petit-Château", "cost_m": 63.3, "path_len": 2}], "n_reassignable": 17, "target_color": "#93d64b"}}, {"type": "Feature", "geometry": {"type": "Point", "coordinates": [2.3744815999999997, 6.387450599999999]}, "properties": {"poi_name": "SURFACE D'ACHAT DE MENONTIN", "matched_quartier": "Mènontin", "status": "VALID", "reason": "reached_X_network", "n_seeds": 20, "n_X_seeds": 3, "paths": [{"Y_id": 2, "Y_name": "Agla-Petit-Château", "cost_m": 63.3, "path_len": 2}], "n_reassignable": 17, "target_color": "#93d64b"}}, {"type": "Feature", "geometry": {"type": "Point", "coordinates": [2.3653484, 6.3930112]}, "properties": {"poi_name": "BOUTIQUE DE MENONTIN", "matched_quartier": "Mènontin", "status": "VALID", "reason": "reached_X_network", "n_seeds": 11, "n_X_seeds": 0, "paths": [{"Y_id": 241, "Y_name": "Kindonou", "cost_m": 146.7, "path_len": 2}], "n_reassignable": 11, "target_color": "#93d64b"}}, {"type": "Feature", "geometry": {"type": "Point", "coordinates": [2.3658476, 6.388302299999999]}, "properties": {"poi_name": "ELLE FASHION DE MENONTIN", "matched_quartier": "Mènontin", "status": "VALID", "reason": "reached_X_network", "n_seeds": 23, "n_X_seeds": 6, "paths": [{"Y_id": -1, "Y_name": "<unclaimed>", "cost_m": 79.4, "path_len": 2}, {"Y_id": 241, "Y_name": "Kindonou", "cost_m": 56.1, "path_len": 2}], "n_reassignable": 17, "target_color": "#93d64b"}}, {"type": "Feature", "geometry": {"type": "Point", "coordinates": [2.384408, 6.3862236]}, "properties": {"poi_name": "Mairie du 10ème arrondissement (kouhounou)", "matched_quartier": "Kouhounou", "status": "VALID", "reason": "reached_X_network", "n_seeds": 24, "n_X_seeds": 0, "paths": [{"Y_id": 94, "Y_name": "Agounvocôdji", "cost_m": 153.3, "path_len": 3}], "n_reassignable": 25, "target_color": "#dcca40"}}, {"type": "Feature", "geometry": {"type": "Point", "coordinates": [2.3853904, 6.3766433]}, "properties": {"poi_name": "Commissariat de Kouhounou", "matched_quartier": "Kouhounou", "status": "VALID", "reason": "reached_X_network", "n_seeds": 19, "n_X_seeds": 0, "paths": [{"Y_id": 252, "Y_name": "Védokô", "cost_m": 375.5, "path_len": 11}], "n_reassignable": 19, "target_color": "#dcca40"}}, {"type": "Feature", "geometry": {"type": "Point", "coordinates": [2.384505, 6.3863159]}, "properties": {"poi_name": "Poste Kouhounou", "matched_quartier": "Kouhounou", "status": "VALID", "reason": "reached_X_network", "n_seeds": 25, "n_X_seeds": 0, "paths": [{"Y_id": 94, "Y_name": "Agounvocôdji", "cost_m": 164.6, "path_len": 4}], "n_reassignable": 27, "target_color": "#dcca40"}}, {"type": "Feature", "geometry": {"type": "Point", "coordinates": [2.3837412, 6.3860075]}, "properties": {"poi_name": "Station Ewell de Kouhounou", "matched_quartier": "Kouhounou", "status": "VALID", "reason": "reached_X_network", "n_seeds": 23, "n_X_seeds": 0, "paths": [{"Y_id": 94, "Y_name": "Agounvocôdji", "cost_m": 107.4, "path_len": 2}], "n_reassignable": 23, "target_color": "#dcca40"}}, {"type": "Feature", "geometry": {"type": "Point", "coordinates": [2.3734837, 6.3855381]}, "properties": {"poi_name": "STATION EWELL KOUHOUNOU", "matched_quartier": "Kouhounou", "status": "VALID", "reason": "reached_X_network", "n_seeds": 38, "n_X_seeds": 4, "paths": [{"Y_id": 2, "Y_name": "Agla-Petit-Château", "cost_m": 15.3, "path_len": 2}], "n_reassignable": 34, "target_color": "#dcca40"}}, {"type": "Feature", "geometry": {"type": "Point", "coordinates": [2.3788939, 6.3889616]}, "properties": {"poi_name": "kouhounou", "matched_quartier": "Kouhounou", "status": "INVALID", "reason": "no_connection_to_X_network", "n_seeds": 8, "n_X_seeds": 0, "paths": [], "n_reassignable": 0, "target_color": "#dcca40"}}, {"type": "Feature", "geometry": {"type": "Point", "coordinates": [2.3791922, 6.3795708]}, "properties": {"poi_name": "Pharmacie veterinaire de Kouhounou", "matched_quartier": "Kouhounou", "status": "VALID", "reason": "already_on_X_network", "n_seeds": 78, "n_X_seeds": 78, "paths": [], "n_reassignable": 0, "target_color": "#dcca40"}}]}