{"type": "FeatureCollection", "generator": "eya · build_menontin_kouhounou_frontier_pilot.py", "note": "Split midpoints per contested edge.", "features": [{"type": "Feature", "geometry": {"type": "Point", "coordinates": [2.3723996, 6.386340949999999]}, "properties": {"edge_length_m": 21.0, "menontin_side_m": 10.5, "kouhounou_side_m": 10.5, "split_t": 0.5, "d_M_u": 329.1, "d_K_u": 170.6, "d_M_v": 308.1, "d_K_v": 149.6}}, {"type": "Feature", "geometry": {"type": "Point", "coordinates": [2.3732287390384137, 6.386070020394172]}, "properties": {"edge_length_m": 59.4, "menontin_side_m": 1.9, "kouhounou_side_m": 57.5, "split_t": 0.032, "d_M_u": 84.2, "d_K_u": 88.0, "d_M_v": 143.6, "d_K_v": 28.6}}, {"type": "Feature", "geometry": {"type": "Point", "coordinates": [2.3743219528, 6.3866335882]}, "properties": {"edge_length_m": 53.1, "menontin_side_m": 0.1, "kouhounou_side_m": 53.1, "split_t": 0.001, "d_M_u": 233.2, "d_K_u": 159.4, "d_M_v": 221.4, "d_K_v": 106.3}}, {"type": "Feature", "geometry": {"type": "Point", "coordinates": [2.373980962671083, 6.386341358739634]}, "properties": {"edge_length_m": 212.0, "menontin_side_m": 143.5, "kouhounou_side_m": 68.5, "split_t": 0.677, "d_M_u": 0.0, "d_K_u": 240.6, "d_M_v": 143.6, "d_K_v": 28.6}}, {"type": "Feature", "geometry": {"type": "Point", "coordinates": [2.37233245, 6.38629115]}, "properties": {"edge_length_m": 20.1, "menontin_side_m": 10.0, "kouhounou_side_m": 10.0, "split_t": 0.5, "d_M_u": 341.3, "d_K_u": 169.1, "d_M_v": 321.2, "d_K_v": 149.0}}, {"type": "Feature", "geometry": {"type": "Point", "coordinates": [2.37246205, 6.3864322]}, "properties": {"edge_length_m": 20.3, "menontin_side_m": 10.2, "kouhounou_side_m": 10.2, "split_t": 0.5, "d_M_u": 293.4, "d_K_u": 160.3, "d_M_v": 313.8, "d_K_v": 180.6}}]}