{"type": "FeatureCollection", "generator": "eya · build_menontin_kouhounou_frontier_pilot.py", "note": "150 m debug rings.", "features": [{"type": "Feature", "geometry": {"type": "Polygon", "coordinates": [[[2.3666770984097325, 6.3930128999999996], [2.3666604050503244, 6.3932251776348465], [2.3666107360180106, 6.393432228289815], [2.3665293143292083, 6.393628953690618], [2.3664181448561195, 6.393810509804992], [2.366279964960122, 6.393972426118852], [2.3661181770888478, 6.394110715715182], [2.3659367649966305, 6.394221973445162], [2.365740195651253, 6.394303459774237], [2.3655333092423754, 6.394353168238549], [2.3653212, 6.3943698748507325], [2.3651090907576244, 6.394353168238549], [2.3649022043487467, 6.394303459774237], [2.3647056350033693, 6.394221973445162], [2.364524222911152, 6.394110715715182], [2.3643624350398778, 6.393972426118852], [2.3642242551438803, 6.393810509804992], [2.3641130856707915, 6.393628953690618], [2.364031663981989, 6.393432228289815], [2.3639819949496754, 6.3932251776348465], [2.3639653015902673, 6.3930128999999996], [2.3639819949496754, 6.392800622365153], [2.364031663981989, 6.392593571710184], [2.3641130856707915, 6.392396846309381], [2.3642242551438803, 6.392215290195007], [2.3643624350398778, 6.392053373881147], [2.364524222911152, 6.391915084284817], [2.3647056350033693, 6.391803826554837], [2.3649022043487467, 6.391722340225762], [2.3651090907576244, 6.39167263176145], [2.3653212, 6.391655925149267], [2.3655333092423754, 6.39167263176145], [2.365740195651253, 6.391722340225762], [2.3659367649966305, 6.391803826554837], [2.3661181770888478, 6.391915084284817], [2.366279964960122, 6.392053373881147], [2.3664181448561195, 6.392215290195007], [2.3665293143292083, 6.392396846309381], [2.3666107360180106, 6.392593571710184], [2.3666604050503244, 6.392800622365153], [2.3666770984097325, 6.3930128999999996]]]}, "properties": {"poi_name": "Menontin", "matched_quartier": "Mènontin", "status": "VALID", "target_color": "#93d64b"}}, {"type": "Feature", "geometry": {"type": "Polygon", "coordinates": [[[2.374081582871673, 6.3871500999999995], [2.3740648897035643, 6.3873623776348465], [2.3740152212404375, 6.387569428289815], [2.373933800484696, 6.387766153690618], [2.3738226322855653, 6.387947709804992], [2.3736844539730546, 6.388109626118852], [2.3735226679558052, 6.388247915715182], [2.373341257942499, 6.388359173445162], [2.373144690849729, 6.388440659774237], [2.372937806811687, 6.388490368238549], [2.3727256999999997, 6.388507074850732], [2.3725135931883123, 6.388490368238549], [2.3723067091502705, 6.388440659774237], [2.3721101420575006, 6.388359173445162], [2.371928732044194, 6.388247915715182], [2.371766946026945, 6.388109626118852], [2.371628767714434, 6.387947709804992], [2.3715175995153035, 6.387766153690618], [2.371436178759562, 6.387569428289815], [2.371386510296435, 6.3873623776348465], [2.3713698171283264, 6.3871500999999995], [2.371386510296435, 6.3869378223651525], [2.371436178759562, 6.386730771710184], [2.3715175995153035, 6.386534046309381], [2.371628767714434, 6.386352490195007], [2.371766946026945, 6.386190573881147], [2.371928732044194, 6.386052284284817], [2.3721101420575006, 6.385941026554837], [2.3723067091502705, 6.385859540225762], [2.3725135931883123, 6.38580983176145], [2.3727256999999997, 6.385793125149267], [2.372937806811687, 6.38580983176145], [2.373144690849729, 6.385859540225762], [2.373341257942499, 6.385941026554837], [2.3735226679558052, 6.386052284284817], [2.3736844539730546, 6.386190573881147], [2.3738226322855653, 6.386352490195007], [2.373933800484696, 6.386534046309381], [2.3740152212404375, 6.386730771710184], [2.3740648897035643, 6.3869378223651525], [2.374081582871673, 6.3871500999999995]]]}, "properties": {"poi_name": "Epp Menontin", "matched_quartier": "Mènontin", "status": "VALID", "target_color": "#93d64b"}}, {"type": "Feature", "geometry": {"type": "Polygon", "coordinates": [[[2.3733729854676695, 6.388129999999999], [2.3733562922675993, 6.388342277634846], [2.373306623709377, 6.388549328289815], [2.373225202797746, 6.3887460536906175], [2.3731140343857704, 6.388927609804992], [2.3729758558087015, 6.389089526118852], [2.3728140694816937, 6.389227815715182], [2.3726326591210567, 6.389339073445162], [2.372436091651936, 6.389420559774237], [2.3722292072177904, 6.389470268238549], [2.3720171, 6.389486974850732], [2.3718049927822094, 6.389470268238549], [2.371598108348064, 6.389420559774237], [2.371401540878943, 6.389339073445162], [2.371220130518306, 6.389227815715182], [2.3710583441912982, 6.389089526118852], [2.3709201656142294, 6.388927609804992], [2.370808997202254, 6.3887460536906175], [2.370727576290623, 6.388549328289815], [2.3706779077324005, 6.388342277634846], [2.3706612145323303, 6.388129999999999], [2.3706779077324005, 6.387917722365152], [2.370727576290623, 6.387710671710184], [2.370808997202254, 6.387513946309381], [2.3709201656142294, 6.387332390195007], [2.3710583441912982, 6.387170473881147], [2.371220130518306, 6.387032184284817], [2.371401540878943, 6.386920926554837], [2.371598108348064, 6.386839440225762], [2.3718049927822094, 6.38678973176145], [2.3720171, 6.3867730251492665], [2.3722292072177904, 6.38678973176145], [2.372436091651936, 6.386839440225762], [2.3726326591210567, 6.386920926554837], [2.3728140694816937, 6.387032184284817], [2.3729758558087015, 6.387170473881147], [2.3731140343857704, 6.387332390195007], [2.373225202797746, 6.387513946309381], [2.373306623709377, 6.387710671710184], [2.3733562922675993, 6.387917722365152], [2.3733729854676695, 6.388129999999999]]]}, "properties": {"poi_name": "Complexe Scolaire Universitaire \"Clé De La Réussite\" Menontin", "matched_quartier": "Mènontin", "status": "VALID", "target_color": "#93d64b"}}, {"type": "Feature", "geometry": {"type": "Polygon", "coordinates": [[[2.368991894969741, 6.3917154], [2.368975201652685, 6.391927677634847], [2.368925532746384, 6.3921347282898155], [2.3688441112641536, 6.392331453690618], [2.368732942073108, 6.3925130098049925], [2.368594762527681, 6.392674926118852], [2.3684329750668716, 6.392813215715182], [2.368251563434907, 6.392924473445162], [2.3680549945882374, 6.3930059597742375], [2.3678481087042424, 6.393055668238549], [2.367636, 6.393072374850733], [2.3674238912957577, 6.393055668238549], [2.3672170054117627, 6.3930059597742375], [2.367020436565093, 6.392924473445162], [2.3668390249331286, 6.392813215715182], [2.3666772374723193, 6.392674926118852], [2.366539057926892, 6.3925130098049925], [2.3664278887358465, 6.392331453690618], [2.3663464672536163, 6.3921347282898155], [2.366296798347315, 6.391927677634847], [2.3662801050302593, 6.3917154], [2.366296798347315, 6.391503122365153], [2.3663464672536163, 6.391296071710184], [2.3664278887358465, 6.391099346309382], [2.366539057926892, 6.390917790195007], [2.3666772374723193, 6.390755873881147], [2.3668390249331286, 6.390617584284818], [2.367020436565093, 6.390506326554838], [2.3672170054117627, 6.390424840225762], [2.3674238912957577, 6.39037513176145], [2.367636, 6.390358425149267], [2.3678481087042424, 6.39037513176145], [2.3680549945882374, 6.390424840225762], [2.368251563434907, 6.390506326554838], [2.3684329750668716, 6.390617584284818], [2.368594762527681, 6.390755873881147], [2.368732942073108, 6.390917790195007], [2.3688441112641536, 6.391099346309382], [2.368925532746384, 6.391296071710184], [2.368975201652685, 6.391503122365153], [2.368991894969741, 6.3917154]]]}, "properties": {"poi_name": "Eglise Catholique de Menontin Marie Auxiliatrice", "matched_quartier": "Mènontin", "status": "VALID", "target_color": "#93d64b"}}, {"type": "Feature", "geometry": {"type": "Polygon", "coordinates": [[[2.372318891273373, 6.3903209], [2.372302198001825, 6.390533177634847], [2.372252529230929, 6.390740228289816], [2.372171107970665, 6.390936953690618], [2.3720599390826833, 6.3911185098049925], [2.3719217599139535, 6.391280426118852], [2.3717599728942003, 6.391418715715182], [2.371578561756791, 6.391529973445162], [2.3713819934459965, 6.3916114597742375], [2.3711751081260024, 6.391661168238549], [2.3709629999999997, 6.391677874850733], [2.370750891873997, 6.391661168238549], [2.370544006554003, 6.3916114597742375], [2.3703474382432086, 6.391529973445162], [2.370166027105799, 6.391418715715182], [2.370004240086046, 6.391280426118852], [2.369866060917316, 6.3911185098049925], [2.3697548920293343, 6.390936953690618], [2.3696734707690705, 6.390740228289816], [2.3696238019981744, 6.390533177634847], [2.3696071087266266, 6.3903209], [2.3696238019981744, 6.390108622365153], [2.3696734707690705, 6.389901571710184], [2.3697548920293343, 6.389704846309382], [2.369866060917316, 6.389523290195007], [2.370004240086046, 6.389361373881147], [2.370166027105799, 6.389223084284818], [2.3703474382432086, 6.389111826554838], [2.370544006554003, 6.389030340225762], [2.370750891873997, 6.38898063176145], [2.3709629999999997, 6.388963925149267], [2.3711751081260024, 6.38898063176145], [2.3713819934459965, 6.389030340225762], [2.371578561756791, 6.389111826554838], [2.3717599728942003, 6.389223084284818], [2.3719217599139535, 6.389361373881147], [2.3720599390826833, 6.389523290195007], [2.372171107970665, 6.389704846309382], [2.372252529230929, 6.389901571710184], [2.372302198001825, 6.390108622365153], [2.372318891273373, 6.3903209]]]}, "properties": {"poi_name": "Clinique De Menontin", "matched_quartier": "Mènontin", "status": "VALID", "target_color": "#93d64b"}}, {"type": "Feature", "geometry": {"type": "Polygon", "coordinates": [[[2.3714544952199947, 6.3918098], [2.371437801899858, 6.392022077634847], [2.3713881329843898, 6.392229128289816], [2.3713067114871316, 6.392425853690618], [2.3711955422755677, 6.3926074098049925], [2.371057362704637, 6.392769326118852], [2.370895575213967, 6.392907615715182], [2.37071416354852, 6.393018873445162], [2.3705175946655705, 6.3931003597742375], [2.370310708743391, 6.393150068238549], [2.3700986000000004, 6.393166774850733], [2.3698864912566098, 6.393150068238549], [2.3696796053344302, 6.3931003597742375], [2.3694830364514807, 6.393018873445162], [2.3693016247860337, 6.392907615715182], [2.369139837295364, 6.392769326118852], [2.369001657724433, 6.3926074098049925], [2.368890488512869, 6.392425853690618], [2.368809067015611, 6.392229128289816], [2.368759398100143, 6.392022077634847], [2.368742704780006, 6.3918098], [2.368759398100143, 6.391597522365153], [2.368809067015611, 6.391390471710184], [2.368890488512869, 6.391193746309382], [2.369001657724433, 6.391012190195007], [2.369139837295364, 6.3908502738811475], [2.3693016247860337, 6.390711984284818], [2.3694830364514807, 6.390600726554838], [2.3696796053344302, 6.390519240225762], [2.3698864912566098, 6.39046953176145], [2.3700986000000004, 6.390452825149267], [2.370310708743391, 6.39046953176145], [2.3705175946655705, 6.390519240225762], [2.37071416354852, 6.390600726554838], [2.370895575213967, 6.390711984284818], [2.371057362704637, 6.3908502738811475], [2.3711955422755677, 6.391012190195007], [2.3713067114871316, 6.391193746309382], [2.3713881329843898, 6.391390471710184], [2.371437801899858, 6.391597522365153], [2.3714544952199947, 6.3918098]]]}, "properties": {"poi_name": "Clinique le Bon Berger à Cotonou / Menontin au Bénin", "matched_quartier": "Mènontin", "status": "VALID", "target_color": "#93d64b"}}, {"type": "Feature", "geometry": {"type": "Polygon", "coordinates": [[[2.365422986460449, 6.3885046999999995], [2.3654062932481565, 6.3887169776348465], [2.3653566246535664, 6.388924028289815], [2.365275203682319, 6.389120753690618], [2.365164035188946, 6.389302309804992], [2.3650258565107025, 6.389464226118852], [2.364864070065235, 6.389602515715182], [2.3646826595717694, 6.389713773445162], [2.3644860919587214, 6.389795259774237], [2.3642792073730954, 6.389844968238549], [2.3640670999999998, 6.389861674850732], [2.363854992626904, 6.389844968238549], [2.363648108041278, 6.389795259774237], [2.36345154042823, 6.389713773445162], [2.3632701299347647, 6.389602515715182], [2.363108343489297, 6.389464226118852], [2.3629701648110535, 6.389302309804992], [2.3628589963176805, 6.389120753690618], [2.362777575346433, 6.388924028289815], [2.362727906751843, 6.3887169776348465], [2.3627112135395505, 6.3885046999999995], [2.362727906751843, 6.3882924223651525], [2.362777575346433, 6.388085371710184], [2.3628589963176805, 6.387888646309381], [2.3629701648110535, 6.387707090195007], [2.363108343489297, 6.387545173881147], [2.3632701299347647, 6.387406884284817], [2.36345154042823, 6.387295626554837], [2.363648108041278, 6.387214140225762], [2.363854992626904, 6.38716443176145], [2.3640670999999998, 6.3871477251492665], [2.3642792073730954, 6.38716443176145], [2.3644860919587214, 6.387214140225762], [2.3646826595717694, 6.387295626554837], [2.364864070065235, 6.387406884284817], [2.3650258565107025, 6.387545173881147], [2.365164035188946, 6.387707090195007], [2.365275203682319, 6.387888646309381], [2.3653566246535664, 6.388085371710184], [2.3654062932481565, 6.3882924223651525], [2.365422986460449, 6.3885046999999995]]]}, "properties": {"poi_name": "Carrefour Menontin", "matched_quartier": "Mènontin", "status": "VALID", "target_color": "#93d64b"}}, {"type": "Feature", "geometry": {"type": "Polygon", "coordinates": [[[2.365612887092394, 6.3887432], [2.365596193872321, 6.388955477634847], [2.3655465252545818, 6.389162528289816], [2.3654651042453856, 6.3893592536906185], [2.3653539357002002, 6.389540809804993], [2.365215756957555, 6.389702726118853], [2.3650539704366826, 6.389841015715183], [2.364872559858666, 6.389952273445163], [2.364675992154003, 6.390033759774238], [2.3644691074719533, 6.39008346823855], [2.364257, 6.390100174850733], [2.3640448925280464, 6.39008346823855], [2.3638380078459966, 6.390033759774238], [2.3636414401413335, 6.389952273445163], [2.363460029563317, 6.389841015715183], [2.3632982430424447, 6.389702726118853], [2.3631600642997994, 6.389540809804993], [2.363048895754614, 6.3893592536906185], [2.362967474745418, 6.389162528289816], [2.3629178061276788, 6.388955477634847], [2.362901112907606, 6.3887432], [2.3629178061276788, 6.388530922365153], [2.362967474745418, 6.388323871710185], [2.363048895754614, 6.388127146309382], [2.3631600642997994, 6.387945590195008], [2.3632982430424447, 6.387783673881148], [2.363460029563317, 6.387645384284818], [2.3636414401413335, 6.387534126554838], [2.3638380078459966, 6.387452640225763], [2.3640448925280464, 6.387402931761451], [2.364257, 6.3873862251492675], [2.3644691074719533, 6.387402931761451], [2.364675992154003, 6.387452640225763], [2.364872559858666, 6.387534126554838], [2.3650539704366826, 6.387645384284818], [2.365215756957555, 6.387783673881148], [2.3653539357002002, 6.387945590195008], [2.3654651042453856, 6.388127146309382], [2.3655465252545818, 6.388323871710185], [2.365596193872321, 6.388530922365153], [2.365612887092394, 6.3887432]]]}, "properties": {"poi_name": "Agence BOA MENONTIN", "matched_quartier": "Mènontin", "status": "VALID", "target_color": "#93d64b"}}, {"type": "Feature", "geometry": {"type": "Polygon", "coordinates": [[[2.3736242910009158, 6.390218099999999], [2.3736075977327227, 6.390430377634846], [2.373557928971807, 6.390637428289815], [2.3734765077279043, 6.3908341536906175], [2.373365338862261, 6.391015709804992], [2.3732271597212975, 6.391177626118852], [2.3730653727340543, 6.3913159157151815], [2.372883961633098, 6.3914271734451615], [2.372687393361803, 6.391508659774237], [2.372480508083381, 6.391558368238549], [2.3722684, 6.391575074850732], [2.3720562919166186, 6.391558368238549], [2.3718494066381965, 6.391508659774237], [2.3716528383669018, 6.3914271734451615], [2.3714714272659454, 6.3913159157151815], [2.371309640278702, 6.391177626118852], [2.3711714611377386, 6.391015709804992], [2.3710602922720954, 6.3908341536906175], [2.3709788710281927, 6.390637428289815], [2.370929202267277, 6.390430377634846], [2.370912508999084, 6.390218099999999], [2.370929202267277, 6.390005822365152], [2.3709788710281927, 6.389798771710184], [2.3710602922720954, 6.389602046309381], [2.3711714611377386, 6.389420490195007], [2.371309640278702, 6.389258573881147], [2.3714714272659454, 6.389120284284817], [2.3716528383669018, 6.389009026554837], [2.3718494066381965, 6.388927540225762], [2.3720562919166186, 6.38887783176145], [2.3722684, 6.388861125149266], [2.372480508083381, 6.38887783176145], [2.372687393361803, 6.388927540225762], [2.372883961633098, 6.389009026554837], [2.3730653727340543, 6.389120284284817], [2.3732271597212975, 6.389258573881147], [2.373365338862261, 6.389420490195007], [2.3734765077279043, 6.389602046309381], [2.373557928971807, 6.389798771710184], [2.3736075977327227, 6.390005822365152], [2.3736242910009158, 6.390218099999999]]]}, "properties": {"poi_name": "Marché moderne de Menontin", "matched_quartier": "Mènontin", "status": "VALID", "target_color": "#93d64b"}}, {"type": "Feature", "geometry": {"type": "Polygon", "coordinates": [[[2.369869484266186, 6.3876765], [2.369852791080908, 6.387888777634847], [2.3698031225666982, 6.388095828289816], [2.369721701727216, 6.3882925536906185], [2.36961053341375, 6.388474109804993], [2.3694723549591243, 6.388636026118853], [2.3693105687754796, 6.388774315715183], [2.369129158575595, 6.388885573445163], [2.368932591280657, 6.388967059774238], [2.3687257070298373, 6.38901676823855], [2.3685136, 6.389033474850733], [2.3683014929701627, 6.38901676823855], [2.368094608719343, 6.388967059774238], [2.367898041424405, 6.388885573445163], [2.3677166312245204, 6.388774315715183], [2.3675548450408757, 6.388636026118853], [2.36741666658625, 6.388474109804993], [2.367305498272784, 6.3882925536906185], [2.3672240774333018, 6.388095828289816], [2.367174408919092, 6.387888777634847], [2.367157715733814, 6.3876765], [2.367174408919092, 6.387464222365153], [2.3672240774333018, 6.387257171710185], [2.367305498272784, 6.387060446309382], [2.36741666658625, 6.386878890195008], [2.3675548450408757, 6.386716973881148], [2.3677166312245204, 6.386578684284818], [2.367898041424405, 6.386467426554838], [2.368094608719343, 6.386385940225763], [2.3683014929701627, 6.386336231761451], [2.3685136, 6.3863195251492675], [2.3687257070298373, 6.386336231761451], [2.368932591280657, 6.386385940225763], [2.369129158575595, 6.386467426554838], [2.3693105687754796, 6.386578684284818], [2.3694723549591243, 6.386716973881148], [2.36961053341375, 6.386878890195008], [2.369721701727216, 6.387060446309382], [2.3698031225666982, 6.387257171710185], [2.369852791080908, 6.387464222365153], [2.369869484266186, 6.3876765]]]}, "properties": {"poi_name": "Nouvelle pharmacie Menontin", "matched_quartier": "Mènontin", "status": "VALID", "target_color": "#93d64b"}}, {"type": "Feature", "geometry": {"type": "Polygon", "coordinates": [[[2.3758374836677283, 6.387450599999999], [2.3758207904898185, 6.387662877634846], [2.375771121997531, 6.387869928289815], [2.3756897011939864, 6.388066653690617], [2.3755785329295875, 6.388248209804992], [2.3754403545359506, 6.388410126118852], [2.375278568423715, 6.3885484157151815], [2.3750971583039004, 6.3886596734451615], [2.3749005910957233, 6.388741159774237], [2.3746937069362177, 6.388790868238549], [2.3744815999999997, 6.388807574850732], [2.3742694930637818, 6.388790868238549], [2.3740626089042762, 6.388741159774237], [2.373866041696099, 6.3886596734451615], [2.3736846315762845, 6.3885484157151815], [2.373522845464049, 6.388410126118852], [2.373384667070412, 6.388248209804992], [2.373273498806013, 6.388066653690617], [2.3731920780024685, 6.387869928289815], [2.373142409510181, 6.387662877634846], [2.373125716332271, 6.387450599999999], [2.373142409510181, 6.387238322365152], [2.3731920780024685, 6.387031271710184], [2.373273498806013, 6.386834546309381], [2.373384667070412, 6.386652990195007], [2.373522845464049, 6.386491073881147], [2.3736846315762845, 6.386352784284817], [2.373866041696099, 6.386241526554837], [2.3740626089042762, 6.386160040225762], [2.3742694930637818, 6.38611033176145], [2.3744815999999997, 6.386093625149266], [2.3746937069362177, 6.38611033176145], [2.3749005910957233, 6.386160040225762], [2.3750971583039004, 6.386241526554837], [2.375278568423715, 6.386352784284817], [2.3754403545359506, 6.386491073881147], [2.3755785329295875, 6.386652990195007], [2.3756897011939864, 6.386834546309381], [2.375771121997531, 6.387031271710184], [2.3758207904898185, 6.387238322365152], [2.3758374836677283, 6.387450599999999]]]}, "properties": {"poi_name": "supermarche mont sinai menontin", "matched_quartier": "Mènontin", "status": "VALID", "target_color": "#93d64b"}}, {"type": "Feature", "geometry": {"type": "Polygon", "coordinates": [[[2.3758374836677283, 6.387450599999999], [2.3758207904898185, 6.387662877634846], [2.375771121997531, 6.387869928289815], [2.3756897011939864, 6.388066653690617], [2.3755785329295875, 6.388248209804992], [2.3754403545359506, 6.388410126118852], [2.375278568423715, 6.3885484157151815], [2.3750971583039004, 6.3886596734451615], [2.3749005910957233, 6.388741159774237], [2.3746937069362177, 6.388790868238549], [2.3744815999999997, 6.388807574850732], [2.3742694930637818, 6.388790868238549], [2.3740626089042762, 6.388741159774237], [2.373866041696099, 6.3886596734451615], [2.3736846315762845, 6.3885484157151815], [2.373522845464049, 6.388410126118852], [2.373384667070412, 6.388248209804992], [2.373273498806013, 6.388066653690617], [2.3731920780024685, 6.387869928289815], [2.373142409510181, 6.387662877634846], [2.373125716332271, 6.387450599999999], [2.373142409510181, 6.387238322365152], [2.3731920780024685, 6.387031271710184], [2.373273498806013, 6.386834546309381], [2.373384667070412, 6.386652990195007], [2.373522845464049, 6.386491073881147], [2.3736846315762845, 6.386352784284817], [2.373866041696099, 6.386241526554837], [2.3740626089042762, 6.386160040225762], [2.3742694930637818, 6.38611033176145], [2.3744815999999997, 6.386093625149266], [2.3746937069362177, 6.38611033176145], [2.3749005910957233, 6.386160040225762], [2.3750971583039004, 6.386241526554837], [2.375278568423715, 6.386352784284817], [2.3754403545359506, 6.386491073881147], [2.3755785329295875, 6.386652990195007], [2.3756897011939864, 6.386834546309381], [2.375771121997531, 6.387031271710184], [2.3758207904898185, 6.387238322365152], [2.3758374836677283, 6.387450599999999]]]}, "properties": {"poi_name": "SURFACE D'ACHAT DE MENONTIN", "matched_quartier": "Mènontin", "status": "VALID", "target_color": "#93d64b"}}, {"type": "Feature", "geometry": {"type": "Polygon", "coordinates": [[[2.366704298405225, 6.3930112], [2.3666876050458723, 6.393223477634847], [2.3666379360137233, 6.393430528289816], [2.366556514325192, 6.393627253690618], [2.366445344852473, 6.393808809804993], [2.3663071649569347, 6.3939707261188525], [2.366145377086198, 6.394109015715182], [2.365963964994584, 6.394220273445162], [2.3657673956498604, 6.394301759774238], [2.36556050924167, 6.39435146823855], [2.3653484, 6.394368174850733], [2.3651362907583295, 6.39435146823855], [2.364929404350139, 6.394301759774238], [2.3647328350054155, 6.394220273445162], [2.3645514229138014, 6.394109015715182], [2.364389635043065, 6.3939707261188525], [2.3642514551475267, 6.393808809804993], [2.3641402856748077, 6.393627253690618], [2.3640588639862763, 6.393430528289816], [2.3640091949541273, 6.393223477634847], [2.3639925015947747, 6.3930112], [2.3640091949541273, 6.392798922365153], [2.3640588639862763, 6.392591871710184], [2.3641402856748077, 6.392395146309382], [2.3642514551475267, 6.3922135901950075], [2.364389635043065, 6.392051673881148], [2.3645514229138014, 6.391913384284818], [2.3647328350054155, 6.391802126554838], [2.364929404350139, 6.3917206402257625], [2.3651362907583295, 6.391670931761451], [2.3653484, 6.391654225149267], [2.36556050924167, 6.391670931761451], [2.3657673956498604, 6.3917206402257625], [2.365963964994584, 6.391802126554838], [2.366145377086198, 6.391913384284818], [2.3663071649569347, 6.392051673881148], [2.366445344852473, 6.3922135901950075], [2.366556514325192, 6.392395146309382], [2.3666379360137233, 6.392591871710184], [2.3666876050458723, 6.392798922365153], [2.366704298405225, 6.3930112]]]}, "properties": {"poi_name": "BOUTIQUE DE MENONTIN", "matched_quartier": "Mènontin", "status": "VALID", "target_color": "#93d64b"}}, {"type": "Feature", "geometry": {"type": "Polygon", "coordinates": [[[2.3672034859241764, 6.388302299999999], [2.367186792718486, 6.388514577634846], [2.367137124143541, 6.388721628289815], [2.3670557032044965, 6.388918353690618], [2.366944534755093, 6.389099909804992], [2.3668063561315007, 6.389261826118852], [2.366644569750022, 6.389400115715182], [2.3664631593283065, 6.389511373445162], [2.3662665917930044, 6.389592859774237], [2.366059707289204, 6.389642568238549], [2.3658476, 6.389659274850732], [2.365635492710796, 6.389642568238549], [2.3654286082069955, 6.389592859774237], [2.3652320406716933, 6.389511373445162], [2.365050630249978, 6.389400115715182], [2.364888843868499, 6.389261826118852], [2.364750665244907, 6.389099909804992], [2.3646394967955033, 6.388918353690618], [2.364558075856459, 6.388721628289815], [2.3645084072815137, 6.388514577634846], [2.3644917140758235, 6.388302299999999], [2.3645084072815137, 6.388090022365152], [2.364558075856459, 6.387882971710184], [2.3646394967955033, 6.387686246309381], [2.364750665244907, 6.387504690195007], [2.364888843868499, 6.387342773881147], [2.365050630249978, 6.387204484284817], [2.3652320406716933, 6.387093226554837], [2.3654286082069955, 6.387011740225762], [2.365635492710796, 6.38696203176145], [2.3658476, 6.3869453251492665], [2.366059707289204, 6.38696203176145], [2.3662665917930044, 6.387011740225762], [2.3664631593283065, 6.387093226554837], [2.366644569750022, 6.387204484284817], [2.3668063561315007, 6.387342773881147], [2.366944534755093, 6.387504690195007], [2.3670557032044965, 6.387686246309381], [2.367137124143541, 6.387882971710184], [2.367186792718486, 6.388090022365152], [2.3672034859241764, 6.388302299999999]]]}, "properties": {"poi_name": "ELLE FASHION DE MENONTIN", "matched_quartier": "Mènontin", "status": "VALID", "target_color": "#93d64b"}}, {"type": "Feature", "geometry": {"type": "Polygon", "coordinates": [[[2.385763880417521, 6.3862236], [2.3857471872796268, 6.386435877634847], [2.3856975189064005, 6.386642928289816], [2.3856160982980303, 6.386839653690618], [2.385504930300115, 6.387021209804993], [2.385366752237707, 6.3871831261188525], [2.385204966513291, 6.387321415715182], [2.3850235568283376, 6.387432673445162], [2.384826990091354, 6.387514159774238], [2.3846201064277737, 6.38756386823855], [2.384408, 6.387580574850733], [2.3841958935722265, 6.38756386823855], [2.383989009908646, 6.387514159774238], [2.3837924431716626, 6.387432673445162], [2.383611033486709, 6.387321415715182], [2.383449247762293, 6.3871831261188525], [2.3833110696998854, 6.387021209804993], [2.38319990170197, 6.386839653690618], [2.3831184810935997, 6.386642928289816], [2.3830688127203734, 6.386435877634847], [2.383052119582479, 6.3862236], [2.3830688127203734, 6.386011322365153], [2.3831184810935997, 6.385804271710184], [2.38319990170197, 6.385607546309382], [2.3833110696998854, 6.3854259901950075], [2.383449247762293, 6.385264073881148], [2.383611033486709, 6.385125784284818], [2.3837924431716626, 6.385014526554838], [2.383989009908646, 6.3849330402257625], [2.3841958935722265, 6.384883331761451], [2.384408, 6.384866625149267], [2.3846201064277737, 6.384883331761451], [2.384826990091354, 6.3849330402257625], [2.3850235568283376, 6.385014526554838], [2.385204966513291, 6.385125784284818], [2.385366752237707, 6.385264073881148], [2.385504930300115, 6.3854259901950075], [2.3856160982980303, 6.385607546309382], [2.3856975189064005, 6.385804271710184], [2.3857471872796268, 6.386011322365153], [2.385763880417521, 6.3862236]]]}, "properties": {"poi_name": "Mairie du 10ème arrondissement (kouhounou)", "matched_quartier": "Kouhounou", "status": "VALID", "target_color": "#dcca40"}}, {"type": "Feature", "geometry": {"type": "Polygon", "coordinates": [[[2.386746255062124, 6.3766433], [2.3867295622363964, 6.376855577634847], [2.3866798947919845, 6.377062628289815], [2.386598475706206, 6.377259353690618], [2.3864873097871673, 6.377440909804992], [2.386349134308734, 6.377602826118852], [2.3861873516097623, 6.377741115715182], [2.386005945317228, 6.377852373445162], [2.3858093822561055, 6.377933859774237], [2.385602502461315, 6.377983568238549], [2.3853904, 6.3780002748507325], [2.3851782975386846, 6.377983568238549], [2.3849714177438943, 6.377933859774237], [2.384774854682772, 6.377852373445162], [2.3845934483902376, 6.377741115715182], [2.384431665691266, 6.377602826118852], [2.3842934902128325, 6.377440909804992], [2.3841823242937936, 6.377259353690618], [2.3841009052080153, 6.377062628289815], [2.3840512377636034, 6.376855577634847], [2.384034544937876, 6.3766433], [2.3840512377636034, 6.376431022365153], [2.3841009052080153, 6.376223971710184], [2.3841823242937936, 6.3760272463093814], [2.3842934902128325, 6.375845690195007], [2.384431665691266, 6.375683773881147], [2.3845934483902376, 6.375545484284817], [2.384774854682772, 6.375434226554837], [2.3849714177438943, 6.375352740225762], [2.3851782975386846, 6.37530303176145], [2.3853904, 6.375286325149267], [2.385602502461315, 6.37530303176145], [2.3858093822561055, 6.375352740225762], [2.386005945317228, 6.375434226554837], [2.3861873516097623, 6.375545484284817], [2.386349134308734, 6.375683773881147], [2.3864873097871673, 6.375845690195007], [2.386598475706206, 6.3760272463093814], [2.3866798947919845, 6.376223971710184], [2.3867295622363964, 6.376431022365153], [2.386746255062124, 6.3766433]]]}, "properties": {"poi_name": "Commissariat de Kouhounou", "matched_quartier": "Kouhounou", "status": "VALID", "target_color": "#dcca40"}}, {"type": "Feature", "geometry": {"type": "Polygon", "coordinates": [[[2.3858608806619928, 6.3863159], [2.3858441875210885, 6.386528177634847], [2.3857945191389067, 6.386735228289815], [2.3857130985158563, 6.386931953690618], [2.3856019304978964, 6.387113509804992], [2.385463752410575, 6.387275426118852], [2.385301966656988, 6.387413715715182], [2.385120556939325, 6.387524973445162], [2.3849239901669, 6.387606459774237], [2.384717106466017, 6.387656168238549], [2.384505, 6.3876728748507325], [2.3842928935339827, 6.387656168238549], [2.3840860098330996, 6.387606459774237], [2.3838894430606747, 6.387524973445162], [2.383708033343012, 6.387413715715182], [2.383546247589425, 6.387275426118852], [2.3834080695021034, 6.387113509804992], [2.3832969014841434, 6.386931953690618], [2.383215480861093, 6.386735228289815], [2.3831658124789112, 6.386528177634847], [2.383149119338007, 6.3863159], [2.3831658124789112, 6.386103622365153], [2.383215480861093, 6.385896571710184], [2.3832969014841434, 6.3856998463093815], [2.3834080695021034, 6.385518290195007], [2.383546247589425, 6.385356373881147], [2.383708033343012, 6.385218084284817], [2.3838894430606747, 6.385106826554837], [2.3840860098330996, 6.385025340225762], [2.3842928935339827, 6.38497563176145], [2.384505, 6.384958925149267], [2.384717106466017, 6.38497563176145], [2.3849239901669, 6.385025340225762], [2.385120556939325, 6.385106826554837], [2.385301966656988, 6.385218084284817], [2.385463752410575, 6.385356373881147], [2.3856019304978964, 6.385518290195007], [2.3857130985158563, 6.3856998463093815], [2.3857945191389067, 6.385896571710184], [2.3858441875210885, 6.386103622365153], [2.3858608806619928, 6.3863159]]]}, "properties": {"poi_name": "Poste Kouhounou", "matched_quartier": "Kouhounou", "status": "VALID", "target_color": "#dcca40"}}, {"type": "Feature", "geometry": {"type": "Polygon", "coordinates": [[[2.385097079845158, 6.3860075], [2.3850803867143107, 6.386219777634847], [2.385030718362051, 6.386426828289816], [2.3849492977880513, 6.386623553690618], [2.3848381298370636, 6.3868051098049925], [2.3846999518329857, 6.386967026118852], [2.3845381661768643, 6.387105315715182], [2.38435675656849, 6.387216573445162], [2.384160189914484, 6.3872980597742375], [2.383953306338236, 6.387347768238549], [2.3837412, 6.387364474850733], [2.3835290936617635, 6.387347768238549], [2.3833222100855154, 6.3872980597742375], [2.3831256434315096, 6.387216573445162], [2.3829442338231352, 6.387105315715182], [2.382782448167014, 6.386967026118852], [2.382644270162936, 6.3868051098049925], [2.3825331022119483, 6.386623553690618], [2.3824516816379484, 6.386426828289816], [2.382402013285689, 6.386219777634847], [2.3823853201548415, 6.3860075], [2.382402013285689, 6.385795222365153], [2.3824516816379484, 6.385588171710184], [2.3825331022119483, 6.385391446309382], [2.382644270162936, 6.385209890195007], [2.382782448167014, 6.385047973881147], [2.3829442338231352, 6.384909684284818], [2.3831256434315096, 6.384798426554838], [2.3833222100855154, 6.384716940225762], [2.3835290936617635, 6.38466723176145], [2.3837412, 6.384650525149267], [2.383953306338236, 6.38466723176145], [2.384160189914484, 6.384716940225762], [2.38435675656849, 6.384798426554838], [2.3845381661768643, 6.384909684284818], [2.3846999518329857, 6.385047973881147], [2.3848381298370636, 6.385209890195007], [2.3849492977880513, 6.385391446309382], [2.385030718362051, 6.385588171710184], [2.3850803867143107, 6.385795222365153], [2.385097079845158, 6.3860075]]]}, "properties": {"poi_name": "Station Ewell de Kouhounou", "matched_quartier": "Kouhounou", "status": "VALID", "target_color": "#dcca40"}}, {"type": "Feature", "geometry": {"type": "Polygon", "coordinates": [[[2.3748395786019736, 6.3855381], [2.3748228854864317, 6.385750377634847], [2.374773217179712, 6.3859574282898155], [2.3746917966803656, 6.386154153690618], [2.374580628831306, 6.386335709804992], [2.374442450953921, 6.386497626118852], [2.374280665446139, 6.386635915715182], [2.374099256004096, 6.386747173445162], [2.3739026895303192, 6.386828659774237], [2.373695806143759, 6.386878368238549], [2.3734837, 6.386895074850733], [2.373271593856241, 6.386878368238549], [2.3730647104696807, 6.386828659774237], [2.372868143995904, 6.386747173445162], [2.372686734553861, 6.386635915715182], [2.372524949046079, 6.386497626118852], [2.372386771168694, 6.386335709804992], [2.3722756033196344, 6.386154153690618], [2.372194182820288, 6.3859574282898155], [2.3721445145135682, 6.385750377634847], [2.3721278213980264, 6.3855381], [2.3721445145135682, 6.385325822365153], [2.372194182820288, 6.385118771710184], [2.3722756033196344, 6.384922046309382], [2.372386771168694, 6.384740490195007], [2.372524949046079, 6.384578573881147], [2.372686734553861, 6.384440284284818], [2.372868143995904, 6.384329026554838], [2.3730647104696807, 6.384247540225762], [2.373271593856241, 6.38419783176145], [2.3734837, 6.384181125149267], [2.373695806143759, 6.38419783176145], [2.3739026895303192, 6.384247540225762], [2.374099256004096, 6.384329026554838], [2.374280665446139, 6.384440284284818], [2.374442450953921, 6.384578573881147], [2.374580628831306, 6.384740490195007], [2.3746917966803656, 6.384922046309382], [2.374773217179712, 6.385118771710184], [2.3748228854864317, 6.385325822365153], [2.3748395786019736, 6.3855381]]]}, "properties": {"poi_name": "STATION EWELL KOUHOUNOU", "matched_quartier": "Kouhounou", "status": "VALID", "target_color": "#dcca40"}}, {"type": "Feature", "geometry": {"type": "Polygon", "coordinates": [[[2.3802497876711013, 6.3889616], [2.3802330944439034, 6.389173877634847], [2.3801834258049652, 6.389380928289816], [2.3801020047610177, 6.389577653690618], [2.3799908361683846, 6.389759209804993], [2.379852657366763, 6.389921126118852], [2.3796908707768387, 6.390059415715182], [2.379509460121394, 6.390170673445162], [2.379312892332834, 6.390252159774238], [2.3791060075624832, 6.3903018682385495], [2.3788939, 6.390318574850733], [2.3786817924375168, 6.3903018682385495], [2.378474907667166, 6.390252159774238], [2.378278339878606, 6.390170673445162], [2.3780969292231613, 6.390059415715182], [2.377935142633237, 6.389921126118852], [2.3777969638316154, 6.389759209804993], [2.3776857952389823, 6.389577653690618], [2.377604374195035, 6.389380928289816], [2.3775547055560966, 6.389173877634847], [2.3775380123288987, 6.3889616], [2.3775547055560966, 6.388749322365153], [2.377604374195035, 6.388542271710184], [2.3776857952389823, 6.388345546309382], [2.3777969638316154, 6.388163990195007], [2.377935142633237, 6.388002073881148], [2.3780969292231613, 6.387863784284818], [2.378278339878606, 6.387752526554838], [2.378474907667166, 6.387671040225762], [2.3786817924375168, 6.3876213317614505], [2.3788939, 6.387604625149267], [2.3791060075624832, 6.3876213317614505], [2.379312892332834, 6.387671040225762], [2.379509460121394, 6.387752526554838], [2.3796908707768387, 6.387863784284818], [2.379852657366763, 6.388002073881148], [2.3799908361683846, 6.388163990195007], [2.3801020047610177, 6.388345546309382], [2.3801834258049652, 6.388542271710184], [2.3802330944439034, 6.388749322365153], [2.3802497876711013, 6.3889616]]]}, "properties": {"poi_name": "kouhounou", "matched_quartier": "Kouhounou", "status": "INVALID", "target_color": "#dcca40"}}, {"type": "Feature", "geometry": {"type": "Polygon", "coordinates": [[[2.380548062805976, 6.3795708], [2.3805313698849093, 6.379783077634847], [2.3804817021568256, 6.3799901282898155], [2.380400282606029, 6.380186853690618], [2.3802891160520754, 6.380368409804992], [2.3801509397844645, 6.380530326118852], [2.3799891561614848, 6.380668615715182], [2.3798077488328633, 6.380779873445162], [2.3796111846490873, 6.380861359774237], [2.379404303672721, 6.380911068238549], [2.3791922, 6.380927774850733], [2.378980096327279, 6.380911068238549], [2.3787732153509125, 6.380861359774237], [2.3785766511671365, 6.380779873445162], [2.378395243838515, 6.380668615715182], [2.3782334602155353, 6.380530326118852], [2.3780952839479244, 6.380368409804992], [2.3779841173939706, 6.380186853690618], [2.377902697843174, 6.3799901282898155], [2.3778530301150904, 6.379783077634847], [2.3778363371940237, 6.3795708], [2.3778530301150904, 6.379358522365153], [2.377902697843174, 6.379151471710184], [2.3779841173939706, 6.378954746309382], [2.3780952839479244, 6.378773190195007], [2.3782334602155353, 6.378611273881147], [2.378395243838515, 6.378472984284818], [2.3785766511671365, 6.378361726554838], [2.3787732153509125, 6.378280240225762], [2.378980096327279, 6.37823053176145], [2.3791922, 6.378213825149267], [2.379404303672721, 6.37823053176145], [2.3796111846490873, 6.378280240225762], [2.3798077488328633, 6.378361726554838], [2.3799891561614848, 6.378472984284818], [2.3801509397844645, 6.378611273881147], [2.3802891160520754, 6.378773190195007], [2.380400282606029, 6.378954746309382], [2.3804817021568256, 6.379151471710184], [2.3805313698849093, 6.379358522365153], [2.380548062805976, 6.3795708]]]}, "properties": {"poi_name": "Pharmacie veterinaire de Kouhounou", "matched_quartier": "Kouhounou", "status": "VALID", "target_color": "#dcca40"}}]}