{"type": "FeatureCollection", "source": "OSM amenities (ODbL)", "audit_only": false, "pois_total": 2353, "pois_matched": 189, "hit_rate_pct": 8.0, "features": [{"type": "Feature", "geometry": {"type": "Point", "coordinates": [2.3902366, 6.3781996]}, "properties": {"name": "Pharmacie Marché Vedoko", "lat": 6.3781996, "lng": 2.3902366, "category": "pharmacy", "poi_quartier": "Védokô", "poi_quartier_arr": "10ème Arrondissement", "match_mode": "FULL_SINGLE_UNIQUE", "matched_text": "vedoko", "match_confidence": 0.85, "snap_dist_m": 21.2, "current_owner": "Missogbé", "current_owner_arr": "10ème Arrondissement", "classification": "DISPUTE", "color": "#dc2626"}}, {"type": "Feature", "geometry": {"type": "Point", "coordinates": [2.3059166, 6.4635422]}, "properties": {"name": "Marché Togba", "lat": 6.4635422, "lng": 2.3059166, "category": "marketplace", "poi_quartier": "Togba_Maria-Gléta", "poi_quartier_arr": "Togba", "match_mode": "TOKEN_UNIQUE", "matched_text": "togba", "match_confidence": 0.6, "snap_dist_m": 29.0, "current_owner": "Ouéga-Tokpa", "current_owner_arr": "Togba", "classification": "DISPUTE", "color": "#dc2626"}}, {"type": "Feature", "geometry": {"type": "Point", "coordinates": [2.3352245, 6.4018911]}, "properties": {"name": "Saint Michel de Togoudo", "lat": 6.4018911, "lng": 2.3352245, "category": "place_of_worship", "poi_quartier": "Sèdjro-Saint-Michel", "poi_quartier_arr": "7ème Arrondissement", "match_mode": "TOKEN_UNIQUE", "matched_text": "michel", "match_confidence": 0.6, "snap_dist_m": 20.0, "current_owner": "Djoukpa-Togoudo\n", "current_owner_arr": "Godomey", "classification": "DISPUTE", "color": "#dc2626"}}, {"type": "Feature", "geometry": {"type": "Point", "coordinates": [2.4292594, 6.3667879]}, "properties": {"name": "Orabank Agence Saint Michel", "lat": 6.3667879, "lng": 2.4292594, "category": "bank", "poi_quartier": "Sèdjro-Saint-Michel", "poi_quartier_arr": "7ème Arrondissement", "match_mode": "TOKEN_UNIQUE", "matched_text": "michel", "match_confidence": 0.6, "snap_dist_m": 51.3, "current_owner": "Sèdjro-Saint-Michel", "current_owner_arr": "7ème Arrondissement", "classification": "CONFIRM", "color": "#16a34a"}}, {"type": "Feature", "geometry": {"type": "Point", "coordinates": [2.4271065, 6.3651395]}, "properties": {"name": "SGBBE agence saint michel", "lat": 6.3651395, "lng": 2.4271065, "category": "bank", "poi_quartier": "Sèdjro-Saint-Michel", "poi_quartier_arr": "7ème Arrondissement", "match_mode": "TOKEN_UNIQUE", "matched_text": "michel", "match_confidence": 0.6, "snap_dist_m": 21.7, "current_owner": "Mifongou", "current_owner_arr": "5ème Arrondissement", "classification": "DISPUTE", "color": "#dc2626"}}, {"type": "Feature", "geometry": {"type": "Point", "coordinates": [2.42935, 6.3664602]}, "properties": {"name": "pharmacie saint michel", "lat": 6.3664602, "lng": 2.42935, "category": "pharmacy", "poi_quartier": "Sèdjro-Saint-Michel", "poi_quartier_arr": "7ème Arrondissement", "match_mode": "TOKEN_UNIQUE", "matched_text": "michel", "match_confidence": 0.6, "snap_dist_m": 48.2, "current_owner": "Sèdjro-Saint-Michel", "current_owner_arr": "7ème Arrondissement", "classification": "CONFIRM", "color": "#16a34a"}}, {"type": "Feature", "geometry": {"type": "Point", "coordinates": [2.427977, 6.3659243]}, "properties": {"name": "BSIC Agence Saint Michel", "lat": 6.3659243, "lng": 2.427977, "category": "bank", "poi_quartier": "Sèdjro-Saint-Michel", "poi_quartier_arr": "7ème Arrondissement", "match_mode": "TOKEN_UNIQUE", "matched_text": "michel", "match_confidence": 0.6, "snap_dist_m": 30.1, "current_owner": "Sèdjro-Saint-Michel", "current_owner_arr": "7ème Arrondissement", "classification": "CONFIRM", "color": "#16a34a"}}, {"type": "Feature", "geometry": {"type": "Point", "coordinates": [2.4285659, 6.368423]}, "properties": {"name": "Diamond Bank Agence Saint Michel", "lat": 6.368423, "lng": 2.4285659, "category": "bank", "poi_quartier": "Sèdjro-Saint-Michel", "poi_quartier_arr": "7ème Arrondissement", "match_mode": "TOKEN_UNIQUE", "matched_text": "michel", "match_confidence": 0.6, "snap_dist_m": 26.6, "current_owner": "Sèdjro-Saint-Michel", "current_owner_arr": "7ème Arrondissement", "classification": "CONFIRM", "color": "#16a34a"}}, {"type": "Feature", "geometry": {"type": "Point", "coordinates": [2.3687693, 6.3875949]}, "properties": {"name": "Nouvelle Pharmacie Mènontin", "lat": 6.3875949, "lng": 2.3687693, "category": "pharmacy", "poi_quartier": "Mènontin", "poi_quartier_arr": "9ème Arrondissement", "match_mode": "FULL_SINGLE_UNIQUE", "matched_text": "menontin", "match_confidence": 0.85, "snap_dist_m": 15.4, "current_owner": "Mènontin", "current_owner_arr": "9ème Arrondissement", "classification": "CONFIRM", "color": "#16a34a"}}, {"type": "Feature", "geometry": {"type": "Point", "coordinates": [2.3828379, 6.3921655]}, "properties": {"name": "pharmacie Zogbohoue", "lat": 6.3921655, "lng": 2.3828379, "category": "pharmacy", "poi_quartier": "Zogbohouè", "poi_quartier_arr": "9ème Arrondissement", "match_mode": "FULL_SINGLE_UNIQUE", "matched_text": "zogbohoue", "match_confidence": 0.85, "snap_dist_m": 9.4, "current_owner": "Zogbohouè", "current_owner_arr": "9ème Arrondissement", "classification": "CONFIRM", "color": "#16a34a"}}, {"type": "Feature", "geometry": {"type": "Point", "coordinates": [2.3648379, 6.3920263]}, "properties": {"name": "Pharmacie Kindonou", "lat": 6.3920263, "lng": 2.3648379, "category": "pharmacy", "poi_quartier": "Kindonou", "poi_quartier_arr": "9ème Arrondissement", "match_mode": "FULL_SINGLE_UNIQUE", "matched_text": "kindonou", "match_confidence": 0.85, "snap_dist_m": 18.6, "current_owner": "Kindonou", "current_owner_arr": "9ème Arrondissement", "classification": "CONFIRM", "color": "#16a34a"}}, {"type": "Feature", "geometry": {"type": "Point", "coordinates": [2.3879721, 6.3900911]}, "properties": {"name": "pharmacie Zogbo", "lat": 6.3900911, "lng": 2.3879721, "category": "pharmacy", "poi_quartier": "Zogbo", "poi_quartier_arr": "9ème Arrondissement", "match_mode": "FULL_SINGLE_UNIQUE", "matched_text": "zogbo", "match_confidence": 0.85, "snap_dist_m": 19.1, "current_owner": "Agounvocôdji", "current_owner_arr": "10ème Arrondissement", "classification": "DISPUTE", "color": "#dc2626"}}, {"type": "Feature", "geometry": {"type": "Point", "coordinates": [2.37263, 6.3904737]}, "properties": {"name": "Centre Médico-Social Mahugnon de Menontin", "lat": 6.3904737, "lng": 2.37263, "category": "clinic", "poi_quartier": "Mènontin", "poi_quartier_arr": "9ème Arrondissement", "match_mode": "FULL_SINGLE_UNIQUE", "matched_text": "menontin", "match_confidence": 0.85, "snap_dist_m": 16.0, "current_owner": "Mènontin", "current_owner_arr": "9ème Arrondissement", "classification": "CONFIRM", "color": "#16a34a"}}, {"type": "Feature", "geometry": {"type": "Point", "coordinates": [2.298567, 6.3933187]}, "properties": {"name": "AVE MARIA DE COCOTOMEY", "lat": 6.3933187, "lng": 2.298567, "category": "clinic", "poi_quartier": "Cocotomey", "poi_quartier_arr": "Godomey", "match_mode": "FULL_SINGLE_UNIQUE", "matched_text": "cocotomey", "match_confidence": 0.85, "snap_dist_m": 9.3, "current_owner": "Fandji\n", "current_owner_arr": "Godomey", "classification": "DISPUTE", "color": "#dc2626"}}, {"type": "Feature", "geometry": {"type": "Point", "coordinates": [2.3011117, 6.3937164]}, "properties": {"name": "Brigarde Territoriale de Cocotomey", "lat": 6.3937164, "lng": 2.3011117, "category": "police", "poi_quartier": "Cocotomey", "poi_quartier_arr": "Godomey", "match_mode": "FULL_SINGLE_UNIQUE", "matched_text": "cocotomey", "match_confidence": 0.85, "snap_dist_m": 22.1, "current_owner": "Cocotomey", "current_owner_arr": "Godomey", "classification": "CONFIRM", "color": "#16a34a"}}, {"type": "Feature", "geometry": {"type": "Point", "coordinates": [2.3009916, 6.3934471]}, "properties": {"name": "EPP St Francois d'Assise de Cocotomey", "lat": 6.3934471, "lng": 2.3009916, "category": "school", "poi_quartier": "Cocotomey", "poi_quartier_arr": "Godomey", "match_mode": "FULL_SINGLE_UNIQUE", "matched_text": "cocotomey", "match_confidence": 0.85, "snap_dist_m": 10.0, "current_owner": "Cocotomey", "current_owner_arr": "Godomey", "classification": "CONFIRM", "color": "#16a34a"}}, {"type": "Feature", "geometry": {"type": "Point", "coordinates": [2.3642912, 6.3882187]}, "properties": {"name": "Diamond Bank Agence Menontin", "lat": 6.3882187, "lng": 2.3642912, "category": "bank", "poi_quartier": "Mènontin", "poi_quartier_arr": "9ème Arrondissement", "match_mode": "FULL_SINGLE_UNIQUE", "matched_text": "menontin", "match_confidence": 0.85, "snap_dist_m": 19.4, "current_owner": "Kindonou", "current_owner_arr": "9ème Arrondissement", "classification": "DISPUTE", "color": "#dc2626"}}, {"type": "Feature", "geometry": {"type": "Point", "coordinates": [2.3928528, 6.3558074]}, "properties": {"name": "Ecole Les cocotiers", "lat": 6.3558074, "lng": 2.3928528, "category": "school", "poi_quartier": "Haie-Vive-Cocotiers", "poi_quartier_arr": "12ème Arrondissement", "match_mode": "TOKEN_UNIQUE", "matched_text": "cocotiers", "match_confidence": 0.6, "snap_dist_m": 21.9, "current_owner": "Cadjèhoun-Agonga", "current_owner_arr": "12ème Arrondissement", "classification": "DISPUTE", "color": "#dc2626"}}, {"type": "Feature", "geometry": {"type": "Point", "coordinates": [2.4417953, 6.3774115]}, "properties": {"name": "Pharmacie Midombo", "lat": 6.3774115, "lng": 2.4417953, "category": "pharmacy", "poi_quartier": "Midombo", "poi_quartier_arr": "3ème Arrondissement", "match_mode": "FULL_SINGLE_UNIQUE", "matched_text": "midombo", "match_confidence": 0.85, "snap_dist_m": 27.9, "current_owner": "Kpankpan", "current_owner_arr": "3ème Arrondissement", "classification": "DISPUTE", "color": "#dc2626"}}, {"type": "Feature", "geometry": {"type": "Point", "coordinates": [2.4220937, 6.3613121]}, "properties": {"name": "Station Château d'Eau Sonacop", "lat": 6.3613121, "lng": 2.4220937, "category": "fuel", "poi_quartier": "Agla-Petit-Château", "poi_quartier_arr": "13ème Arrondissement", "match_mode": "TOKEN_UNIQUE", "matched_text": "chateau", "match_confidence": 0.6, "snap_dist_m": 9.3, "current_owner": "Todoté", "current_owner_arr": "7ème Arrondissement", "classification": "DISPUTE", "color": "#dc2626"}}, {"type": "Feature", "geometry": {"type": "Point", "coordinates": [2.4051944, 6.3757063]}, "properties": {"name": "Pharmacie Agontinkon", "lat": 6.3757063, "lng": 2.4051944, "category": "pharmacy", "poi_quartier": "Agontinkon", "poi_quartier_arr": "8ème Arrondissement", "match_mode": "FULL_SINGLE_UNIQUE", "matched_text": "agontinkon", "match_confidence": 0.85, "snap_dist_m": 41.5, "current_owner": "Vodjè-Ayidoté", "current_owner_arr": "11ème Arrondissement", "classification": "DISPUTE", "color": "#dc2626"}}, {"type": "Feature", "geometry": {"type": "Point", "coordinates": [2.3351096, 6.3833491]}, "properties": {"name": "Pharmacie Espace Santé", "lat": 6.3833491, "lng": 2.3351096, "category": "pharmacy", "poi_quartier": "Espace-Saint", "poi_quartier_arr": "Golo-Djigbé", "match_mode": "TOKEN_UNIQUE", "matched_text": "espace", "match_confidence": 0.6, "snap_dist_m": 40.8, "current_owner": "Ounvènoumèdé\n", "current_owner_arr": "Godomey", "classification": "DISPUTE", "color": "#dc2626"}}, {"type": "Feature", "geometry": {"type": "Point", "coordinates": [2.3726607, 6.3809501]}, "properties": {"name": "Les Pylônes", "lat": 6.3809501, "lng": 2.3726607, "category": "pharmacy", "poi_quartier": "Agla-Les-Pylônes", "poi_quartier_arr": "13ème Arrondissement", "match_mode": "TOKEN_UNIQUE", "matched_text": "pylones", "match_confidence": 0.6, "snap_dist_m": 22.9, "current_owner": "Agla-Petit-Château", "current_owner_arr": "13ème Arrondissement", "classification": "DISPUTE", "color": "#dc2626"}}, {"type": "Feature", "geometry": {"type": "Point", "coordinates": [2.3519159, 6.4493809]}, "properties": {"name": "Restaurant La Victoire", "lat": 6.4493809, "lng": 2.3519159, "category": "restaurant", "poi_quartier": "Cité-la-Victoire\n", "poi_quartier_arr": "Abomey-Calavi", "match_mode": "TOKEN_UNIQUE", "matched_text": "victoire", "match_confidence": 0.6, "snap_dist_m": 16.9, "current_owner": "Agori", "current_owner_arr": "Abomey-Calavi", "classification": "DISPUTE", "color": "#dc2626"}}, {"type": "Feature", "geometry": {"type": "Point", "coordinates": [2.3554361, 6.4553439]}, "properties": {"name": "Collège Jean Michel le Faucon", "lat": 6.4553439, "lng": 2.3554361, "category": "school", "poi_quartier": "Sèdjro-Saint-Michel", "poi_quartier_arr": "7ème Arrondissement", "match_mode": "TOKEN_UNIQUE", "matched_text": "michel", "match_confidence": 0.6, "snap_dist_m": 29.4, "current_owner": "Agamandin", "current_owner_arr": "Abomey-Calavi", "classification": "DISPUTE", "color": "#dc2626"}}, {"type": "Feature", "geometry": {"type": "Point", "coordinates": [2.301493, 6.3889228]}, "properties": {"name": "École Primaire Publique de Cocotomey", "lat": 6.3889228, "lng": 2.301493, "category": "school", "poi_quartier": "Cocotomey", "poi_quartier_arr": "Godomey", "match_mode": "FULL_SINGLE_UNIQUE", "matched_text": "cocotomey", "match_confidence": 0.85, "snap_dist_m": 70.5, "current_owner": "Cocotomey", "current_owner_arr": "Godomey", "classification": "CONFIRM", "color": "#16a34a"}}, {"type": "Feature", "geometry": {"type": "Point", "coordinates": [2.3103058, 6.4528321]}, "properties": {"name": "Complexe scolaire de Tokan groupes A et B", "lat": 6.4528321, "lng": 2.3103058, "category": "school", "poi_quartier": "Tokan", "poi_quartier_arr": "Togba", "match_mode": "FULL_SINGLE_UNIQUE", "matched_text": "tokan", "match_confidence": 0.85, "snap_dist_m": 46.0, "current_owner": "Tokan", "current_owner_arr": "Togba", "classification": "CONFIRM", "color": "#16a34a"}}, {"type": "Feature", "geometry": {"type": "Point", "coordinates": [2.3160299, 6.4535662]}, "properties": {"name": "Paroisse Saint Pierre de Tokan", "lat": 6.4535662, "lng": 2.3160299, "category": "place_of_worship", "poi_quartier": "Tokan", "poi_quartier_arr": "Togba", "match_mode": "FULL_SINGLE_UNIQUE", "matched_text": "tokan", "match_confidence": 0.85, "snap_dist_m": 39.7, "current_owner": "Tokan", "current_owner_arr": "Togba", "classification": "CONFIRM", "color": "#16a34a"}}, {"type": "Feature", "geometry": {"type": "Point", "coordinates": [2.3170308, 6.4581063]}, "properties": {"name": "Marché de Tokan", "lat": 6.4581063, "lng": 2.3170308, "category": "marketplace", "poi_quartier": "Tokan", "poi_quartier_arr": "Togba", "match_mode": "FULL_SINGLE_UNIQUE", "matched_text": "tokan", "match_confidence": 0.85, "snap_dist_m": 53.9, "current_owner": "Ahossougbéta", "current_owner_arr": "Togba", "classification": "DISPUTE", "color": "#dc2626"}}, {"type": "Feature", "geometry": {"type": "Point", "coordinates": [2.3151404, 6.449099]}, "properties": {"name": "Mosquée de Tokan", "lat": 6.449099, "lng": 2.3151404, "category": "place_of_worship", "poi_quartier": "Tokan", "poi_quartier_arr": "Togba", "match_mode": "FULL_SINGLE_UNIQUE", "matched_text": "tokan", "match_confidence": 0.85, "snap_dist_m": 43.3, "current_owner": "Tokan", "current_owner_arr": "Togba", "classification": "CONFIRM", "color": "#16a34a"}}, {"type": "Feature", "geometry": {"type": "Point", "coordinates": [2.4651303, 6.3674559]}, "properties": {"name": "Super U Akpakpa", "lat": 6.3674559, "lng": 2.4651303, "category": "supermarket", "poi_quartier": "Akpakpa-Dodomè", "poi_quartier_arr": "4ème Arrondissement", "match_mode": "TOKEN_UNIQUE", "matched_text": "akpakpa", "match_confidence": 0.6, "snap_dist_m": 24.5, "current_owner": "Nvènamèdé", "current_owner_arr": "1er Arrondissement", "classification": "DISPUTE", "color": "#dc2626"}}, {"type": "Feature", "geometry": {"type": "Point", "coordinates": [2.3040236, 6.457779]}, "properties": {"name": "Complexe scolaire de Togba", "lat": 6.457779, "lng": 2.3040236, "category": "school", "poi_quartier": "Togba_Maria-Gléta", "poi_quartier_arr": "Togba", "match_mode": "TOKEN_UNIQUE", "matched_text": "togba", "match_confidence": 0.6, "snap_dist_m": 4.8, "current_owner": "Somè", "current_owner_arr": "Togba", "classification": "DISPUTE", "color": "#dc2626"}}, {"type": "Feature", "geometry": {"type": "Point", "coordinates": [2.3048322, 6.4406184]}, "properties": {"name": "École primaire publique de Houeto", "lat": 6.4406184, "lng": 2.3048322, "category": "school", "poi_quartier": "Houèto", "poi_quartier_arr": "Togba", "match_mode": "FULL_SINGLE_UNIQUE", "matched_text": "houeto", "match_confidence": 0.85, "snap_dist_m": 49.4, "current_owner": "Houèto", "current_owner_arr": "Togba", "classification": "CONFIRM", "color": "#16a34a"}}, {"type": "Feature", "geometry": {"type": "Point", "coordinates": [2.3084975, 6.4848865]}, "properties": {"name": "COMPLEXE SCOLAIRE OUEGA-AGUE", "lat": 6.4848865, "lng": 2.3084975, "category": "school", "poi_quartier": "Ouéga-Agué", "poi_quartier_arr": "Togba", "match_mode": "FULL_HYPHEN", "matched_text": "ouega-ague", "match_confidence": 1.0, "snap_dist_m": 15.8, "current_owner": "Ouéga-Agué", "current_owner_arr": "Togba", "classification": "CONFIRM", "color": "#16a34a"}}, {"type": "Feature", "geometry": {"type": "Point", "coordinates": [2.3073405, 6.5050002]}, "properties": {"name": "ECOLE PRIMAIRE PUBLIQUE DE DRABO", "lat": 6.5050002, "lng": 2.3073405, "category": "school", "poi_quartier": "Drabo", "poi_quartier_arr": "Togba", "match_mode": "FULL_SINGLE_UNIQUE", "matched_text": "drabo", "match_confidence": 0.85, "snap_dist_m": 7.2, "current_owner": "Kansounkpa", "current_owner_arr": "Abomey-Calavi", "classification": "DISPUTE", "color": "#dc2626"}}, {"type": "Feature", "geometry": {"type": "Point", "coordinates": [2.3071512, 6.4707828]}, "properties": {"name": "École primaire publique Ouega-Togba", "lat": 6.4707828, "lng": 2.3071512, "category": "school", "poi_quartier": "Togba_Maria-Gléta", "poi_quartier_arr": "Togba", "match_mode": "TOKEN_UNIQUE", "matched_text": "togba", "match_confidence": 0.6, "snap_dist_m": 26.3, "current_owner": "Ouéga-Tokpa", "current_owner_arr": "Togba", "classification": "DISPUTE", "color": "#dc2626"}}, {"type": "Feature", "geometry": {"type": "Point", "coordinates": [2.303379, 6.4403082]}, "properties": {"name": "Église Catholique Saint Michel de Houeto", "lat": 6.4403082, "lng": 2.303379, "category": "place_of_worship", "poi_quartier": "Houèto", "poi_quartier_arr": "Togba", "match_mode": "FULL_SINGLE_UNIQUE", "matched_text": "houeto", "match_confidence": 0.85, "snap_dist_m": 15.8, "current_owner": "Houèto", "current_owner_arr": "Togba", "classification": "CONFIRM", "color": "#16a34a"}}, {"type": "Feature", "geometry": {"type": "Point", "coordinates": [2.3034129, 6.4332781]}, "properties": {"name": "Collège d’enseignement général Houeto", "lat": 6.4332781, "lng": 2.3034129, "category": "college", "poi_quartier": "Houèto", "poi_quartier_arr": "Togba", "match_mode": "FULL_SINGLE_UNIQUE", "matched_text": "houeto", "match_confidence": 0.85, "snap_dist_m": 50.7, "current_owner": "Houèto", "current_owner_arr": "Togba", "classification": "CONFIRM", "color": "#16a34a"}}, {"type": "Feature", "geometry": {"type": "Point", "coordinates": [2.3047749, 6.4241557]}, "properties": {"name": "École Primaire Publique de Maria-Gléta", "lat": 6.4241557, "lng": 2.3047749, "category": "school", "poi_quartier": "Maria-Gléta\n", "poi_quartier_arr": "Godomey", "match_mode": "FULL_HYPHEN", "matched_text": "maria-gleta", "match_confidence": 1.0, "snap_dist_m": 28.3, "current_owner": "Maria-Gléta\n", "current_owner_arr": "Godomey", "classification": "CONFIRM", "color": "#16a34a"}}, {"type": "Feature", "geometry": {"type": "Point", "coordinates": [2.3561644, 6.4577846]}, "properties": {"name": "Pharmacie Château d’eau", "lat": 6.4577846, "lng": 2.3561644, "category": "pharmacy", "poi_quartier": "Agla-Petit-Château", "poi_quartier_arr": "13ème Arrondissement", "match_mode": "TOKEN_UNIQUE", "matched_text": "chateau", "match_confidence": 0.6, "snap_dist_m": 20.5, "current_owner": "Agamandin", "current_owner_arr": "Abomey-Calavi", "classification": "DISPUTE", "color": "#dc2626"}}, {"type": "Feature", "geometry": {"type": "Point", "coordinates": [2.3676065, 6.3916746]}, "properties": {"name": "Paroisse Marie Auxiliatrice de Mènontin", "lat": 6.3916746, "lng": 2.3676065, "category": "place_of_worship", "poi_quartier": "Mènontin", "poi_quartier_arr": "9ème Arrondissement", "match_mode": "FULL_SINGLE_UNIQUE", "matched_text": "menontin", "match_confidence": 0.85, "snap_dist_m": 19.1, "current_owner": "Mènontin", "current_owner_arr": "9ème Arrondissement", "classification": "CONFIRM", "color": "#16a34a"}}, {"type": "Feature", "geometry": {"type": "Point", "coordinates": [2.363834, 6.39515]}, "properties": {"name": "Eglise du Christianisme Céleste de Kindonou", "lat": 6.39515, "lng": 2.363834, "category": "place_of_worship", "poi_quartier": "Kindonou", "poi_quartier_arr": "9ème Arrondissement", "match_mode": "FULL_SINGLE_UNIQUE", "matched_text": "kindonou", "match_confidence": 0.85, "snap_dist_m": 51.5, "current_owner": "Kindonou", "current_owner_arr": "9ème Arrondissement", "classification": "CONFIRM", "color": "#16a34a"}}, {"type": "Feature", "geometry": {"type": "Point", "coordinates": [2.4625012, 6.3827236]}, "properties": {"name": "Ecole Primaire Publique kowegbo", "lat": 6.3827236, "lng": 2.4625012, "category": "school", "poi_quartier": "Kowégbo", "poi_quartier_arr": "2ème Arrondissement", "match_mode": "FULL_SINGLE_UNIQUE", "matched_text": "kowegbo", "match_confidence": 0.85, "snap_dist_m": 29.0, "current_owner": "Kowégbo", "current_owner_arr": "2ème Arrondissement", "classification": "CONFIRM", "color": "#16a34a"}}, {"type": "Feature", "geometry": {"type": "Point", "coordinates": [2.4397307, 6.3723429]}, "properties": {"name": "Ecole Primaire de Midombo A et B", "lat": 6.3723429, "lng": 2.4397307, "category": "school", "poi_quartier": "Midombo", "poi_quartier_arr": "3ème Arrondissement", "match_mode": "FULL_SINGLE_UNIQUE", "matched_text": "midombo", "match_confidence": 0.85, "snap_dist_m": 53.6, "current_owner": "Gbénonkpô", "current_owner_arr": "3ème Arrondissement", "classification": "DISPUTE", "color": "#dc2626"}}, {"type": "Feature", "geometry": {"type": "Point", "coordinates": [2.4471815, 6.3691206]}, "properties": {"name": "CEG AKPAKPA CENTRE", "lat": 6.3691206, "lng": 2.4471815, "category": "school", "poi_quartier": "Akpakpa-Dodomè", "poi_quartier_arr": "4ème Arrondissement", "match_mode": "TOKEN_UNIQUE", "matched_text": "akpakpa", "match_confidence": 0.6, "snap_dist_m": 92.2, "current_owner": null, "current_owner_arr": null, "classification": "NO_NODE", "color": "#94a3b8"}}, {"type": "Feature", "geometry": {"type": "Point", "coordinates": [2.4056236, 6.3592352]}, "properties": {"name": "Cycle Préparatoire Père Aupiais", "lat": 6.3592352, "lng": 2.4056236, "category": "college", "poi_quartier": "Cadjèhoun-Aupiais", "poi_quartier_arr": "12ème Arrondissement", "match_mode": "TOKEN_UNIQUE", "matched_text": "aupiais", "match_confidence": 0.6, "snap_dist_m": 40.2, "current_owner": "Cadjèhoun-Aupiais", "current_owner_arr": "12ème Arrondissement", "classification": "CONFIRM", "color": "#16a34a"}}, {"type": "Feature", "geometry": {"type": "Point", "coordinates": [2.4279563, 6.3665673]}, "properties": {"name": "Eglise Saint Michel Gbéto de Cotonou", "lat": 6.3665673, "lng": 2.4279563, "category": "place_of_worship", "poi_quartier": "Gbéto", "poi_quartier_arr": "5ème Arrondissement", "match_mode": "FULL_SINGLE_UNIQUE", "matched_text": "gbeto", "match_confidence": 0.85, "snap_dist_m": 73.8, "current_owner": "Sèdjro-Saint-Michel", "current_owner_arr": "7ème Arrondissement", "classification": "DISPUTE", "color": "#dc2626"}}, {"type": "Feature", "geometry": {"type": "Point", "coordinates": [2.2659583, 6.407175]}, "properties": {"name": "Pharmacie Hêvié", "lat": 6.407175, "lng": 2.2659583, "category": "pharmacy", "poi_quartier": "Hêvié", "poi_quartier_arr": "Hêvié", "match_mode": "FULL_SINGLE_UNIQUE", "matched_text": "hevie", "match_confidence": 0.85, "snap_dist_m": 16.8, "current_owner": "Sogan", "current_owner_arr": "Hêvié", "classification": "DISPUTE", "color": "#dc2626"}}, {"type": "Feature", "geometry": {"type": "Point", "coordinates": [2.2763793, 6.455982]}, "properties": {"name": "Pharmacie Les Graces Divines de Ouedo", "lat": 6.455982, "lng": 2.2763793, "category": "pharmacy", "poi_quartier": "Ouèdo", "poi_quartier_arr": "Ouèdo", "match_mode": "FULL_SINGLE_UNIQUE", "matched_text": "ouedo", "match_confidence": 0.85, "snap_dist_m": 24.9, "current_owner": "Dessato\n", "current_owner_arr": "Ouèdo", "classification": "DISPUTE", "color": "#dc2626"}}, {"type": "Feature", "geometry": {"type": "Point", "coordinates": [2.362127, 6.6713775]}, "properties": {"name": "CEG Kpanroun", "lat": 6.6713775, "lng": 2.362127, "category": "school", "poi_quartier": "Kpanroun", "poi_quartier_arr": "Kpanroun", "match_mode": "FULL_SINGLE_UNIQUE", "matched_text": "kpanroun", "match_confidence": 0.85, "snap_dist_m": 71.0, "current_owner": "Kpanroun", "current_owner_arr": "Kpanroun", "classification": "CONFIRM", "color": "#16a34a"}}, {"type": "Feature", "geometry": {"type": "Point", "coordinates": [2.424243, 6.3739488]}, "properties": {"name": "Espace beauté", "lat": 6.3739488, "lng": 2.424243, "category": "pharmacy", "poi_quartier": "Espace-Saint", "poi_quartier_arr": "Golo-Djigbé", "match_mode": "TOKEN_UNIQUE", "matched_text": "espace", "match_confidence": 0.6, "snap_dist_m": 25.4, "current_owner": "Jéricho-Nord", "current_owner_arr": "6ème Arrondissement", "classification": "DISPUTE", "color": "#dc2626"}}, {"type": "Feature", "geometry": {"type": "Point", "coordinates": [2.4294736, 6.3670806]}, "properties": {"name": "BSIC Agence Saint Michel", "lat": 6.3670806, "lng": 2.4294736, "category": "bank", "poi_quartier": "Sèdjro-Saint-Michel", "poi_quartier_arr": "7ème Arrondissement", "match_mode": "TOKEN_UNIQUE", "matched_text": "michel", "match_confidence": 0.6, "snap_dist_m": 34.7, "current_owner": "Sèdjro-Saint-Michel", "current_owner_arr": "7ème Arrondissement", "classification": "CONFIRM", "color": "#16a34a"}}, {"type": "Feature", "geometry": {"type": "Point", "coordinates": [2.4292791, 6.3668413]}, "properties": {"name": "Orabank Agence Saint Michel", "lat": 6.3668413, "lng": 2.4292791, "category": "bank", "poi_quartier": "Sèdjro-Saint-Michel", "poi_quartier_arr": "7ème Arrondissement", "match_mode": "TOKEN_UNIQUE", "matched_text": "michel", "match_confidence": 0.6, "snap_dist_m": 55.4, "current_owner": "Sèdjro-Saint-Michel", "current_owner_arr": "7ème Arrondissement", "classification": "CONFIRM", "color": "#16a34a"}}, {"type": "Feature", "geometry": {"type": "Point", "coordinates": [2.3422656, 6.4862203]}, "properties": {"name": "EPP Zoundja", "lat": 6.4862203, "lng": 2.3422656, "category": "school", "poi_quartier": "Zoundja\n", "poi_quartier_arr": "Abomey-Calavi", "match_mode": "FULL_SINGLE_UNIQUE", "matched_text": "zoundja", "match_confidence": 0.85, "snap_dist_m": 28.4, "current_owner": "Zopah-Akassato", "current_owner_arr": "Akassato", "classification": "DISPUTE", "color": "#dc2626"}}, {"type": "Feature", "geometry": {"type": "Point", "coordinates": [2.3652314, 6.4973275]}, "properties": {"name": "EPP Houeke Honou", "lat": 6.4973275, "lng": 2.3652314, "category": "school", "poi_quartier": "Houèkè-Honou", "poi_quartier_arr": "Akassato", "match_mode": "TOKEN_UNIQUE", "matched_text": "honou", "match_confidence": 0.6, "snap_dist_m": 42.1, "current_owner": "Houèkè-Gbo", "current_owner_arr": "Akassato", "classification": "DISPUTE", "color": "#dc2626"}}, {"type": "Feature", "geometry": {"type": "Point", "coordinates": [2.4276076, 6.3589976]}, "properties": {"name": "École Maternelle Publique Gbéto Cotonou Lagune", "lat": 6.3589976, "lng": 2.4276076, "category": "school", "poi_quartier": "Gbéto", "poi_quartier_arr": "5ème Arrondissement", "match_mode": "FULL_SINGLE_UNIQUE", "matched_text": "gbeto", "match_confidence": 0.85, "snap_dist_m": 40.3, "current_owner": "Dota", "current_owner_arr": "5ème Arrondissement", "classification": "DISPUTE", "color": "#dc2626"}}, {"type": "Feature", "geometry": {"type": "Point", "coordinates": [2.3212615, 6.4936002]}, "properties": {"name": "Collège d’Enseignement Général Kansounkpa", "lat": 6.4936002, "lng": 2.3212615, "category": "school", "poi_quartier": "Kansounkpa", "poi_quartier_arr": "Abomey-Calavi", "match_mode": "FULL_SINGLE_UNIQUE", "matched_text": "kansounkpa", "match_confidence": 0.85, "snap_dist_m": 76.0, "current_owner": "Kansounkpa", "current_owner_arr": "Abomey-Calavi", "classification": "CONFIRM", "color": "#16a34a"}}, {"type": "Feature", "geometry": {"type": "Point", "coordinates": [2.3582702, 6.470953]}, "properties": {"name": "Complexe scolaire Gbodjo", "lat": 6.470953, "lng": 2.3582702, "category": "school", "poi_quartier": "Gbodjo", "poi_quartier_arr": "Abomey-Calavi", "match_mode": "FULL_SINGLE_UNIQUE", "matched_text": "gbodjo", "match_confidence": 0.85, "snap_dist_m": 26.5, "current_owner": "Gbodjo", "current_owner_arr": "Abomey-Calavi", "classification": "CONFIRM", "color": "#16a34a"}}, {"type": "Feature", "geometry": {"type": "Point", "coordinates": [2.327077, 6.4385567]}, "properties": {"name": "École Primaire Publique Agori Forêt", "lat": 6.4385567, "lng": 2.327077, "category": "school", "poi_quartier": "Agori", "poi_quartier_arr": "Abomey-Calavi", "match_mode": "FULL_SINGLE_UNIQUE", "matched_text": "agori", "match_confidence": 0.85, "snap_dist_m": 22.6, "current_owner": "Fifonsi\n", "current_owner_arr": "Togba", "classification": "DISPUTE", "color": "#dc2626"}}, {"type": "Feature", "geometry": {"type": "Point", "coordinates": [2.3353317, 6.425498]}, "properties": {"name": "École Primaire Publique Sedonou Zogbadje", "lat": 6.425498, "lng": 2.3353317, "category": "school", "poi_quartier": "Zogbadjè", "poi_quartier_arr": "Abomey-Calavi", "match_mode": "FULL_SINGLE_UNIQUE", "matched_text": "zogbadje", "match_confidence": 0.85, "snap_dist_m": 33.8, "current_owner": "Zogbadjè", "current_owner_arr": "Abomey-Calavi", "classification": "CONFIRM", "color": "#16a34a"}}, {"type": "Feature", "geometry": {"type": "Point", "coordinates": [2.3392809, 6.4348373]}, "properties": {"name": "École Primaire Publique Zogbadje", "lat": 6.4348373, "lng": 2.3392809, "category": "school", "poi_quartier": "Zogbadjè", "poi_quartier_arr": "Abomey-Calavi", "match_mode": "FULL_SINGLE_UNIQUE", "matched_text": "zogbadje", "match_confidence": 0.85, "snap_dist_m": 58.6, "current_owner": "Tchinangbégbo\n", "current_owner_arr": "Abomey-Calavi", "classification": "DISPUTE", "color": "#dc2626"}}, {"type": "Feature", "geometry": {"type": "Point", "coordinates": [2.335789, 6.456742]}, "properties": {"name": "École primaire publique Aitchedji Makinsa", "lat": 6.456742, "lng": 2.335789, "category": "school", "poi_quartier": "Aïtchédji\n", "poi_quartier_arr": "Abomey-Calavi", "match_mode": "FULL_SINGLE_UNIQUE", "matched_text": "aitchedji", "match_confidence": 0.85, "snap_dist_m": 39.0, "current_owner": "Aïtchédji\n", "current_owner_arr": "Abomey-Calavi", "classification": "CONFIRM", "color": "#16a34a"}}, {"type": "Feature", "geometry": {"type": "Point", "coordinates": [2.3262892, 6.4871665]}, "properties": {"name": "École primaire publique Zoundja 2", "lat": 6.4871665, "lng": 2.3262892, "category": "school", "poi_quartier": "Zoundja\n", "poi_quartier_arr": "Abomey-Calavi", "match_mode": "FULL_SINGLE_UNIQUE", "matched_text": "zoundja", "match_confidence": 0.85, "snap_dist_m": 28.1, "current_owner": "Cité-les-Palmiers\n", "current_owner_arr": "Abomey-Calavi", "classification": "DISPUTE", "color": "#dc2626"}}, {"type": "Feature", "geometry": {"type": "Point", "coordinates": [2.2731941, 6.389771]}, "properties": {"name": "Paroisse Saint Gabriel de Cococodji", "lat": 6.389771, "lng": 2.2731941, "category": "place_of_worship", "poi_quartier": "Cococodji", "poi_quartier_arr": "Godomey", "match_mode": "FULL_SINGLE_UNIQUE", "matched_text": "cococodji", "match_confidence": 0.85, "snap_dist_m": 56.4, "current_owner": "Cococodji", "current_owner_arr": "Godomey", "classification": "CONFIRM", "color": "#16a34a"}}, {"type": "Feature", "geometry": {"type": "Point", "coordinates": [2.3607172, 6.4534799]}, "properties": {"name": "École Primaire Publique d' Agamandin", "lat": 6.4534799, "lng": 2.3607172, "category": "school", "poi_quartier": "Agamandin", "poi_quartier_arr": "Abomey-Calavi", "match_mode": "FULL_SINGLE_UNIQUE", "matched_text": "agamandin", "match_confidence": 0.85, "snap_dist_m": 38.4, "current_owner": "Agamandin", "current_owner_arr": "Abomey-Calavi", "classification": "CONFIRM", "color": "#16a34a"}}, {"type": "Feature", "geometry": {"type": "Point", "coordinates": [2.3381527, 6.4290446]}, "properties": {"name": "Église Saint Paul de Zogbadje", "lat": 6.4290446, "lng": 2.3381527, "category": "place_of_worship", "poi_quartier": "Zogbadjè", "poi_quartier_arr": "Abomey-Calavi", "match_mode": "FULL_SINGLE_UNIQUE", "matched_text": "zogbadje", "match_confidence": 0.85, "snap_dist_m": 49.2, "current_owner": "Zogbadjè", "current_owner_arr": "Abomey-Calavi", "classification": "CONFIRM", "color": "#16a34a"}}, {"type": "Feature", "geometry": {"type": "Point", "coordinates": [2.4338282, 6.3716728]}, "properties": {"name": "Nouvelle pharmacie Dantokpa", "lat": 6.3716728, "lng": 2.4338282, "category": "pharmacy", "poi_quartier": "Dantôkpa", "poi_quartier_arr": "6ème Arrondissement", "match_mode": "FULL_SINGLE_UNIQUE", "matched_text": "dantokpa", "match_confidence": 0.85, "snap_dist_m": 13.8, "current_owner": "Dantôkpa", "current_owner_arr": "6ème Arrondissement", "classification": "CONFIRM", "color": "#16a34a"}}, {"type": "Feature", "geometry": {"type": "Point", "coordinates": [2.3352864, 6.4255086]}, "properties": {"name": "EPP/Sèdonou de Zogbadjè", "lat": 6.4255086, "lng": 2.3352864, "category": "school", "poi_quartier": "Zogbadjè", "poi_quartier_arr": "Abomey-Calavi", "match_mode": "FULL_SINGLE_UNIQUE", "matched_text": "zogbadje", "match_confidence": 0.85, "snap_dist_m": 38.1, "current_owner": "Zogbadjè", "current_owner_arr": "Abomey-Calavi", "classification": "CONFIRM", "color": "#16a34a"}}, {"type": "Feature", "geometry": {"type": "Point", "coordinates": [2.3407759, 6.3741733]}, "properties": {"name": "Pharmacie Godomey-Fignonhou", "lat": 6.3741733, "lng": 2.3407759, "category": "pharmacy", "poi_quartier": "Fignonhou\n", "poi_quartier_arr": "Godomey", "match_mode": "FULL_SINGLE_UNIQUE", "matched_text": "fignonhou", "match_confidence": 0.85, "snap_dist_m": 25.0, "current_owner": "Godomey-N'Gbèho", "current_owner_arr": "Godomey", "classification": "DISPUTE", "color": "#dc2626"}}, {"type": "Feature", "geometry": {"type": "Point", "coordinates": [2.3611734, 6.3759855]}, "properties": {"name": "École Primaire Publique Agongbomey", "lat": 6.3759855, "lng": 2.3611734, "category": "school", "poi_quartier": "Agla-Agongbomey", "poi_quartier_arr": "13ème Arrondissement", "match_mode": "TOKEN_UNIQUE", "matched_text": "agongbomey", "match_confidence": 0.6, "snap_dist_m": 33.8, "current_owner": "Agla-Agongbomey", "current_owner_arr": "13ème Arrondissement", "classification": "CONFIRM", "color": "#16a34a"}}, {"type": "Feature", "geometry": {"type": "Point", "coordinates": [2.3655613, 6.3498053]}, "properties": {"name": "Resto plage", "lat": 6.3498053, "lng": 2.3655613, "category": "restaurant", "poi_quartier": "Xwlacôdji-Plage", "poi_quartier_arr": "5ème Arrondissement", "match_mode": "TOKEN_UNIQUE", "matched_text": "plage", "match_confidence": 0.6, "snap_dist_m": 58.6, "current_owner": "Fiyégnon-Jacquot", "current_owner_arr": "12ème Arrondissement", "classification": "DISPUTE", "color": "#dc2626"}}, {"type": "Feature", "geometry": {"type": "Point", "coordinates": [2.3085669, 6.4391634]}, "properties": {"name": "Pharmacie principale de Houeto", "lat": 6.4391634, "lng": 2.3085669, "category": "pharmacy", "poi_quartier": "Houèto", "poi_quartier_arr": "Togba", "match_mode": "FULL_SINGLE_UNIQUE", "matched_text": "houeto", "match_confidence": 0.85, "snap_dist_m": 18.0, "current_owner": "Houèto", "current_owner_arr": "Togba", "classification": "CONFIRM", "color": "#16a34a"}}, {"type": "Feature", "geometry": {"type": "Point", "coordinates": [2.3489161, 6.4728845]}, "properties": {"name": "Espace Scyca", "lat": 6.4728845, "lng": 2.3489161, "category": "supermarket", "poi_quartier": "Espace-Saint", "poi_quartier_arr": "Golo-Djigbé", "match_mode": "TOKEN_UNIQUE", "matched_text": "espace", "match_confidence": 0.6, "snap_dist_m": 16.4, "current_owner": "Fandji\n", "current_owner_arr": "Abomey-Calavi", "classification": "DISPUTE", "color": "#dc2626"}}, {"type": "Feature", "geometry": {"type": "Point", "coordinates": [2.3092637, 6.4397733]}, "properties": {"name": "Commissariat de Togba", "lat": 6.4397733, "lng": 2.3092637, "category": "police", "poi_quartier": "Togba_Maria-Gléta", "poi_quartier_arr": "Togba", "match_mode": "TOKEN_UNIQUE", "matched_text": "togba", "match_confidence": 0.6, "snap_dist_m": 21.7, "current_owner": "Houèto", "current_owner_arr": "Togba", "classification": "DISPUTE", "color": "#dc2626"}}, {"type": "Feature", "geometry": {"type": "Point", "coordinates": [2.3912001, 6.3555208]}, "properties": {"name": "Les Cocotiers", "lat": 6.3555208, "lng": 2.3912001, "category": "guest_house", "poi_quartier": "Haie-Vive-Cocotiers", "poi_quartier_arr": "12ème Arrondissement", "match_mode": "TOKEN_UNIQUE", "matched_text": "cocotiers", "match_confidence": 0.6, "snap_dist_m": 47.3, "current_owner": "Haie-Vive-Cocotiers", "current_owner_arr": "12ème Arrondissement", "classification": "CONFIRM", "color": "#16a34a"}}, {"type": "Feature", "geometry": {"type": "Point", "coordinates": [2.4291618, 6.3905948]}, "properties": {"name": "École Maternelle Privée Espace Éveil", "lat": 6.3905948, "lng": 2.4291618, "category": "school", "poi_quartier": "Espace-Saint", "poi_quartier_arr": "Golo-Djigbé", "match_mode": "TOKEN_UNIQUE", "matched_text": "espace", "match_confidence": 0.6, "snap_dist_m": 18.3, "current_owner": "Ladji", "current_owner_arr": "6ème Arrondissement", "classification": "DISPUTE", "color": "#dc2626"}}, {"type": "Feature", "geometry": {"type": "Point", "coordinates": [2.4284416, 6.389248]}, "properties": {"name": "Eglise Paroisse St Raphaël Ladji Centre", "lat": 6.389248, "lng": 2.4284416, "category": "place_of_worship", "poi_quartier": "Ladji", "poi_quartier_arr": "6ème Arrondissement", "match_mode": "FULL_SINGLE_UNIQUE", "matched_text": "ladji", "match_confidence": 0.85, "snap_dist_m": 30.5, "current_owner": "Ladji", "current_owner_arr": "6ème Arrondissement", "classification": "CONFIRM", "color": "#16a34a"}}, {"type": "Feature", "geometry": {"type": "Point", "coordinates": [2.434455, 6.3888367]}, "properties": {"name": "Marché  de ladji", "lat": 6.3888367, "lng": 2.434455, "category": "marketplace", "poi_quartier": "Ladji", "poi_quartier_arr": "6ème Arrondissement", "match_mode": "FULL_SINGLE_UNIQUE", "matched_text": "ladji", "match_confidence": 0.85, "snap_dist_m": 69.1, "current_owner": "Ahouansori-Towéta-Kpota", "current_owner_arr": "6ème Arrondissement", "classification": "DISPUTE", "color": "#dc2626"}}, {"type": "Feature", "geometry": {"type": "Point", "coordinates": [2.3439885, 6.5418553]}, "properties": {"name": "Ifedon des Pylones", "lat": 6.5418553, "lng": 2.3439885, "category": "bar", "poi_quartier": "Agla-Les-Pylônes", "poi_quartier_arr": "13ème Arrondissement", "match_mode": "TOKEN_UNIQUE", "matched_text": "pylones", "match_confidence": 0.6, "snap_dist_m": 18.5, "current_owner": "Gbétagbo", "current_owner_arr": "Akassato", "classification": "DISPUTE", "color": "#dc2626"}}, {"type": "Feature", "geometry": {"type": "Point", "coordinates": [2.4304849, 6.3899159]}, "properties": {"name": "Église protestante de ladji", "lat": 6.3899159, "lng": 2.4304849, "category": "place_of_worship", "poi_quartier": "Ladji", "poi_quartier_arr": "6ème Arrondissement", "match_mode": "FULL_SINGLE_UNIQUE", "matched_text": "ladji", "match_confidence": 0.85, "snap_dist_m": 23.2, "current_owner": "Ahouansori-Towéta-Kpota", "current_owner_arr": "6ème Arrondissement", "classification": "DISPUTE", "color": "#dc2626"}}, {"type": "Feature", "geometry": {"type": "Point", "coordinates": [2.3321233, 6.42089]}, "properties": {"name": "Église pentecôte de la fois Zogbadjé", "lat": 6.42089, "lng": 2.3321233, "category": "place_of_worship", "poi_quartier": "Zogbadjè", "poi_quartier_arr": "Abomey-Calavi", "match_mode": "FULL_SINGLE_UNIQUE", "matched_text": "zogbadje", "match_confidence": 0.85, "snap_dist_m": 17.3, "current_owner": "Zogbadjè", "current_owner_arr": "Abomey-Calavi", "classification": "CONFIRM", "color": "#16a34a"}}, {"type": "Feature", "geometry": {"type": "Point", "coordinates": [2.3371333, 6.4254833]}, "properties": {"name": "Alimentation générale \" les palmiers", "lat": 6.4254833, "lng": 2.3371333, "category": "supermarket", "poi_quartier": "Cité-les-Palmiers\n", "poi_quartier_arr": "Abomey-Calavi", "match_mode": "TOKEN_UNIQUE", "matched_text": "palmiers", "match_confidence": 0.6, "snap_dist_m": 19.5, "current_owner": "Zogbadjè", "current_owner_arr": "Abomey-Calavi", "classification": "DISPUTE", "color": "#dc2626"}}, {"type": "Feature", "geometry": {"type": "Point", "coordinates": [2.33813, 6.4262917]}, "properties": {"name": "Église de Dieu du plein évangile Zogbadjè", "lat": 6.4262917, "lng": 2.33813, "category": "place_of_worship", "poi_quartier": "Zogbadjè", "poi_quartier_arr": "Abomey-Calavi", "match_mode": "FULL_SINGLE_UNIQUE", "matched_text": "zogbadje", "match_confidence": 0.85, "snap_dist_m": 6.2, "current_owner": "Zogbadjè", "current_owner_arr": "Abomey-Calavi", "classification": "CONFIRM", "color": "#16a34a"}}, {"type": "Feature", "geometry": {"type": "Point", "coordinates": [2.3409913, 6.4309462]}, "properties": {"name": "Espace Alomasunsun", "lat": 6.4309462, "lng": 2.3409913, "category": "fast_food", "poi_quartier": "Espace-Saint", "poi_quartier_arr": "Golo-Djigbé", "match_mode": "TOKEN_UNIQUE", "matched_text": "espace", "match_confidence": 0.6, "snap_dist_m": 12.0, "current_owner": "Tchinangbégbo\n", "current_owner_arr": "Abomey-Calavi", "classification": "DISPUTE", "color": "#dc2626"}}, {"type": "Feature", "geometry": {"type": "Point", "coordinates": [2.318485, 6.426195]}, "properties": {"name": "Mission des intercesseurs évangélique pour la victoire", "lat": 6.426195, "lng": 2.318485, "category": "place_of_worship", "poi_quartier": "Cité-la-Victoire\n", "poi_quartier_arr": "Abomey-Calavi", "match_mode": "TOKEN_UNIQUE", "matched_text": "victoire", "match_confidence": 0.6, "snap_dist_m": 21.9, "current_owner": "Tankpè-Tanmè", "current_owner_arr": "Togba", "classification": "DISPUTE", "color": "#dc2626"}}, {"type": "Feature", "geometry": {"type": "Point", "coordinates": [2.452708, 6.3748496]}, "properties": {"name": "Impact Centre Chrétien campus d'Akpakpa", "lat": 6.3748496, "lng": 2.452708, "category": "place_of_worship", "poi_quartier": "Akpakpa-Dodomè", "poi_quartier_arr": "4ème Arrondissement", "match_mode": "TOKEN_UNIQUE", "matched_text": "akpakpa", "match_confidence": 0.6, "snap_dist_m": 45.0, "current_owner": "Lom-Nava", "current_owner_arr": "2ème Arrondissement", "classification": "DISPUTE", "color": "#dc2626"}}, {"type": "Feature", "geometry": {"type": "Point", "coordinates": [2.4527165, 6.3749183]}, "properties": {"name": "Impact Centre Chrétien Akpakpa", "lat": 6.3749183, "lng": 2.4527165, "category": "place_of_worship", "poi_quartier": "Akpakpa-Dodomè", "poi_quartier_arr": "4ème Arrondissement", "match_mode": "TOKEN_UNIQUE", "matched_text": "akpakpa", "match_confidence": 0.6, "snap_dist_m": 39.9, "current_owner": "Lom-Nava", "current_owner_arr": "2ème Arrondissement", "classification": "DISPUTE", "color": "#dc2626"}}, {"type": "Feature", "geometry": {"type": "Point", "coordinates": [2.3405657, 6.4283044]}, "properties": {"name": "Melva de Zogbadjè", "lat": 6.4283044, "lng": 2.3405657, "category": "place_of_worship", "poi_quartier": "Zogbadjè", "poi_quartier_arr": "Abomey-Calavi", "match_mode": "FULL_SINGLE_UNIQUE", "matched_text": "zogbadje", "match_confidence": 0.85, "snap_dist_m": 8.6, "current_owner": "Zogbadjè", "current_owner_arr": "Abomey-Calavi", "classification": "CONFIRM", "color": "#16a34a"}}, {"type": "Feature", "geometry": {"type": "Point", "coordinates": [2.3429733, 6.451813]}, "properties": {"name": "Complexe Scolaire Dieu de Victoire", "lat": 6.451813, "lng": 2.3429733, "category": "school", "poi_quartier": "Cité-la-Victoire\n", "poi_quartier_arr": "Abomey-Calavi", "match_mode": "TOKEN_UNIQUE", "matched_text": "victoire", "match_confidence": 0.6, "snap_dist_m": 17.9, "current_owner": "Aïtchédji\n", "current_owner_arr": "Abomey-Calavi", "classification": "DISPUTE", "color": "#dc2626"}}, {"type": "Feature", "geometry": {"type": "Point", "coordinates": [2.3143588, 6.4622061]}, "properties": {"name": "Commissariat d’arrondissement de Togba", "lat": 6.4622061, "lng": 2.3143588, "category": "police", "poi_quartier": "Togba_Maria-Gléta", "poi_quartier_arr": "Togba", "match_mode": "TOKEN_UNIQUE", "matched_text": "togba", "match_confidence": 0.6, "snap_dist_m": 2.3, "current_owner": "Ahossougbéta", "current_owner_arr": "Togba", "classification": "DISPUTE", "color": "#dc2626"}}, {"type": "Feature", "geometry": {"type": "Point", "coordinates": [2.3352333, 6.453435]}, "properties": {"name": "URHC paroisse Aïtchedji", "lat": 6.453435, "lng": 2.3352333, "category": "place_of_worship", "poi_quartier": "Aïtchédji\n", "poi_quartier_arr": "Abomey-Calavi", "match_mode": "FULL_SINGLE_UNIQUE", "matched_text": "aitchedji", "match_confidence": 0.85, "snap_dist_m": 47.1, "current_owner": "Aïtchédji\n", "current_owner_arr": "Abomey-Calavi", "classification": "CONFIRM", "color": "#16a34a"}}, {"type": "Feature", "geometry": {"type": "Point", "coordinates": [2.3091432, 6.4396226]}, "properties": {"name": "Commisariat de Togba", "lat": 6.4396226, "lng": 2.3091432, "category": "police", "poi_quartier": "Togba_Maria-Gléta", "poi_quartier_arr": "Togba", "match_mode": "TOKEN_UNIQUE", "matched_text": "togba", "match_confidence": 0.6, "snap_dist_m": 31.1, "current_owner": "Houèto", "current_owner_arr": "Togba", "classification": "DISPUTE", "color": "#dc2626"}}, {"type": "Feature", "geometry": {"type": "Point", "coordinates": [2.3090869, 6.4381034]}, "properties": {"name": "Union Renaissance d'Homme en Christde Houèto", "lat": 6.4381034, "lng": 2.3090869, "category": "place_of_worship", "poi_quartier": "Houèto", "poi_quartier_arr": "Togba", "match_mode": "FULL_SINGLE_UNIQUE", "matched_text": "houeto", "match_confidence": 0.85, "snap_dist_m": 75.6, "current_owner": "Houèto", "current_owner_arr": "Togba", "classification": "CONFIRM", "color": "#16a34a"}}, {"type": "Feature", "geometry": {"type": "Point", "coordinates": [2.3116726, 6.4325942]}, "properties": {"name": "Eglise Protestante méthodistes SALEM Houèto", "lat": 6.4325942, "lng": 2.3116726, "category": "place_of_worship", "poi_quartier": "Houèto", "poi_quartier_arr": "Togba", "match_mode": "FULL_SINGLE_UNIQUE", "matched_text": "houeto", "match_confidence": 0.85, "snap_dist_m": 48.9, "current_owner": "Tankpê-Yoho", "current_owner_arr": "Abomey-Calavi", "classification": "DISPUTE", "color": "#dc2626"}}, {"type": "Feature", "geometry": {"type": "Point", "coordinates": [2.3386597, 6.4291233]}, "properties": {"name": "Paroisse Saint Paul de Zogbadje Benin", "lat": 6.4291233, "lng": 2.3386597, "category": "place_of_worship", "poi_quartier": "Zogbadjè", "poi_quartier_arr": "Abomey-Calavi", "match_mode": "FULL_SINGLE_UNIQUE", "matched_text": "zogbadje", "match_confidence": 0.85, "snap_dist_m": 12.3, "current_owner": "Zogbadjè", "current_owner_arr": "Abomey-Calavi", "classification": "CONFIRM", "color": "#16a34a"}}, {"type": "Feature", "geometry": {"type": "Point", "coordinates": [2.4337544, 6.3648149]}, "properties": {"name": "Missebo", "lat": 6.3648149, "lng": 2.4337544, "category": "guest_house", "poi_quartier": "Missèbô", "poi_quartier_arr": "5ème Arrondissement", "match_mode": "FULL_SINGLE_UNIQUE", "matched_text": "missebo", "match_confidence": 0.85, "snap_dist_m": 93.2, "current_owner": null, "current_owner_arr": null, "classification": "NO_NODE", "color": "#94a3b8"}}, {"type": "Feature", "geometry": {"type": "Point", "coordinates": [2.3342147, 6.4616756]}, "properties": {"name": "Complexe scolaire Saint Joseph de la victoire", "lat": 6.4616756, "lng": 2.3342147, "category": "school", "poi_quartier": "Cité-la-Victoire\n", "poi_quartier_arr": "Abomey-Calavi", "match_mode": "TOKEN_UNIQUE", "matched_text": "victoire", "match_confidence": 0.6, "snap_dist_m": 24.8, "current_owner": "Aïtchédji\n", "current_owner_arr": "Abomey-Calavi", "classification": "DISPUTE", "color": "#dc2626"}}, {"type": "Feature", "geometry": {"type": "Point", "coordinates": [2.3497606, 6.3911574]}, "properties": {"name": "Complexe Scolaire Godomey HLACOMEY", "lat": 6.3911574, "lng": 2.3497606, "category": "school", "poi_quartier": "Hlacômey", "poi_quartier_arr": "3ème Arrondissement", "match_mode": "FULL_SINGLE_UNIQUE", "matched_text": "hlacomey", "match_confidence": 0.85, "snap_dist_m": 28.3, "current_owner": "Yolomahouto", "current_owner_arr": "Godomey", "classification": "DISPUTE", "color": "#dc2626"}}, {"type": "Feature", "geometry": {"type": "Point", "coordinates": [2.3866241, 6.3655237]}, "properties": {"name": "Paroisse Saint-Louis de Gbédégbé", "lat": 6.3655237, "lng": 2.3866241, "category": "place_of_worship", "poi_quartier": "Gbèdégbé", "poi_quartier_arr": "13ème Arrondissement", "match_mode": "FULL_SINGLE_UNIQUE", "matched_text": "gbedegbe", "match_confidence": 0.85, "snap_dist_m": 43.5, "current_owner": "Gbèdégbé", "current_owner_arr": "13ème Arrondissement", "classification": "CONFIRM", "color": "#16a34a"}}, {"type": "Feature", "geometry": {"type": "Point", "coordinates": [2.4258992, 6.387732]}, "properties": {"name": "Avlekete Honto", "lat": 6.387732, "lng": 2.4258992, "category": "place_of_worship", "poi_quartier": "Avlékété-Joncquet", "poi_quartier_arr": "5ème Arrondissement", "match_mode": "TOKEN_UNIQUE", "matched_text": "avlekete", "match_confidence": 0.6, "snap_dist_m": 20.6, "current_owner": "Ahouansori-Towéta", "current_owner_arr": "6ème Arrondissement", "classification": "DISPUTE", "color": "#dc2626"}}, {"type": "Feature", "geometry": {"type": "Point", "coordinates": [2.3513584, 6.493293]}, "properties": {"name": "Monts oliviers lifes shop", "lat": 6.493293, "lng": 2.3513584, "category": "convenience", "poi_quartier": "Kpodji-Les-Monts", "poi_quartier_arr": "Akassato", "match_mode": "TOKEN_UNIQUE", "matched_text": "monts", "match_confidence": 0.6, "snap_dist_m": 41.3, "current_owner": "Zopah-Akassato", "current_owner_arr": "Akassato", "classification": "DISPUTE", "color": "#dc2626"}}, {"type": "Feature", "geometry": {"type": "Point", "coordinates": [2.4358052, 6.3518259]}, "properties": {"name": "Azalaï Hôtel de la Plage", "lat": 6.3518259, "lng": 2.4358052, "category": "hotel", "poi_quartier": "Xwlacôdji-Plage", "poi_quartier_arr": "5ème Arrondissement", "match_mode": "TOKEN_UNIQUE", "matched_text": "plage", "match_confidence": 0.6, "snap_dist_m": 56.3, "current_owner": "Xwlacôdji-Kpodji", "current_owner_arr": "5ème Arrondissement", "classification": "DISPUTE", "color": "#dc2626"}}, {"type": "Feature", "geometry": {"type": "Point", "coordinates": [2.4506033, 6.39224]}, "properties": {"name": "Paroisse Saint Augustin Minontchou", "lat": 6.39224, "lng": 2.4506033, "category": "place_of_worship", "poi_quartier": "Minontchou", "poi_quartier_arr": "2ème Arrondissement", "match_mode": "FULL_SINGLE_UNIQUE", "matched_text": "minontchou", "match_confidence": 0.85, "snap_dist_m": 5.8, "current_owner": "Minontchou", "current_owner_arr": "2ème Arrondissement", "classification": "CONFIRM", "color": "#16a34a"}}, {"type": "Feature", "geometry": {"type": "Point", "coordinates": [2.450775, 6.3928467]}, "properties": {"name": "Paroisse Saint Augustin Minontchou", "lat": 6.3928467, "lng": 2.450775, "category": "place_of_worship", "poi_quartier": "Minontchou", "poi_quartier_arr": "2ème Arrondissement", "match_mode": "FULL_SINGLE_UNIQUE", "matched_text": "minontchou", "match_confidence": 0.85, "snap_dist_m": 24.3, "current_owner": "Minontchou", "current_owner_arr": "2ème Arrondissement", "classification": "CONFIRM", "color": "#16a34a"}}, {"type": "Feature", "geometry": {"type": "Point", "coordinates": [2.4414672, 6.390644]}, "properties": {"name": "AGBATO CABZ", "lat": 6.390644, "lng": 2.4414672, "category": "post_office", "poi_quartier": "Agbatô", "poi_quartier_arr": "3ème Arrondissement", "match_mode": "FULL_SINGLE_UNIQUE", "matched_text": "agbato", "match_confidence": 0.85, "snap_dist_m": 3.1, "current_owner": "Hlacômey", "current_owner_arr": "3ème Arrondissement", "classification": "DISPUTE", "color": "#dc2626"}}, {"type": "Feature", "geometry": {"type": "Point", "coordinates": [2.3576281, 6.5449251]}, "properties": {"name": "TELLA GBETAGBO", "lat": 6.5449251, "lng": 2.3576281, "category": "guest_house", "poi_quartier": "Gbétagbo", "poi_quartier_arr": "Akassato", "match_mode": "FULL_SINGLE_UNIQUE", "matched_text": "gbetagbo", "match_confidence": 0.85, "snap_dist_m": 26.0, "current_owner": "Agassa-Godomey", "current_owner_arr": "Akassato", "classification": "DISPUTE", "color": "#dc2626"}}, {"type": "Feature", "geometry": {"type": "Point", "coordinates": [2.34663, 6.537592]}, "properties": {"name": "SK 62 GBETAGBO", "lat": 6.537592, "lng": 2.34663, "category": "post_office", "poi_quartier": "Gbétagbo", "poi_quartier_arr": "Akassato", "match_mode": "FULL_SINGLE_UNIQUE", "matched_text": "gbetagbo", "match_confidence": 0.85, "snap_dist_m": 4.3, "current_owner": "Gbétagbo", "current_owner_arr": "Akassato", "classification": "CONFIRM", "color": "#16a34a"}}, {"type": "Feature", "geometry": {"type": "Point", "coordinates": [2.3705688, 6.3887023]}, "properties": {"name": "Akpata Menontin", "lat": 6.3887023, "lng": 2.3705688, "category": "guest_house", "poi_quartier": "Mènontin", "poi_quartier_arr": "9ème Arrondissement", "match_mode": "FULL_SINGLE_UNIQUE", "matched_text": "menontin", "match_confidence": 0.85, "snap_dist_m": 28.4, "current_owner": "Mènontin", "current_owner_arr": "9ème Arrondissement", "classification": "CONFIRM", "color": "#16a34a"}}, {"type": "Feature", "geometry": {"type": "Point", "coordinates": [2.3171898, 6.4896334]}, "properties": {"name": "ZOUNDJA MON AMOUR", "lat": 6.4896334, "lng": 2.3171898, "category": "cafe", "poi_quartier": "Zoundja\n", "poi_quartier_arr": "Abomey-Calavi", "match_mode": "FULL_SINGLE_UNIQUE", "matched_text": "zoundja", "match_confidence": 0.85, "snap_dist_m": 31.1, "current_owner": "Kansounkpa", "current_owner_arr": "Abomey-Calavi", "classification": "DISPUTE", "color": "#dc2626"}}, {"type": "Feature", "geometry": {"type": "Point", "coordinates": [2.4340309, 6.3591586]}, "properties": {"name": "PASE C 187 JONCQUET", "lat": 6.3591586, "lng": 2.4340309, "category": "post_office", "poi_quartier": "Avlékété-Joncquet", "poi_quartier_arr": "5ème Arrondissement", "match_mode": "TOKEN_UNIQUE", "matched_text": "joncquet", "match_confidence": 0.6, "snap_dist_m": 31.2, "current_owner": "Guinkômey", "current_owner_arr": "5ème Arrondissement", "classification": "DISPUTE", "color": "#dc2626"}}, {"type": "Feature", "geometry": {"type": "Point", "coordinates": [2.429015, 6.3596997]}, "properties": {"name": "PASE C 7 SCOA GBETO", "lat": 6.3596997, "lng": 2.429015, "category": "post_office", "poi_quartier": "Gbéto", "poi_quartier_arr": "5ème Arrondissement", "match_mode": "FULL_SINGLE_UNIQUE", "matched_text": "gbeto", "match_confidence": 0.85, "snap_dist_m": 14.1, "current_owner": "Dota", "current_owner_arr": "5ème Arrondissement", "classification": "DISPUTE", "color": "#dc2626"}}, {"type": "Feature", "geometry": {"type": "Point", "coordinates": [2.4412429, 6.3715431]}, "properties": {"name": "PASE DRL2 C??? DEDOKPO", "lat": 6.3715431, "lng": 2.4412429, "category": "post_office", "poi_quartier": "Dédokpo", "poi_quartier_arr": "4ème Arrondissement", "match_mode": "FULL_SINGLE_UNIQUE", "matched_text": "dedokpo", "match_confidence": 0.85, "snap_dist_m": 9.8, "current_owner": "Gbénonkpô", "current_owner_arr": "3ème Arrondissement", "classification": "DISPUTE", "color": "#dc2626"}}, {"type": "Feature", "geometry": {"type": "Point", "coordinates": [2.3615801, 6.3772195]}, "properties": {"name": "PASE C 527 EPP AGLA AGONGBOMEY", "lat": 6.3772195, "lng": 2.3615801, "category": "post_office", "poi_quartier": "Agla-Agongbomey", "poi_quartier_arr": "13ème Arrondissement", "match_mode": "TOKEN_UNIQUE", "matched_text": "agongbomey", "match_confidence": 0.6, "snap_dist_m": 18.5, "current_owner": "Agla-Agongbomey", "current_owner_arr": "13ème Arrondissement", "classification": "CONFIRM", "color": "#16a34a"}}, {"type": "Feature", "geometry": {"type": "Point", "coordinates": [2.4050601, 6.3715527]}, "properties": {"name": "PASE ALLOBATIN", "lat": 6.3715527, "lng": 2.4050601, "category": "post_office", "poi_quartier": "Vodjè-Allobatin", "poi_quartier_arr": "11ème Arrondissement", "match_mode": "TOKEN_UNIQUE", "matched_text": "allobatin", "match_confidence": 0.6, "snap_dist_m": 7.1, "current_owner": "Vodjè-Ayidoté", "current_owner_arr": "11ème Arrondissement", "classification": "DISPUTE", "color": "#dc2626"}}, {"type": "Feature", "geometry": {"type": "Point", "coordinates": [2.426784, 6.3626784]}, "properties": {"name": "PASE C 109 SCOA GBETO", "lat": 6.3626784, "lng": 2.426784, "category": "post_office", "poi_quartier": "Gbéto", "poi_quartier_arr": "5ème Arrondissement", "match_mode": "FULL_SINGLE_UNIQUE", "matched_text": "gbeto", "match_confidence": 0.85, "snap_dist_m": 23.5, "current_owner": "Mifongou", "current_owner_arr": "5ème Arrondissement", "classification": "DISPUTE", "color": "#dc2626"}}, {"type": "Feature", "geometry": {"type": "Point", "coordinates": [2.4286452, 6.3667445]}, "properties": {"name": "PASE C 5 ST Michel", "lat": 6.3667445, "lng": 2.4286452, "category": "post_office", "poi_quartier": "Sèdjro-Saint-Michel", "poi_quartier_arr": "7ème Arrondissement", "match_mode": "TOKEN_UNIQUE", "matched_text": "michel", "match_confidence": 0.6, "snap_dist_m": 28.6, "current_owner": "Sèdjro-Saint-Michel", "current_owner_arr": "7ème Arrondissement", "classification": "CONFIRM", "color": "#16a34a"}}, {"type": "Feature", "geometry": {"type": "Point", "coordinates": [2.461674, 6.358253]}, "properties": {"name": "PASE DRL2 C 188 PLM ALEDJO", "lat": 6.358253, "lng": 2.461674, "category": "post_office", "poi_quartier": "Alédjo\n", "poi_quartier_arr": "Abomey-Calavi", "match_mode": "FULL_SINGLE_UNIQUE", "matched_text": "aledjo", "match_confidence": 0.85, "snap_dist_m": 35.3, "current_owner": "Fifadji-Houto (Jak)", "current_owner_arr": "4ème Arrondissement", "classification": "DISPUTE", "color": "#dc2626"}}, {"type": "Feature", "geometry": {"type": "Point", "coordinates": [2.4855495, 6.3667856]}, "properties": {"name": "PASE DRL2 SONEB CHÂTEAU", "lat": 6.3667856, "lng": 2.4855495, "category": "post_office", "poi_quartier": "Agla-Petit-Château", "poi_quartier_arr": "13ème Arrondissement", "match_mode": "TOKEN_UNIQUE", "matched_text": "chateau", "match_confidence": 0.6, "snap_dist_m": 20.2, "current_owner": "Dandji-Hokanmè", "current_owner_arr": "1er Arrondissement", "classification": "DISPUTE", "color": "#dc2626"}}, {"type": "Feature", "geometry": {"type": "Point", "coordinates": [2.4260881, 6.3644242]}, "properties": {"name": "PASE C 481 ESPACE DINA", "lat": 6.3644242, "lng": 2.4260881, "category": "post_office", "poi_quartier": "Espace-Saint", "poi_quartier_arr": "Golo-Djigbé", "match_mode": "TOKEN_UNIQUE", "matched_text": "espace", "match_confidence": 0.6, "snap_dist_m": 64.1, "current_owner": "Mifongou", "current_owner_arr": "5ème Arrondissement", "classification": "DISPUTE", "color": "#dc2626"}}, {"type": "Feature", "geometry": {"type": "Point", "coordinates": [2.381, 6.7248101]}, "properties": {"name": "Marché de Sèdjè Denou", "lat": 6.7248101, "lng": 2.381, "category": "marketplace", "poi_quartier": "Dénou\n", "poi_quartier_arr": "Godomey", "match_mode": "FULL_SINGLE_UNIQUE", "matched_text": "denou", "match_confidence": 0.85, "snap_dist_m": 15.2, "current_owner": null, "current_owner_arr": null, "classification": "FILLS_GAP", "color": "#0891b2"}}, {"type": "Feature", "geometry": {"type": "Point", "coordinates": [2.381, 6.7248054]}, "properties": {"name": "Marché de Sèdjè -Denou", "lat": 6.7248054, "lng": 2.381, "category": "marketplace", "poi_quartier": "Dénou\n", "poi_quartier_arr": "Godomey", "match_mode": "FULL_SINGLE_UNIQUE", "matched_text": "denou", "match_confidence": 0.85, "snap_dist_m": 15.2, "current_owner": null, "current_owner_arr": null, "classification": "FILLS_GAP", "color": "#0891b2"}}, {"type": "Feature", "geometry": {"type": "Point", "coordinates": [2.2834266, 6.3731789]}, "properties": {"name": "ABERME GBODJE DJEKPOTA", "lat": 6.3731789, "lng": 2.2834266, "category": "post_office", "poi_quartier": "Djèkpota", "poi_quartier_arr": "Godomey", "match_mode": "FULL_SINGLE_UNIQUE", "matched_text": "djekpota", "match_confidence": 0.85, "snap_dist_m": 12.5, "current_owner": "Djèkpota", "current_owner_arr": "Godomey", "classification": "CONFIRM", "color": "#16a34a"}}, {"type": "Feature", "geometry": {"type": "Point", "coordinates": [2.3565489, 6.545442]}, "properties": {"name": "ABERME GBETAGBO", "lat": 6.545442, "lng": 2.3565489, "category": "post_office", "poi_quartier": "Gbétagbo", "poi_quartier_arr": "Akassato", "match_mode": "FULL_SINGLE_UNIQUE", "matched_text": "gbetagbo", "match_confidence": 0.85, "snap_dist_m": 9.2, "current_owner": "Agassa-Godomey", "current_owner_arr": "Akassato", "classification": "DISPUTE", "color": "#dc2626"}}, {"type": "Feature", "geometry": {"type": "Point", "coordinates": [2.3225135, 6.3844992]}, "properties": {"name": "Marché de Sèdégbé", "lat": 6.3844992, "lng": 2.3225135, "category": "supermarket", "poi_quartier": "Agbo Codji Sèdégbé", "poi_quartier_arr": "Godomey", "match_mode": "TOKEN_UNIQUE", "matched_text": "sedegbe", "match_confidence": 0.6, "snap_dist_m": 20.4, "current_owner": "Agbo Codji Sèdégbé", "current_owner_arr": "Godomey", "classification": "CONFIRM", "color": "#16a34a"}}, {"type": "Feature", "geometry": {"type": "Point", "coordinates": [2.4759888, 6.3757868]}, "properties": {"name": "AKPATA AKPAKPA", "lat": 6.3757868, "lng": 2.4759888, "category": "guest_house", "poi_quartier": "Akpakpa-Dodomè", "poi_quartier_arr": "4ème Arrondissement", "match_mode": "TOKEN_UNIQUE", "matched_text": "akpakpa", "match_confidence": 0.6, "snap_dist_m": 4.5, "current_owner": "Avotrou-Houézèkomè", "current_owner_arr": "1er Arrondissement", "classification": "DISPUTE", "color": "#dc2626"}}, {"type": "Feature", "geometry": {"type": "Point", "coordinates": [2.4108333, 6.3777975]}, "properties": {"name": "Espace Ifedu", "lat": 6.3777975, "lng": 2.4108333, "category": "hotel", "poi_quartier": "Espace-Saint", "poi_quartier_arr": "Golo-Djigbé", "match_mode": "TOKEN_UNIQUE", "matched_text": "espace", "match_confidence": 0.6, "snap_dist_m": 53.4, "current_owner": "Houéhoun", "current_owner_arr": "8ème Arrondissement", "classification": "DISPUTE", "color": "#dc2626"}}, {"type": "Feature", "geometry": {"type": "Point", "coordinates": [2.2790161, 6.3841269]}, "properties": {"name": "Cococodji", "lat": 6.3841269, "lng": 2.2790161, "category": "guest_house", "poi_quartier": "Cococodji", "poi_quartier_arr": "Godomey", "match_mode": "FULL_SINGLE_UNIQUE", "matched_text": "cococodji", "match_confidence": 0.85, "snap_dist_m": 32.3, "current_owner": "Cococodji", "current_owner_arr": "Godomey", "classification": "CONFIRM", "color": "#16a34a"}}, {"type": "Feature", "geometry": {"type": "Point", "coordinates": [2.3947654, 6.38223]}, "properties": {"name": "Vedoko Esther", "lat": 6.38223, "lng": 2.3947654, "category": "guest_house", "poi_quartier": "Védokô", "poi_quartier_arr": "10ème Arrondissement", "match_mode": "FULL_SINGLE_UNIQUE", "matched_text": "vedoko", "match_confidence": 0.85, "snap_dist_m": 21.5, "current_owner": "Missogbé", "current_owner_arr": "10ème Arrondissement", "classification": "DISPUTE", "color": "#dc2626"}}, {"type": "Feature", "geometry": {"type": "Point", "coordinates": [2.3306942, 6.4272993]}, "properties": {"name": "ZOGBADJE ANIOU", "lat": 6.4272993, "lng": 2.3306942, "category": "guest_house", "poi_quartier": "Zogbadjè", "poi_quartier_arr": "Abomey-Calavi", "match_mode": "FULL_SINGLE_UNIQUE", "matched_text": "zogbadje", "match_confidence": 0.85, "snap_dist_m": 22.9, "current_owner": "Tankpè-Tanmè", "current_owner_arr": "Togba", "classification": "DISPUTE", "color": "#dc2626"}}, {"type": "Feature", "geometry": {"type": "Point", "coordinates": [2.3583851, 6.3577491]}, "properties": {"name": "Pharmacie Akogbato", "lat": 6.3577491, "lng": 2.3583851, "category": "pharmacy", "poi_quartier": "Akôgbato", "poi_quartier_arr": "12ème Arrondissement", "match_mode": "FULL_SINGLE_UNIQUE", "matched_text": "akogbato", "match_confidence": 0.85, "snap_dist_m": 14.2, "current_owner": "Fidjrossè-Kpota", "current_owner_arr": "12ème Arrondissement", "classification": "DISPUTE", "color": "#dc2626"}}, {"type": "Feature", "geometry": {"type": "Point", "coordinates": [2.3984946, 6.3797918]}, "properties": {"name": "Hôtel à vedoko", "lat": 6.3797918, "lng": 2.3984946, "category": "hotel", "poi_quartier": "Védokô", "poi_quartier_arr": "10ème Arrondissement", "match_mode": "FULL_SINGLE_UNIQUE", "matched_text": "vedoko", "match_confidence": 0.85, "snap_dist_m": 91.8, "current_owner": null, "current_owner_arr": null, "classification": "NO_NODE", "color": "#94a3b8"}}, {"type": "Feature", "geometry": {"type": "Point", "coordinates": [2.2861775, 6.7196657]}, "properties": {"name": "Paroisse catholique St Michel de Zè", "lat": 6.7196657, "lng": 2.2861775, "category": "place_of_worship", "poi_quartier": "Sèdjro-Saint-Michel", "poi_quartier_arr": "7ème Arrondissement", "match_mode": "TOKEN_UNIQUE", "matched_text": "michel", "match_confidence": 0.6, "snap_dist_m": 66.7, "current_owner": null, "current_owner_arr": null, "classification": "FILLS_GAP", "color": "#0891b2"}}, {"type": "Feature", "geometry": {"type": "Point", "coordinates": [2.4300091, 6.3602719]}, "properties": {"name": "Tchiep Guinkomey", "lat": 6.3602719, "lng": 2.4300091, "category": "fast_food", "poi_quartier": "Guinkômey", "poi_quartier_arr": "5ème Arrondissement", "match_mode": "FULL_SINGLE_UNIQUE", "matched_text": "guinkomey", "match_confidence": 0.85, "snap_dist_m": 34.4, "current_owner": "Dota", "current_owner_arr": "5ème Arrondissement", "classification": "DISPUTE", "color": "#dc2626"}}, {"type": "Feature", "geometry": {"type": "Point", "coordinates": [2.3061368, 6.347664]}, "properties": {"name": "code bar plage", "lat": 6.347664, "lng": 2.3061368, "category": "restaurant", "poi_quartier": "Xwlacôdji-Plage", "poi_quartier_arr": "5ème Arrondissement", "match_mode": "TOKEN_UNIQUE", "matched_text": "plage", "match_confidence": 0.6, "snap_dist_m": 32.2, "current_owner": "Togbin-Fandji", "current_owner_arr": "Godomey", "classification": "DISPUTE", "color": "#dc2626"}}, {"type": "Feature", "geometry": {"type": "Point", "coordinates": [2.353114, 6.3768691]}, "properties": {"name": "Eglise catholique saint Charles lwanga Agla Akplomey", "lat": 6.3768691, "lng": 2.353114, "category": "place_of_worship", "poi_quartier": "Agla-Akplomey", "poi_quartier_arr": "13ème Arrondissement", "match_mode": "TOKEN_UNIQUE", "matched_text": "akplomey", "match_confidence": 0.6, "snap_dist_m": 14.3, "current_owner": "Plateau\n", "current_owner_arr": "Godomey", "classification": "DISPUTE", "color": "#dc2626"}}, {"type": "Feature", "geometry": {"type": "Point", "coordinates": [2.3814443, 6.3905415]}, "properties": {"name": "Eglise du Christianisme Céleste Paroisse les 3Anges Zogbohoue", "lat": 6.3905415, "lng": 2.3814443, "category": "place_of_worship", "poi_quartier": "Zogbohouè", "poi_quartier_arr": "9ème Arrondissement", "match_mode": "FULL_SINGLE_UNIQUE", "matched_text": "zogbohoue", "match_confidence": 0.85, "snap_dist_m": 6.9, "current_owner": "Zogbohouè", "current_owner_arr": "9ème Arrondissement", "classification": "CONFIRM", "color": "#16a34a"}}, {"type": "Feature", "geometry": {"type": "Point", "coordinates": [2.3805424, 6.3881192]}, "properties": {"name": "Mosquée centrale et école coranique raodatoul djannat de Zogbohouè", "lat": 6.3881192, "lng": 2.3805424, "category": "place_of_worship", "poi_quartier": "Zogbohouè", "poi_quartier_arr": "9ème Arrondissement", "match_mode": "FULL_SINGLE_UNIQUE", "matched_text": "zogbohoue", "match_confidence": 0.85, "snap_dist_m": 94.8, "current_owner": null, "current_owner_arr": null, "classification": "NO_NODE", "color": "#94a3b8"}}, {"type": "Feature", "geometry": {"type": "Point", "coordinates": [2.3824429, 6.3886677]}, "properties": {"name": "Eglise Baptiste du Benin Temple de Zogbo", "lat": 6.3886677, "lng": 2.3824429, "category": "place_of_worship", "poi_quartier": "Zogbo", "poi_quartier_arr": "9ème Arrondissement", "match_mode": "FULL_SINGLE_UNIQUE", "matched_text": "zogbo", "match_confidence": 0.85, "snap_dist_m": 12.8, "current_owner": "Zogbohouè", "current_owner_arr": "9ème Arrondissement", "classification": "DISPUTE", "color": "#dc2626"}}, {"type": "Feature", "geometry": {"type": "Point", "coordinates": [2.4705954, 6.3720871]}, "properties": {"name": "CEG Yagbé", "lat": 6.3720871, "lng": 2.4705954, "category": "college", "poi_quartier": "Yagbé", "poi_quartier_arr": "1er Arrondissement", "match_mode": "FULL_SINGLE_UNIQUE", "matched_text": "yagbe", "match_confidence": 0.85, "snap_dist_m": 66.1, "current_owner": "Yagbé", "current_owner_arr": "1er Arrondissement", "classification": "CONFIRM", "color": "#16a34a"}}, {"type": "Feature", "geometry": {"type": "Point", "coordinates": [2.3015722, 6.4350829]}, "properties": {"name": "Commissariat de Togba", "lat": 6.4350829, "lng": 2.3015722, "category": "police", "poi_quartier": "Togba_Maria-Gléta", "poi_quartier_arr": "Togba", "match_mode": "TOKEN_UNIQUE", "matched_text": "togba", "match_confidence": 0.6, "snap_dist_m": 26.3, "current_owner": "Houèto", "current_owner_arr": "Togba", "classification": "DISPUTE", "color": "#dc2626"}}, {"type": "Feature", "geometry": {"type": "Point", "coordinates": [2.3804787, 6.3879696]}, "properties": {"name": "École Coranique Jardin du paradis et mosquée centrale RAODAOUL DJANNA DE Zogbohoue", "lat": 6.3879696, "lng": 2.3804787, "category": "place_of_worship", "poi_quartier": "Zogbohouè", "poi_quartier_arr": "9ème Arrondissement", "match_mode": "FULL_SINGLE_UNIQUE", "matched_text": "zogbohoue", "match_confidence": 0.85, "snap_dist_m": 102.2, "current_owner": null, "current_owner_arr": null, "classification": "NO_NODE", "color": "#94a3b8"}}, {"type": "Feature", "geometry": {"type": "Point", "coordinates": [2.2636436, 6.45512]}, "properties": {"name": "EPP Ouedo Centre", "lat": 6.45512, "lng": 2.2636436, "category": "school", "poi_quartier": "Ouèdo", "poi_quartier_arr": "Ouèdo", "match_mode": "FULL_SINGLE_UNIQUE", "matched_text": "ouedo", "match_confidence": 0.85, "snap_dist_m": 53.8, "current_owner": "Ouèdo", "current_owner_arr": "Ouèdo", "classification": "CONFIRM", "color": "#16a34a"}}, {"type": "Feature", "geometry": {"type": "Point", "coordinates": [2.3268054, 6.4836965]}, "properties": {"name": "Pharmacie SEDAMI", "lat": 6.4836965, "lng": 2.3268054, "category": "pharmacy", "poi_quartier": "Sèdami", "poi_quartier_arr": "7ème Arrondissement", "match_mode": "FULL_SINGLE_UNIQUE", "matched_text": "sedami", "match_confidence": 0.85, "snap_dist_m": 30.2, "current_owner": "Cité-les-Palmiers\n", "current_owner_arr": "Abomey-Calavi", "classification": "DISPUTE", "color": "#dc2626"}}, {"type": "Feature", "geometry": {"type": "Point", "coordinates": [2.3436182, 6.426854]}, "properties": {"name": "Bar Zogbadjè", "lat": 6.426854, "lng": 2.3436182, "category": "bar", "poi_quartier": "Zogbadjè", "poi_quartier_arr": "Abomey-Calavi", "match_mode": "FULL_SINGLE_UNIQUE", "matched_text": "zogbadje", "match_confidence": 0.85, "snap_dist_m": 44.6, "current_owner": "Zogbadjè", "current_owner_arr": "Abomey-Calavi", "classification": "CONFIRM", "color": "#16a34a"}}, {"type": "Feature", "geometry": {"type": "Point", "coordinates": [2.3061177, 6.4620307]}, "properties": {"name": "Eglise céleste paroisse cité Jéhovah de Togba", "lat": 6.4620307, "lng": 2.3061177, "category": "place_of_worship", "poi_quartier": "Togba_Maria-Gléta", "poi_quartier_arr": "Togba", "match_mode": "TOKEN_UNIQUE", "matched_text": "togba", "match_confidence": 0.6, "snap_dist_m": 32.7, "current_owner": "Ouéga-Tokpa", "current_owner_arr": "Togba", "classification": "DISPUTE", "color": "#dc2626"}}, {"type": "Feature", "geometry": {"type": "Point", "coordinates": [2.3106453, 6.4371096]}, "properties": {"name": "EPMB Cité de Lumière de Houêto", "lat": 6.4371096, "lng": 2.3106453, "category": "place_of_worship", "poi_quartier": "Houèto", "poi_quartier_arr": "Togba", "match_mode": "FULL_SINGLE_UNIQUE", "matched_text": "houeto", "match_confidence": 0.85, "snap_dist_m": 26.5, "current_owner": "Tankpê-Yoho", "current_owner_arr": "Abomey-Calavi", "classification": "DISPUTE", "color": "#dc2626"}}, {"type": "Feature", "geometry": {"type": "Point", "coordinates": [2.3364319, 6.4482965]}, "properties": {"name": "Pharmacie AÏTCHEDJI SÉMINAIRE", "lat": 6.4482965, "lng": 2.3364319, "category": "pharmacy", "poi_quartier": "Aïtchédji\n", "poi_quartier_arr": "Abomey-Calavi", "match_mode": "FULL_SINGLE_UNIQUE", "matched_text": "aitchedji", "match_confidence": 0.85, "snap_dist_m": 17.8, "current_owner": "Aïtchédji\n", "current_owner_arr": "Abomey-Calavi", "classification": "CONFIRM", "color": "#16a34a"}}, {"type": "Feature", "geometry": {"type": "Point", "coordinates": [2.3266613, 6.4395433]}, "properties": {"name": "Mosquée Agori forêt", "lat": 6.4395433, "lng": 2.3266613, "category": "place_of_worship", "poi_quartier": "Agori", "poi_quartier_arr": "Abomey-Calavi", "match_mode": "FULL_SINGLE_UNIQUE", "matched_text": "agori", "match_confidence": 0.85, "snap_dist_m": 14.2, "current_owner": "Fifonsi\n", "current_owner_arr": "Togba", "classification": "DISPUTE", "color": "#dc2626"}}, {"type": "Feature", "geometry": {"type": "Point", "coordinates": [2.3920058, 6.3799665]}, "properties": {"name": "Église baptiste de Vêdoko", "lat": 6.3799665, "lng": 2.3920058, "category": "place_of_worship", "poi_quartier": "Védokô", "poi_quartier_arr": "10ème Arrondissement", "match_mode": "FULL_SINGLE_UNIQUE", "matched_text": "vedoko", "match_confidence": 0.85, "snap_dist_m": 15.6, "current_owner": "Missogbé", "current_owner_arr": "10ème Arrondissement", "classification": "DISPUTE", "color": "#dc2626"}}, {"type": "Feature", "geometry": {"type": "Point", "coordinates": [2.4048402, 6.3569835]}, "properties": {"name": "Collège Catholique Père Aupiais", "lat": 6.3569835, "lng": 2.4048402, "category": "school", "poi_quartier": "Cadjèhoun-Aupiais", "poi_quartier_arr": "12ème Arrondissement", "match_mode": "TOKEN_UNIQUE", "matched_text": "aupiais", "match_confidence": 0.6, "snap_dist_m": 60.3, "current_owner": "Cadjèhoun-Aupiais", "current_owner_arr": "12ème Arrondissement", "classification": "CONFIRM", "color": "#16a34a"}}, {"type": "Feature", "geometry": {"type": "Point", "coordinates": [2.4333016, 6.3727365]}, "properties": {"name": "Marché Dantokpa", "lat": 6.3727365, "lng": 2.4333016, "category": "marketplace", "poi_quartier": "Dantôkpa", "poi_quartier_arr": "6ème Arrondissement", "match_mode": "FULL_SINGLE_UNIQUE", "matched_text": "dantokpa", "match_confidence": 0.85, "snap_dist_m": 56.2, "current_owner": "Dantôkpa", "current_owner_arr": "6ème Arrondissement", "classification": "CONFIRM", "color": "#16a34a"}}, {"type": "Feature", "geometry": {"type": "Point", "coordinates": [2.3896977, 6.3781811]}, "properties": {"name": "Marché Vêdoko", "lat": 6.3781811, "lng": 2.3896977, "category": "marketplace", "poi_quartier": "Védokô", "poi_quartier_arr": "10ème Arrondissement", "match_mode": "FULL_SINGLE_UNIQUE", "matched_text": "vedoko", "match_confidence": 0.85, "snap_dist_m": 17.6, "current_owner": "Sètôvi", "current_owner_arr": "10ème Arrondissement", "classification": "DISPUTE", "color": "#dc2626"}}, {"type": "Feature", "geometry": {"type": "Point", "coordinates": [2.3947911, 6.391435]}, "properties": {"name": "Centre d'éducation générale de Zogbo", "lat": 6.391435, "lng": 2.3947911, "category": "college", "poi_quartier": "Zogbo", "poi_quartier_arr": "9ème Arrondissement", "match_mode": "FULL_SINGLE_UNIQUE", "matched_text": "zogbo", "match_confidence": 0.85, "snap_dist_m": 55.2, "current_owner": "Yénawa-Fifadji", "current_owner_arr": "10ème Arrondissement", "classification": "DISPUTE", "color": "#dc2626"}}, {"type": "Feature", "geometry": {"type": "Point", "coordinates": [2.3000459, 6.3978088]}, "properties": {"name": "CEG 1 de Cocotomey", "lat": 6.3978088, "lng": 2.3000459, "category": "school", "poi_quartier": "Cocotomey", "poi_quartier_arr": "Godomey", "match_mode": "FULL_SINGLE_UNIQUE", "matched_text": "cocotomey", "match_confidence": 0.85, "snap_dist_m": 60.3, "current_owner": "Sodo\n", "current_owner_arr": "Godomey", "classification": "DISPUTE", "color": "#dc2626"}}, {"type": "Feature", "geometry": {"type": "Point", "coordinates": [2.3615164, 6.3917506]}, "properties": {"name": "École Primaire Publique de Menontin", "lat": 6.3917506, "lng": 2.3615164, "category": "school", "poi_quartier": "Mènontin", "poi_quartier_arr": "9ème Arrondissement", "match_mode": "FULL_SINGLE_UNIQUE", "matched_text": "menontin", "match_confidence": 0.85, "snap_dist_m": 48.6, "current_owner": "Kindonou", "current_owner_arr": "9ème Arrondissement", "classification": "DISPUTE", "color": "#dc2626"}}, {"type": "Feature", "geometry": {"type": "Point", "coordinates": [2.4279225, 6.3665666]}, "properties": {"name": "Eglise Saint Michel Gbéto de Cotonou", "lat": 6.3665666, "lng": 2.4279225, "category": "place_of_worship", "poi_quartier": "Gbéto", "poi_quartier_arr": "5ème Arrondissement", "match_mode": "FULL_SINGLE_UNIQUE", "matched_text": "gbeto", "match_confidence": 0.85, "snap_dist_m": 76.1, "current_owner": "Sèdjro-Saint-Michel", "current_owner_arr": "7ème Arrondissement", "classification": "DISPUTE", "color": "#dc2626"}}, {"type": "Feature", "geometry": {"type": "Point", "coordinates": [2.3129297, 6.4050018]}, "properties": {"name": "CEG Le Plateau", "lat": 6.4050018, "lng": 2.3129297, "category": "school", "poi_quartier": "Plateau\n", "poi_quartier_arr": "Godomey", "match_mode": "FULL_SINGLE_UNIQUE", "matched_text": "plateau", "match_confidence": 0.85, "snap_dist_m": 51.3, "current_owner": "Yénandjro\n", "current_owner_arr": "Godomey", "classification": "DISPUTE", "color": "#dc2626"}}, {"type": "Feature", "geometry": {"type": "Point", "coordinates": [2.4264092, 6.3695386]}, "properties": {"name": "Marché St Michel", "lat": 6.3695386, "lng": 2.4264092, "category": "marketplace", "poi_quartier": "Sèdjro-Saint-Michel", "poi_quartier_arr": "7ème Arrondissement", "match_mode": "TOKEN_UNIQUE", "matched_text": "michel", "match_confidence": 0.6, "snap_dist_m": 58.4, "current_owner": "Sèdami", "current_owner_arr": "7ème Arrondissement", "classification": "DISPUTE", "color": "#dc2626"}}, {"type": "Feature", "geometry": {"type": "Point", "coordinates": [2.3652683, 6.3900724]}, "properties": {"name": "Hôpital de Menontin", "lat": 6.3900724, "lng": 2.3652683, "category": "hospital", "poi_quartier": "Mènontin", "poi_quartier_arr": "9ème Arrondissement", "match_mode": "FULL_SINGLE_UNIQUE", "matched_text": "menontin", "match_confidence": 0.85, "snap_dist_m": 31.5, "current_owner": "Kindonou", "current_owner_arr": "9ème Arrondissement", "classification": "DISPUTE", "color": "#dc2626"}}, {"type": "Feature", "geometry": {"type": "Point", "coordinates": [2.2717659, 6.3837554]}, "properties": {"name": "Centre de santé d’arrondissement (CSA) de Cococodji", "lat": 6.3837554, "lng": 2.2717659, "category": "clinic", "poi_quartier": "Cococodji", "poi_quartier_arr": "Godomey", "match_mode": "FULL_SINGLE_UNIQUE", "matched_text": "cococodji", "match_confidence": 0.85, "snap_dist_m": 51.5, "current_owner": "Cococodji", "current_owner_arr": "Godomey", "classification": "CONFIRM", "color": "#16a34a"}}, {"type": "Feature", "geometry": {"type": "Point", "coordinates": [2.3876348, 6.3766759]}, "properties": {"name": "Paroisse Jésus Eucharistie", "lat": 6.3766759, "lng": 2.3876348, "category": "place_of_worship", "poi_quartier": "Ahogbohoué-Cité-Eucharistie", "poi_quartier_arr": "13ème Arrondissement", "match_mode": "TOKEN_UNIQUE", "matched_text": "eucharistie", "match_confidence": 0.6, "snap_dist_m": 63.2, "current_owner": "Houéyihô-Tannou", "current_owner_arr": "11ème Arrondissement", "classification": "DISPUTE", "color": "#dc2626"}}, {"type": "Feature", "geometry": {"type": "Point", "coordinates": [2.4320238, 6.391917]}, "properties": {"name": "Église catholique Saint-Christophe d’Ayimlonfidé-Ladji", "lat": 6.391917, "lng": 2.4320238, "category": "place_of_worship", "poi_quartier": "Ladji", "poi_quartier_arr": "6ème Arrondissement", "match_mode": "FULL_SINGLE_UNIQUE", "matched_text": "ladji", "match_confidence": 0.85, "snap_dist_m": 22.8, "current_owner": "Ahouansori-Towéta-Kpota", "current_owner_arr": "6ème Arrondissement", "classification": "DISPUTE", "color": "#dc2626"}}, {"type": "Feature", "geometry": {"type": "Point", "coordinates": [2.4777622, 6.3675598]}, "properties": {"name": "Hôpital Minonkpo (ProFam)", "lat": 6.3675598, "lng": 2.4777622, "category": "hospital", "poi_quartier": "Minonkpô-Wologuèdè", "poi_quartier_arr": "8ème Arrondissement", "match_mode": "TOKEN_UNIQUE", "matched_text": "minonkpo", "match_confidence": 0.6, "snap_dist_m": 62.8, "current_owner": "Dandji", "current_owner_arr": "1er Arrondissement", "classification": "DISPUTE", "color": "#dc2626"}}, {"type": "Feature", "geometry": {"type": "Point", "coordinates": [2.4853303, 6.3653818]}, "properties": {"name": "Commissariat de Tokplégbé", "lat": 6.3653818, "lng": 2.4853303, "category": "police", "poi_quartier": "Tokplégbé", "poi_quartier_arr": "1er Arrondissement", "match_mode": "FULL_SINGLE_UNIQUE", "matched_text": "tokplegbe", "match_confidence": 0.85, "snap_dist_m": 52.7, "current_owner": "Dandji-Hokanmè", "current_owner_arr": "1er Arrondissement", "classification": "DISPUTE", "color": "#dc2626"}}, {"type": "Feature", "geometry": {"type": "Point", "coordinates": [2.4328, 6.3600526]}, "properties": {"name": "Mosqué centrale de Joncquet", "lat": 6.3600526, "lng": 2.4328, "category": "place_of_worship", "poi_quartier": "Avlékété-Joncquet", "poi_quartier_arr": "5ème Arrondissement", "match_mode": "TOKEN_UNIQUE", "matched_text": "joncquet", "match_confidence": 0.6, "snap_dist_m": 36.3, "current_owner": "Avlékété-Joncquet", "current_owner_arr": "5ème Arrondissement", "classification": "CONFIRM", "color": "#16a34a"}}, {"type": "Feature", "geometry": {"type": "Point", "coordinates": [2.4723394, 6.3690974]}, "properties": {"name": "Ecole Primaire Public de TANTO", "lat": 6.3690974, "lng": 2.4723394, "category": "school", "poi_quartier": "Tanto", "poi_quartier_arr": "1er Arrondissement", "match_mode": "FULL_SINGLE_UNIQUE", "matched_text": "tanto", "match_confidence": 0.85, "snap_dist_m": 36.6, "current_owner": "Tanto", "current_owner_arr": "1er Arrondissement", "classification": "CONFIRM", "color": "#16a34a"}}, {"type": "Feature", "geometry": {"type": "Point", "coordinates": [2.4417963, 6.3905978]}, "properties": {"name": "Paroisse St. Joseph d'Agbato", "lat": 6.3905978, "lng": 2.4417963, "category": "place_of_worship", "poi_quartier": "Agbatô", "poi_quartier_arr": "3ème Arrondissement", "match_mode": "FULL_SINGLE_UNIQUE", "matched_text": "agbato", "match_confidence": 0.85, "snap_dist_m": 37.2, "current_owner": "Hlacômey", "current_owner_arr": "3ème Arrondissement", "classification": "DISPUTE", "color": "#dc2626"}}, {"type": "Feature", "geometry": {"type": "Point", "coordinates": [2.3070823, 6.3914236]}, "properties": {"name": "Mission des Ambassadeurs pour Christ de Cocotomey", "lat": 6.3914236, "lng": 2.3070823, "category": "place_of_worship", "poi_quartier": "Cocotomey", "poi_quartier_arr": "Godomey", "match_mode": "FULL_SINGLE_UNIQUE", "matched_text": "cocotomey", "match_confidence": 0.85, "snap_dist_m": 26.0, "current_owner": "Tokpa\n", "current_owner_arr": "Godomey", "classification": "DISPUTE", "color": "#dc2626"}}, {"type": "Feature", "geometry": {"type": "Point", "coordinates": [2.3096717, 6.3894034]}, "properties": {"name": "Mosquée Centrale de Cocotomey", "lat": 6.3894034, "lng": 2.3096717, "category": "place_of_worship", "poi_quartier": "Cocotomey", "poi_quartier_arr": "Godomey", "match_mode": "FULL_SINGLE_UNIQUE", "matched_text": "cocotomey", "match_confidence": 0.85, "snap_dist_m": 28.5, "current_owner": "Tokpa\n", "current_owner_arr": "Godomey", "classification": "DISPUTE", "color": "#dc2626"}}, {"type": "Feature", "geometry": {"type": "Point", "coordinates": [2.365156, 6.6751182]}, "properties": {"name": "Centre de Santé de KPANROUN", "lat": 6.6751182, "lng": 2.365156, "category": "hospital", "poi_quartier": "Kpanroun", "poi_quartier_arr": "Kpanroun", "match_mode": "FULL_SINGLE_UNIQUE", "matched_text": "kpanroun", "match_confidence": 0.85, "snap_dist_m": 55.6, "current_owner": "Kpanroun", "current_owner_arr": "Kpanroun", "classification": "CONFIRM", "color": "#16a34a"}}, {"type": "Feature", "geometry": {"type": "Point", "coordinates": [2.4381975, 6.3615883]}, "properties": {"name": "Hôpital de l'enfant et de la mère lagune", "lat": 6.3615883, "lng": 2.4381975, "category": "hospital", "poi_quartier": "Abokicodji-Lagune", "poi_quartier_arr": "4ème Arrondissement", "match_mode": "TOKEN_UNIQUE", "matched_text": "lagune", "match_confidence": 0.6, "snap_dist_m": 21.9, "current_owner": "Tokpa-Hoho", "current_owner_arr": "5ème Arrondissement", "classification": "DISPUTE", "color": "#dc2626"}}, {"type": "Feature", "geometry": {"type": "Point", "coordinates": [2.4052276, 6.3587513]}, "properties": {"name": "Cycle Préparatoire Père Aupiais", "lat": 6.3587513, "lng": 2.4052276, "category": "university", "poi_quartier": "Cadjèhoun-Aupiais", "poi_quartier_arr": "12ème Arrondissement", "match_mode": "TOKEN_UNIQUE", "matched_text": "aupiais", "match_confidence": 0.6, "snap_dist_m": 57.1, "current_owner": "Cadjèhoun-Aupiais", "current_owner_arr": "12ème Arrondissement", "classification": "CONFIRM", "color": "#16a34a"}}, {"type": "Feature", "geometry": {"type": "Point", "coordinates": [2.4473923, 6.3709387]}, "properties": {"name": "Hopital Misséssin", "lat": 6.3709387, "lng": 2.4473923, "category": "hospital", "poi_quartier": "Misséssin", "poi_quartier_arr": "4ème Arrondissement", "match_mode": "FULL_SINGLE_UNIQUE", "matched_text": "missessin", "match_confidence": 0.85, "snap_dist_m": 21.3, "current_owner": "Gbèdjèwin", "current_owner_arr": "4ème Arrondissement", "classification": "DISPUTE", "color": "#dc2626"}}, {"type": "Feature", "geometry": {"type": "Point", "coordinates": [2.3032544, 6.5579141]}, "properties": {"name": "Centre de santé de Golo-Djigbé", "lat": 6.5579141, "lng": 2.3032544, "category": "hospital", "poi_quartier": "Golo-Djigbé", "poi_quartier_arr": "Golo-Djigbé", "match_mode": "FULL_HYPHEN", "matched_text": "golo-djigbe", "match_confidence": 1.0, "snap_dist_m": 60.7, "current_owner": "Golo-Djigbé", "current_owner_arr": "Golo-Djigbé", "classification": "CONFIRM", "color": "#16a34a"}}, {"type": "Feature", "geometry": {"type": "Point", "coordinates": [2.3010496, 6.5583871]}, "properties": {"name": "Marché de Golo-Djigbé", "lat": 6.5583871, "lng": 2.3010496, "category": "marketplace", "poi_quartier": "Golo-Djigbé", "poi_quartier_arr": "Golo-Djigbé", "match_mode": "FULL_HYPHEN", "matched_text": "golo-djigbe", "match_confidence": 1.0, "snap_dist_m": 21.9, "current_owner": "Golo-Djigbé", "current_owner_arr": "Golo-Djigbé", "classification": "CONFIRM", "color": "#16a34a"}}, {"type": "Feature", "geometry": {"type": "Point", "coordinates": [2.3594541, 6.4728882]}, "properties": {"name": "Saint Michel Archange de Gbodjo", "lat": 6.4728882, "lng": 2.3594541, "category": "place_of_worship", "poi_quartier": "Gbodjo", "poi_quartier_arr": "Abomey-Calavi", "match_mode": "FULL_SINGLE_UNIQUE", "matched_text": "gbodjo", "match_confidence": 0.85, "snap_dist_m": 34.5, "current_owner": "Gbodjo", "current_owner_arr": "Abomey-Calavi", "classification": "CONFIRM", "color": "#16a34a"}}, {"type": "Feature", "geometry": {"type": "Point", "coordinates": [2.2617219, 6.3460843]}, "properties": {"name": "Temple Vaudoum Adahouto Houta", "lat": 6.3460843, "lng": 2.2617219, "category": "place_of_worship", "poi_quartier": "Fiyégnon-Houta", "poi_quartier_arr": "12ème Arrondissement", "match_mode": "TOKEN_UNIQUE", "matched_text": "houta", "match_confidence": 0.6, "snap_dist_m": 124.6, "current_owner": null, "current_owner_arr": null, "classification": "NO_NODE", "color": "#94a3b8"}}, {"type": "Feature", "geometry": {"type": "Point", "coordinates": [2.2082988, 6.3848307]}, "properties": {"name": "Complexe scolaire Michel Dubois de Pahou", "lat": 6.3848307, "lng": 2.2082988, "category": "college", "poi_quartier": "Sèdjro-Saint-Michel", "poi_quartier_arr": "7ème Arrondissement", "match_mode": "TOKEN_UNIQUE", "matched_text": "michel", "match_confidence": 0.6, "snap_dist_m": 52.3, "current_owner": null, "current_owner_arr": null, "classification": "FILLS_GAP", "color": "#0891b2"}}, {"type": "Feature", "geometry": {"type": "Point", "coordinates": [2.2782388, 6.3887037]}, "properties": {"name": "Marché de Cococodji", "lat": 6.3887037, "lng": 2.2782388, "category": "marketplace", "poi_quartier": "Cococodji", "poi_quartier_arr": "Godomey", "match_mode": "FULL_SINGLE_UNIQUE", "matched_text": "cococodji", "match_confidence": 0.85, "snap_dist_m": 31.7, "current_owner": "Cococodji", "current_owner_arr": "Godomey", "classification": "CONFIRM", "color": "#16a34a"}}, {"type": "Feature", "geometry": {"type": "Point", "coordinates": [2.3889913, 6.3821885]}, "properties": {"name": "CEG Védoko", "lat": 6.3821885, "lng": 2.3889913, "category": "college", "poi_quartier": "Védokô", "poi_quartier_arr": "10ème Arrondissement", "match_mode": "FULL_SINGLE_UNIQUE", "matched_text": "vedoko", "match_confidence": 0.85, "snap_dist_m": 63.5, "current_owner": "Sètôvi", "current_owner_arr": "10ème Arrondissement", "classification": "DISPUTE", "color": "#dc2626"}}, {"type": "Feature", "geometry": {"type": "Point", "coordinates": [2.3854689, 6.3829615]}, "properties": {"name": "Ecole primaire publique de Sètovi", "lat": 6.3829615, "lng": 2.3854689, "category": "school", "poi_quartier": "Sètôvi", "poi_quartier_arr": "10ème Arrondissement", "match_mode": "FULL_SINGLE_UNIQUE", "matched_text": "setovi", "match_confidence": 0.85, "snap_dist_m": 34.5, "current_owner": "Sètôvi", "current_owner_arr": "10ème Arrondissement", "classification": "CONFIRM", "color": "#16a34a"}}, {"type": "Feature", "geometry": {"type": "Point", "coordinates": [2.4298785, 6.363477]}, "properties": {"name": "Complexe scolaire Gbéto sud - Groupe A, C, D", "lat": 6.363477, "lng": 2.4298785, "category": "school", "poi_quartier": "Gbéto", "poi_quartier_arr": "5ème Arrondissement", "match_mode": "FULL_SINGLE_UNIQUE", "matched_text": "gbeto", "match_confidence": 0.85, "snap_dist_m": 45.0, "current_owner": "Gbédokpo", "current_owner_arr": "5ème Arrondissement", "classification": "DISPUTE", "color": "#dc2626"}}, {"type": "Feature", "geometry": {"type": "Point", "coordinates": [2.4296663, 6.3908149]}, "properties": {"name": "École primaire publique de Ladji", "lat": 6.3908149, "lng": 2.4296663, "category": "school", "poi_quartier": "Ladji", "poi_quartier_arr": "6ème Arrondissement", "match_mode": "FULL_SINGLE_UNIQUE", "matched_text": "ladji", "match_confidence": 0.85, "snap_dist_m": 36.9, "current_owner": "Ladji", "current_owner_arr": "6ème Arrondissement", "classification": "CONFIRM", "color": "#16a34a"}}, {"type": "Feature", "geometry": {"type": "Point", "coordinates": [2.3833827, 6.3803878]}, "properties": {"name": "Église Catholique de Sètovi", "lat": 6.3803878, "lng": 2.3833827, "category": "place_of_worship", "poi_quartier": "Sètôvi", "poi_quartier_arr": "10ème Arrondissement", "match_mode": "FULL_SINGLE_UNIQUE", "matched_text": "setovi", "match_confidence": 0.85, "snap_dist_m": 33.0, "current_owner": "Védokô", "current_owner_arr": "10ème Arrondissement", "classification": "DISPUTE", "color": "#dc2626"}}, {"type": "Feature", "geometry": {"type": "Point", "coordinates": [2.3642183, 6.3816587]}, "properties": {"name": "CEG Les Pylônes", "lat": 6.3816587, "lng": 2.3642183, "category": "college", "poi_quartier": "Agla-Les-Pylônes", "poi_quartier_arr": "13ème Arrondissement", "match_mode": "TOKEN_UNIQUE", "matched_text": "pylones", "match_confidence": 0.6, "snap_dist_m": 75.1, "current_owner": "Agla-Les-Pylônes", "current_owner_arr": "13ème Arrondissement", "classification": "CONFIRM", "color": "#16a34a"}}, {"type": "Feature", "geometry": {"type": "Point", "coordinates": [2.3645584, 6.3925969]}, "properties": {"name": "Marché de Kindonou", "lat": 6.3925969, "lng": 2.3645584, "category": "marketplace", "poi_quartier": "Kindonou", "poi_quartier_arr": "9ème Arrondissement", "match_mode": "FULL_SINGLE_UNIQUE", "matched_text": "kindonou", "match_confidence": 0.85, "snap_dist_m": 41.2, "current_owner": "Kindonou", "current_owner_arr": "9ème Arrondissement", "classification": "CONFIRM", "color": "#16a34a"}}, {"type": "Feature", "geometry": {"type": "Point", "coordinates": [2.3159999, 6.4540078]}, "properties": {"name": "Paroisse St Pierre de Tokan", "lat": 6.4540078, "lng": 2.3159999, "category": "place_of_worship", "poi_quartier": "Tokan", "poi_quartier_arr": "Togba", "match_mode": "FULL_SINGLE_UNIQUE", "matched_text": "tokan", "match_confidence": 0.85, "snap_dist_m": 59.0, "current_owner": "Tokan", "current_owner_arr": "Togba", "classification": "CONFIRM", "color": "#16a34a"}}, {"type": "Feature", "geometry": {"type": "Point", "coordinates": [2.4850068, 6.3683595]}, "properties": {"name": "Marché Moderne de Tokplègbè", "lat": 6.3683595, "lng": 2.4850068, "category": "marketplace", "poi_quartier": "Tokplégbé", "poi_quartier_arr": "1er Arrondissement", "match_mode": "FULL_SINGLE_UNIQUE", "matched_text": "tokplegbe", "match_confidence": 0.85, "snap_dist_m": 53.8, "current_owner": "Dandji-Hokanmè", "current_owner_arr": "1er Arrondissement", "classification": "DISPUTE", "color": "#dc2626"}}, {"type": "Feature", "geometry": {"type": "Point", "coordinates": [2.4440343, 6.3784095]}, "properties": {"name": "Complexe Scolaire Akpakpa Nord", "lat": 6.3784095, "lng": 2.4440343, "category": "school", "poi_quartier": "Akpakpa-Dodomè", "poi_quartier_arr": "4ème Arrondissement", "match_mode": "TOKEN_UNIQUE", "matched_text": "akpakpa", "match_confidence": 0.6, "snap_dist_m": 63.9, "current_owner": "Midombo", "current_owner_arr": "3ème Arrondissement", "classification": "DISPUTE", "color": "#dc2626"}}]}