{"type": "FeatureCollection", "evidence_source": "OSM amenities (ODbL)", "audit_only": false, "evidence_radius_m": 150, "node_cluster_eps_m": 50, "n_zones": 79, "features": [{"type": "Feature", "geometry": {"type": "Point", "coordinates": [2.441824690476191, 6.39013144047619]}, "properties": {"zone_id": 0, "n_nodes": 7, "from_quartier": "Hlacômey", "to_quartier": "Agbatô", "n_supporting_pois": 14, "max_supporting_pois_per_node": 2, "confidence": "HIGH", "color": "#7f1d1d", "radius": 10, "gmaps_link": "https://www.google.com/maps/@6.390131,2.441825,18z"}}, {"type": "Feature", "geometry": {"type": "Point", "coordinates": [2.4294039857142855, 6.3897727]}, "properties": {"zone_id": 1, "n_nodes": 7, "from_quartier": "Ahouansori-Towéta-Kpota", "to_quartier": "Ladji", "n_supporting_pois": 16, "max_supporting_pois_per_node": 3, "confidence": "HIGH", "color": "#7f1d1d", "radius": 10, "gmaps_link": "https://www.google.com/maps/@6.389773,2.429404,18z"}}, {"type": "Feature", "geometry": {"type": "Point", "coordinates": [2.3091569883333336, 6.440652336666668]}, "properties": {"zone_id": 2, "n_nodes": 5, "from_quartier": "Houèto", "to_quartier": "Togba_Maria-Gléta", "n_supporting_pois": 10, "max_supporting_pois_per_node": 2, "confidence": "HIGH", "color": "#7f1d1d", "radius": 10, "gmaps_link": "https://www.google.com/maps/@6.440652,2.309157,18z"}}, {"type": "Feature", "geometry": {"type": "Point", "coordinates": [2.3899032234693878, 6.377480900765306]}, "properties": {"zone_id": 3, "n_nodes": 4, "from_quartier": "Houéyihô-Tannou", "to_quartier": "Védokô", "n_supporting_pois": 8, "max_supporting_pois_per_node": 2, "confidence": "HIGH", "color": "#7f1d1d", "radius": 10, "gmaps_link": "https://www.google.com/maps/@6.377481,2.389903,18z"}}, {"type": "Feature", "geometry": {"type": "Point", "coordinates": [2.44081385, 6.37185005]}, "properties": {"zone_id": 4, "n_nodes": 3, "from_quartier": "Gbénonkpô", "to_quartier": "Midombo", "n_supporting_pois": 3, "max_supporting_pois_per_node": 1, "confidence": "HIGH", "color": "#7f1d1d", "radius": 10, "gmaps_link": "https://www.google.com/maps/@6.371850,2.440814,18z"}}, {"type": "Feature", "geometry": {"type": "Point", "coordinates": [2.4304960666666666, 6.3911264999999995]}, "properties": {"zone_id": 5, "n_nodes": 3, "from_quartier": "Ahouansori-Towéta-Kpota", "to_quartier": "Ladji", "n_supporting_pois": 6, "max_supporting_pois_per_node": 2, "confidence": "HIGH", "color": "#7f1d1d", "radius": 10, "gmaps_link": "https://www.google.com/maps/@6.391126,2.430496,18z"}}, {"type": "Feature", "geometry": {"type": "Point", "coordinates": [2.4856965555555557, 6.3661813259259254]}, "properties": {"zone_id": 6, "n_nodes": 3, "from_quartier": "Dandji-Hokanmè", "to_quartier": "Tokplégbé", "n_supporting_pois": 3, "max_supporting_pois_per_node": 1, "confidence": "HIGH", "color": "#7f1d1d", "radius": 10, "gmaps_link": "https://www.google.com/maps/@6.366181,2.485697,18z"}}, {"type": "Feature", "geometry": {"type": "Point", "coordinates": [2.3901359583333335, 6.378555683333334]}, "properties": {"zone_id": 7, "n_nodes": 3, "from_quartier": "Missogbé", "to_quartier": "Védokô", "n_supporting_pois": 6, "max_supporting_pois_per_node": 2, "confidence": "HIGH", "color": "#7f1d1d", "radius": 10, "gmaps_link": "https://www.google.com/maps/@6.378556,2.390136,18z"}}, {"type": "Feature", "geometry": {"type": "Point", "coordinates": [2.3388357844444445, 6.429957555555556]}, "properties": {"zone_id": 8, "n_nodes": 3, "from_quartier": "Tchinangbégbo\n", "to_quartier": "Zogbadjè", "n_supporting_pois": 6, "max_supporting_pois_per_node": 2, "confidence": "HIGH", "color": "#7f1d1d", "radius": 10, "gmaps_link": "https://www.google.com/maps/@6.429958,2.338836,18z"}}, {"type": "Feature", "geometry": {"type": "Point", "coordinates": [2.3566910666666665, 6.544841233333333]}, "properties": {"zone_id": 9, "n_nodes": 3, "from_quartier": "Agassa-Godomey", "to_quartier": "Gbétagbo", "n_supporting_pois": 6, "max_supporting_pois_per_node": 2, "confidence": "HIGH", "color": "#7f1d1d", "radius": 10, "gmaps_link": "https://www.google.com/maps/@6.544841,2.356691,18z"}}, {"type": "Feature", "geometry": {"type": "Point", "coordinates": [2.4297098999999998, 6.3603448]}, "properties": {"zone_id": 10, "n_nodes": 2, "from_quartier": "Dota", "to_quartier": "Guinkômey", "n_supporting_pois": 2, "max_supporting_pois_per_node": 1, "confidence": "MEDIUM", "color": "#dc2626", "radius": 6, "gmaps_link": "https://www.google.com/maps/@6.360345,2.429710,18z"}}, {"type": "Feature", "geometry": {"type": "Point", "coordinates": [2.4288705999999998, 6.3654185]}, "properties": {"zone_id": 11, "n_nodes": 2, "from_quartier": "Gbédokpo", "to_quartier": "Sèdjro-Saint-Michel", "n_supporting_pois": 5, "max_supporting_pois_per_node": 3, "confidence": "HIGH", "color": "#7f1d1d", "radius": 10, "gmaps_link": "https://www.google.com/maps/@6.365418,2.428871,18z"}}, {"type": "Feature", "geometry": {"type": "Point", "coordinates": [2.4270632, 6.36491565]}, "properties": {"zone_id": 12, "n_nodes": 2, "from_quartier": "Mifongou", "to_quartier": "Espace-Saint", "n_supporting_pois": 2, "max_supporting_pois_per_node": 1, "confidence": "MEDIUM", "color": "#dc2626", "radius": 6, "gmaps_link": "https://www.google.com/maps/@6.364916,2.427063,18z"}}, {"type": "Feature", "geometry": {"type": "Point", "coordinates": [2.45367545, 6.37437355]}, "properties": {"zone_id": 13, "n_nodes": 2, "from_quartier": "Lom-Nava", "to_quartier": "Akpakpa-Dodomè", "n_supporting_pois": 4, "max_supporting_pois_per_node": 2, "confidence": "HIGH", "color": "#7f1d1d", "radius": 10, "gmaps_link": "https://www.google.com/maps/@6.374374,2.453675,18z"}}, {"type": "Feature", "geometry": {"type": "Point", "coordinates": [2.4859242, 6.36572885]}, "properties": {"zone_id": 14, "n_nodes": 2, "from_quartier": "Dandji-Hokanmè", "to_quartier": "Tokplégbé", "n_supporting_pois": 2, "max_supporting_pois_per_node": 1, "confidence": "MEDIUM", "color": "#dc2626", "radius": 6, "gmaps_link": "https://www.google.com/maps/@6.365729,2.485924,18z"}}, {"type": "Feature", "geometry": {"type": "Point", "coordinates": [2.39005915, 6.379143116666667]}, "properties": {"zone_id": 15, "n_nodes": 2, "from_quartier": "Missogbé", "to_quartier": "Védokô", "n_supporting_pois": 4, "max_supporting_pois_per_node": 2, "confidence": "HIGH", "color": "#7f1d1d", "radius": 10, "gmaps_link": "https://www.google.com/maps/@6.379143,2.390059,18z"}}, {"type": "Feature", "geometry": {"type": "Point", "coordinates": [2.3896420999999997, 6.378128]}, "properties": {"zone_id": 16, "n_nodes": 2, "from_quartier": "Sètôvi", "to_quartier": "Védokô", "n_supporting_pois": 4, "max_supporting_pois_per_node": 2, "confidence": "HIGH", "color": "#7f1d1d", "radius": 10, "gmaps_link": "https://www.google.com/maps/@6.378128,2.389642,18z"}}, {"type": "Feature", "geometry": {"type": "Point", "coordinates": [2.32655935, 6.439477350000001]}, "properties": {"zone_id": 17, "n_nodes": 2, "from_quartier": "Fifonsi\n", "to_quartier": "Agori", "n_supporting_pois": 4, "max_supporting_pois_per_node": 2, "confidence": "HIGH", "color": "#7f1d1d", "radius": 10, "gmaps_link": "https://www.google.com/maps/@6.439477,2.326559,18z"}}, {"type": "Feature", "geometry": {"type": "Point", "coordinates": [2.3271553, 6.439663400000001]}, "properties": {"zone_id": 18, "n_nodes": 2, "from_quartier": "Fifonsi\n", "to_quartier": "Agori", "n_supporting_pois": 4, "max_supporting_pois_per_node": 2, "confidence": "HIGH", "color": "#7f1d1d", "radius": 10, "gmaps_link": "https://www.google.com/maps/@6.439663,2.327155,18z"}}, {"type": "Feature", "geometry": {"type": "Point", "coordinates": [2.3094647000000004, 6.43985625]}, "properties": {"zone_id": 19, "n_nodes": 2, "from_quartier": "Houèto", "to_quartier": "Togba_Maria-Gléta", "n_supporting_pois": 4, "max_supporting_pois_per_node": 2, "confidence": "HIGH", "color": "#7f1d1d", "radius": 10, "gmaps_link": "https://www.google.com/maps/@6.439856,2.309465,18z"}}, {"type": "Feature", "geometry": {"type": "Point", "coordinates": [2.3917995, 6.3560292]}, "properties": {"zone_id": 20, "n_nodes": 2, "from_quartier": "Cadjèhoun-Agonga", "to_quartier": "Haie-Vive-Cocotiers", "n_supporting_pois": 4, "max_supporting_pois_per_node": 2, "confidence": "HIGH", "color": "#7f1d1d", "radius": 10, "gmaps_link": "https://www.google.com/maps/@6.356029,2.391799,18z"}}, {"type": "Feature", "geometry": {"type": "Point", "coordinates": [2.33817045, 6.42997085]}, "properties": {"zone_id": 21, "n_nodes": 2, "from_quartier": "Tchinangbégbo\n", "to_quartier": "Zogbadjè", "n_supporting_pois": 4, "max_supporting_pois_per_node": 2, "confidence": "HIGH", "color": "#7f1d1d", "radius": 10, "gmaps_link": "https://www.google.com/maps/@6.429971,2.338170,18z"}}, {"type": "Feature", "geometry": {"type": "Point", "coordinates": [2.309595, 6.437034000000001]}, "properties": {"zone_id": 22, "n_nodes": 2, "from_quartier": "Tankpê-Yoho", "to_quartier": "Houèto", "n_supporting_pois": 4, "max_supporting_pois_per_node": 2, "confidence": "HIGH", "color": "#7f1d1d", "radius": 10, "gmaps_link": "https://www.google.com/maps/@6.437034,2.309595,18z"}}, {"type": "Feature", "geometry": {"type": "Point", "coordinates": [2.4290341, 6.35982555]}, "properties": {"zone_id": 23, "n_nodes": 1, "from_quartier": "Dota", "to_quartier": "Guinkômey", "n_supporting_pois": 1, "max_supporting_pois_per_node": 1, "confidence": "LOW", "color": "#fb923c", "radius": 4, "gmaps_link": "https://www.google.com/maps/@6.359826,2.429034,18z"}}, {"type": "Feature", "geometry": {"type": "Point", "coordinates": [2.4411341777777777, 6.389576151851852]}, "properties": {"zone_id": 24, "n_nodes": 1, "from_quartier": "Hlacômey", "to_quartier": "Agbatô", "n_supporting_pois": 2, "max_supporting_pois_per_node": 2, "confidence": "MEDIUM", "color": "#dc2626", "radius": 6, "gmaps_link": "https://www.google.com/maps/@6.389576,2.441134,18z"}}, {"type": "Feature", "geometry": {"type": "Point", "coordinates": [2.4855345, 6.3681074]}, "properties": {"zone_id": 25, "n_nodes": 1, "from_quartier": "Dandji-Hokanmè", "to_quartier": "Tokplégbé", "n_supporting_pois": 1, "max_supporting_pois_per_node": 1, "confidence": "LOW", "color": "#fb923c", "radius": 4, "gmaps_link": "https://www.google.com/maps/@6.368107,2.485534,18z"}}, {"type": "Feature", "geometry": {"type": "Point", "coordinates": [2.4295131, 6.3592233]}, "properties": {"zone_id": 26, "n_nodes": 1, "from_quartier": "Dota", "to_quartier": "Guinkômey", "n_supporting_pois": 1, "max_supporting_pois_per_node": 1, "confidence": "LOW", "color": "#fb923c", "radius": 4, "gmaps_link": "https://www.google.com/maps/@6.359223,2.429513,18z"}}, {"type": "Feature", "geometry": {"type": "Point", "coordinates": [2.4407864, 6.3899181]}, "properties": {"zone_id": 27, "n_nodes": 1, "from_quartier": "Hlacômey", "to_quartier": "Agbatô", "n_supporting_pois": 2, "max_supporting_pois_per_node": 2, "confidence": "MEDIUM", "color": "#dc2626", "radius": 6, "gmaps_link": "https://www.google.com/maps/@6.389918,2.440786,18z"}}, {"type": "Feature", "geometry": {"type": "Point", "coordinates": [2.4262603, 6.3633348]}, "properties": {"zone_id": 28, "n_nodes": 1, "from_quartier": "Mifongou", "to_quartier": "Gbéto", "n_supporting_pois": 1, "max_supporting_pois_per_node": 1, "confidence": "LOW", "color": "#fb923c", "radius": 4, "gmaps_link": "https://www.google.com/maps/@6.363335,2.426260,18z"}}, {"type": "Feature", "geometry": {"type": "Point", "coordinates": [2.4857993, 6.367495]}, "properties": {"zone_id": 29, "n_nodes": 1, "from_quartier": "Dandji-Hokanmè", "to_quartier": "Tokplégbé", "n_supporting_pois": 1, "max_supporting_pois_per_node": 1, "confidence": "LOW", "color": "#fb923c", "radius": 4, "gmaps_link": "https://www.google.com/maps/@6.367495,2.485799,18z"}}, {"type": "Feature", "geometry": {"type": "Point", "coordinates": [2.4847611, 6.367389]}, "properties": {"zone_id": 30, "n_nodes": 1, "from_quartier": "Dandji-Hokanmè", "to_quartier": "Tokplégbé", "n_supporting_pois": 1, "max_supporting_pois_per_node": 1, "confidence": "LOW", "color": "#fb923c", "radius": 4, "gmaps_link": "https://www.google.com/maps/@6.367389,2.484761,18z"}}, {"type": "Feature", "geometry": {"type": "Point", "coordinates": [2.44185779, 6.39110696]}, "properties": {"zone_id": 31, "n_nodes": 1, "from_quartier": "Hlacômey", "to_quartier": "Agbatô", "n_supporting_pois": 2, "max_supporting_pois_per_node": 2, "confidence": "MEDIUM", "color": "#dc2626", "radius": 6, "gmaps_link": "https://www.google.com/maps/@6.391107,2.441858,18z"}}, {"type": "Feature", "geometry": {"type": "Point", "coordinates": [2.3643046, 6.3908542]}, "properties": {"zone_id": 32, "n_nodes": 1, "from_quartier": "Kindonou", "to_quartier": "Mènontin", "n_supporting_pois": 1, "max_supporting_pois_per_node": 1, "confidence": "LOW", "color": "#fb923c", "radius": 4, "gmaps_link": "https://www.google.com/maps/@6.390854,2.364305,18z"}}, {"type": "Feature", "geometry": {"type": "Point", "coordinates": [2.4537108, 6.3757265]}, "properties": {"zone_id": 33, "n_nodes": 1, "from_quartier": "Lom-Nava", "to_quartier": "Akpakpa-Dodomè", "n_supporting_pois": 2, "max_supporting_pois_per_node": 2, "confidence": "MEDIUM", "color": "#dc2626", "radius": 6, "gmaps_link": "https://www.google.com/maps/@6.375726,2.453711,18z"}}, {"type": "Feature", "geometry": {"type": "Point", "coordinates": [2.4279718, 6.35897265]}, "properties": {"zone_id": 34, "n_nodes": 1, "from_quartier": "Dota", "to_quartier": "Gbéto", "n_supporting_pois": 2, "max_supporting_pois_per_node": 2, "confidence": "MEDIUM", "color": "#dc2626", "radius": 6, "gmaps_link": "https://www.google.com/maps/@6.358973,2.427972,18z"}}, {"type": "Feature", "geometry": {"type": "Point", "coordinates": [2.4306309, 6.3905512]}, "properties": {"zone_id": 35, "n_nodes": 1, "from_quartier": "Ahouansori-Towéta-Kpota", "to_quartier": "Ladji", "n_supporting_pois": 2, "max_supporting_pois_per_node": 2, "confidence": "MEDIUM", "color": "#dc2626", "radius": 6, "gmaps_link": "https://www.google.com/maps/@6.390551,2.430631,18z"}}, {"type": "Feature", "geometry": {"type": "Point", "coordinates": [2.3647947, 6.391007]}, "properties": {"zone_id": 36, "n_nodes": 1, "from_quartier": "Kindonou", "to_quartier": "Mènontin", "n_supporting_pois": 1, "max_supporting_pois_per_node": 1, "confidence": "LOW", "color": "#fb923c", "radius": 4, "gmaps_link": "https://www.google.com/maps/@6.391007,2.364795,18z"}}, {"type": "Feature", "geometry": {"type": "Point", "coordinates": [2.4529969, 6.3758805]}, "properties": {"zone_id": 37, "n_nodes": 1, "from_quartier": "Lom-Nava", "to_quartier": "Akpakpa-Dodomè", "n_supporting_pois": 2, "max_supporting_pois_per_node": 2, "confidence": "MEDIUM", "color": "#dc2626", "radius": 6, "gmaps_link": "https://www.google.com/maps/@6.375881,2.452997,18z"}}, {"type": "Feature", "geometry": {"type": "Point", "coordinates": [2.4424708666666666, 6.3914814]}, "properties": {"zone_id": 38, "n_nodes": 1, "from_quartier": "Hlacômey", "to_quartier": "Agbatô", "n_supporting_pois": 2, "max_supporting_pois_per_node": 2, "confidence": "MEDIUM", "color": "#dc2626", "radius": 6, "gmaps_link": "https://www.google.com/maps/@6.391481,2.442471,18z"}}, {"type": "Feature", "geometry": {"type": "Point", "coordinates": [2.45369475, 6.37513835]}, "properties": {"zone_id": 39, "n_nodes": 1, "from_quartier": "Lom-Nava", "to_quartier": "Akpakpa-Dodomè", "n_supporting_pois": 2, "max_supporting_pois_per_node": 2, "confidence": "MEDIUM", "color": "#dc2626", "radius": 6, "gmaps_link": "https://www.google.com/maps/@6.375138,2.453695,18z"}}, {"type": "Feature", "geometry": {"type": "Point", "coordinates": [2.4516329, 6.3749918]}, "properties": {"zone_id": 40, "n_nodes": 1, "from_quartier": "Ayélawadjè", "to_quartier": "Akpakpa-Dodomè", "n_supporting_pois": 2, "max_supporting_pois_per_node": 2, "confidence": "MEDIUM", "color": "#dc2626", "radius": 6, "gmaps_link": "https://www.google.com/maps/@6.374992,2.451633,18z"}}, {"type": "Feature", "geometry": {"type": "Point", "coordinates": [2.4311623, 6.3909701]}, "properties": {"zone_id": 41, "n_nodes": 1, "from_quartier": "Ahouansori-Towéta-Kpota", "to_quartier": "Ladji", "n_supporting_pois": 2, "max_supporting_pois_per_node": 2, "confidence": "MEDIUM", "color": "#dc2626", "radius": 6, "gmaps_link": "https://www.google.com/maps/@6.390970,2.431162,18z"}}, {"type": "Feature", "geometry": {"type": "Point", "coordinates": [2.4406942, 6.3725761]}, "properties": {"zone_id": 42, "n_nodes": 1, "from_quartier": "Gbénonkpô", "to_quartier": "Midombo", "n_supporting_pois": 1, "max_supporting_pois_per_node": 1, "confidence": "LOW", "color": "#fb923c", "radius": 4, "gmaps_link": "https://www.google.com/maps/@6.372576,2.440694,18z"}}, {"type": "Feature", "geometry": {"type": "Point", "coordinates": [2.4266129, 6.3654706]}, "properties": {"zone_id": 43, "n_nodes": 1, "from_quartier": "Mifongou", "to_quartier": "Espace-Saint", "n_supporting_pois": 1, "max_supporting_pois_per_node": 1, "confidence": "LOW", "color": "#fb923c", "radius": 4, "gmaps_link": "https://www.google.com/maps/@6.365471,2.426613,18z"}}, {"type": "Feature", "geometry": {"type": "Point", "coordinates": [2.4056706, 6.3599328]}, "properties": {"zone_id": 44, "n_nodes": 1, "from_quartier": "Cadjèhoun-Gare", "to_quartier": "Cadjèhoun-Aupiais", "n_supporting_pois": 2, "max_supporting_pois_per_node": 2, "confidence": "MEDIUM", "color": "#dc2626", "radius": 6, "gmaps_link": "https://www.google.com/maps/@6.359933,2.405671,18z"}}, {"type": "Feature", "geometry": {"type": "Point", "coordinates": [2.4516463, 6.3743814]}, "properties": {"zone_id": 45, "n_nodes": 1, "from_quartier": "Fifatin", "to_quartier": "Akpakpa-Dodomè", "n_supporting_pois": 2, "max_supporting_pois_per_node": 2, "confidence": "MEDIUM", "color": "#dc2626", "radius": 6, "gmaps_link": "https://www.google.com/maps/@6.374381,2.451646,18z"}}, {"type": "Feature", "geometry": {"type": "Point", "coordinates": [2.4424773, 6.3907902]}, "properties": {"zone_id": 46, "n_nodes": 1, "from_quartier": "Hlacômey", "to_quartier": "Agbatô", "n_supporting_pois": 2, "max_supporting_pois_per_node": 2, "confidence": "MEDIUM", "color": "#dc2626", "radius": 6, "gmaps_link": "https://www.google.com/maps/@6.390790,2.442477,18z"}}, {"type": "Feature", "geometry": {"type": "Point", "coordinates": [2.4848695, 6.3662296]}, "properties": {"zone_id": 47, "n_nodes": 1, "from_quartier": "Dandji-Hokanmè", "to_quartier": "Tokplégbé", "n_supporting_pois": 1, "max_supporting_pois_per_node": 1, "confidence": "LOW", "color": "#fb923c", "radius": 4, "gmaps_link": "https://www.google.com/maps/@6.366230,2.484869,18z"}}, {"type": "Feature", "geometry": {"type": "Point", "coordinates": [2.4530282, 6.3751002]}, "properties": {"zone_id": 48, "n_nodes": 1, "from_quartier": "Lom-Nava", "to_quartier": "Akpakpa-Dodomè", "n_supporting_pois": 2, "max_supporting_pois_per_node": 2, "confidence": "MEDIUM", "color": "#dc2626", "radius": 6, "gmaps_link": "https://www.google.com/maps/@6.375100,2.453028,18z"}}, {"type": "Feature", "geometry": {"type": "Point", "coordinates": [2.3908836, 6.3793105]}, "properties": {"zone_id": 49, "n_nodes": 1, "from_quartier": "Missogbé", "to_quartier": "Védokô", "n_supporting_pois": 2, "max_supporting_pois_per_node": 2, "confidence": "MEDIUM", "color": "#dc2626", "radius": 6, "gmaps_link": "https://www.google.com/maps/@6.379310,2.390884,18z"}}, {"type": "Feature", "geometry": {"type": "Point", "coordinates": [2.364199425, 6.389556575]}, "properties": {"zone_id": 50, "n_nodes": 1, "from_quartier": "Kindonou", "to_quartier": "Mènontin", "n_supporting_pois": 2, "max_supporting_pois_per_node": 2, "confidence": "MEDIUM", "color": "#dc2626", "radius": 6, "gmaps_link": "https://www.google.com/maps/@6.389557,2.364199,18z"}}, {"type": "Feature", "geometry": {"type": "Point", "coordinates": [2.4523256, 6.3750427]}, "properties": {"zone_id": 51, "n_nodes": 1, "from_quartier": "Ayélawadjè", "to_quartier": "Akpakpa-Dodomè", "n_supporting_pois": 2, "max_supporting_pois_per_node": 2, "confidence": "MEDIUM", "color": "#dc2626", "radius": 6, "gmaps_link": "https://www.google.com/maps/@6.375043,2.452326,18z"}}, {"type": "Feature", "geometry": {"type": "Point", "coordinates": [2.3891212, 6.378627900000001]}, "properties": {"zone_id": 52, "n_nodes": 1, "from_quartier": "Sètôvi", "to_quartier": "Védokô", "n_supporting_pois": 2, "max_supporting_pois_per_node": 2, "confidence": "MEDIUM", "color": "#dc2626", "radius": 6, "gmaps_link": "https://www.google.com/maps/@6.378628,2.389121,18z"}}, {"type": "Feature", "geometry": {"type": "Point", "coordinates": [2.4060435, 6.3594558]}, "properties": {"zone_id": 53, "n_nodes": 1, "from_quartier": "Cadjèhoun-Gare", "to_quartier": "Cadjèhoun-Aupiais", "n_supporting_pois": 2, "max_supporting_pois_per_node": 2, "confidence": "MEDIUM", "color": "#dc2626", "radius": 6, "gmaps_link": "https://www.google.com/maps/@6.359456,2.406044,18z"}}, {"type": "Feature", "geometry": {"type": "Point", "coordinates": [2.4849254, 6.3656321]}, "properties": {"zone_id": 54, "n_nodes": 1, "from_quartier": "Dandji-Hokanmè", "to_quartier": "Tokplégbé", "n_supporting_pois": 1, "max_supporting_pois_per_node": 1, "confidence": "LOW", "color": "#fb923c", "radius": 4, "gmaps_link": "https://www.google.com/maps/@6.365632,2.484925,18z"}}, {"type": "Feature", "geometry": {"type": "Point", "coordinates": [2.4531371, 6.3739036]}, "properties": {"zone_id": 55, "n_nodes": 1, "from_quartier": "Fifatin", "to_quartier": "Akpakpa-Dodomè", "n_supporting_pois": 2, "max_supporting_pois_per_node": 2, "confidence": "MEDIUM", "color": "#dc2626", "radius": 6, "gmaps_link": "https://www.google.com/maps/@6.373904,2.453137,18z"}}, {"type": "Feature", "geometry": {"type": "Point", "coordinates": [2.427107, 6.3666639]}, "properties": {"zone_id": 56, "n_nodes": 1, "from_quartier": "Sèdjro-Saint-Michel", "to_quartier": "Gbéto", "n_supporting_pois": 2, "max_supporting_pois_per_node": 2, "confidence": "MEDIUM", "color": "#dc2626", "radius": 6, "gmaps_link": "https://www.google.com/maps/@6.366664,2.427107,18z"}}, {"type": "Feature", "geometry": {"type": "Point", "coordinates": [2.406402, 6.3589973]}, "properties": {"zone_id": 57, "n_nodes": 1, "from_quartier": "Cadjèhoun-Gare", "to_quartier": "Cadjèhoun-Aupiais", "n_supporting_pois": 2, "max_supporting_pois_per_node": 2, "confidence": "MEDIUM", "color": "#dc2626", "radius": 6, "gmaps_link": "https://www.google.com/maps/@6.358997,2.406402,18z"}}, {"type": "Feature", "geometry": {"type": "Point", "coordinates": [2.3649361, 6.3890006]}, "properties": {"zone_id": 58, "n_nodes": 1, "from_quartier": "Kindonou", "to_quartier": "Mènontin", "n_supporting_pois": 2, "max_supporting_pois_per_node": 2, "confidence": "MEDIUM", "color": "#dc2626", "radius": 6, "gmaps_link": "https://www.google.com/maps/@6.389001,2.364936,18z"}}, {"type": "Feature", "geometry": {"type": "Point", "coordinates": [2.3906271, 6.3783533]}, "properties": {"zone_id": 59, "n_nodes": 1, "from_quartier": "Missogbé", "to_quartier": "Védokô", "n_supporting_pois": 2, "max_supporting_pois_per_node": 2, "confidence": "MEDIUM", "color": "#dc2626", "radius": 6, "gmaps_link": "https://www.google.com/maps/@6.378353,2.390627,18z"}}, {"type": "Feature", "geometry": {"type": "Point", "coordinates": [2.3080365, 6.4393941]}, "properties": {"zone_id": 60, "n_nodes": 1, "from_quartier": "Houèto", "to_quartier": "Togba_Maria-Gléta", "n_supporting_pois": 2, "max_supporting_pois_per_node": 2, "confidence": "MEDIUM", "color": "#dc2626", "radius": 6, "gmaps_link": "https://www.google.com/maps/@6.439394,2.308037,18z"}}, {"type": "Feature", "geometry": {"type": "Point", "coordinates": [2.3653875, 6.3888915]}, "properties": {"zone_id": 61, "n_nodes": 1, "from_quartier": "Kindonou", "to_quartier": "Mènontin", "n_supporting_pois": 2, "max_supporting_pois_per_node": 2, "confidence": "MEDIUM", "color": "#dc2626", "radius": 6, "gmaps_link": "https://www.google.com/maps/@6.388891,2.365388,18z"}}, {"type": "Feature", "geometry": {"type": "Point", "coordinates": [2.3264191, 6.4387419]}, "properties": {"zone_id": 62, "n_nodes": 1, "from_quartier": "Fifonsi\n", "to_quartier": "Agori", "n_supporting_pois": 2, "max_supporting_pois_per_node": 2, "confidence": "MEDIUM", "color": "#dc2626", "radius": 6, "gmaps_link": "https://www.google.com/maps/@6.438742,2.326419,18z"}}, {"type": "Feature", "geometry": {"type": "Point", "coordinates": [2.3081946, 6.4404532]}, "properties": {"zone_id": 63, "n_nodes": 1, "from_quartier": "Houèto", "to_quartier": "Togba_Maria-Gléta", "n_supporting_pois": 2, "max_supporting_pois_per_node": 2, "confidence": "MEDIUM", "color": "#dc2626", "radius": 6, "gmaps_link": "https://www.google.com/maps/@6.440453,2.308195,18z"}}, {"type": "Feature", "geometry": {"type": "Point", "coordinates": [2.3084154, 6.4399439]}, "properties": {"zone_id": 64, "n_nodes": 1, "from_quartier": "Houèto", "to_quartier": "Togba_Maria-Gléta", "n_supporting_pois": 2, "max_supporting_pois_per_node": 2, "confidence": "MEDIUM", "color": "#dc2626", "radius": 6, "gmaps_link": "https://www.google.com/maps/@6.439944,2.308415,18z"}}, {"type": "Feature", "geometry": {"type": "Point", "coordinates": [2.32699504, 6.438743560000001]}, "properties": {"zone_id": 65, "n_nodes": 1, "from_quartier": "Fifonsi\n", "to_quartier": "Agori", "n_supporting_pois": 2, "max_supporting_pois_per_node": 2, "confidence": "MEDIUM", "color": "#dc2626", "radius": 6, "gmaps_link": "https://www.google.com/maps/@6.438744,2.326995,18z"}}, {"type": "Feature", "geometry": {"type": "Point", "coordinates": [2.3171019, 6.4541766]}, "properties": {"zone_id": 66, "n_nodes": 1, "from_quartier": "Ahossougbéta", "to_quartier": "Tokan", "n_supporting_pois": 2, "max_supporting_pois_per_node": 2, "confidence": "MEDIUM", "color": "#dc2626", "radius": 6, "gmaps_link": "https://www.google.com/maps/@6.454177,2.317102,18z"}}, {"type": "Feature", "geometry": {"type": "Point", "coordinates": [2.3267201, 6.4382098]}, "properties": {"zone_id": 67, "n_nodes": 1, "from_quartier": "Fifonsi\n", "to_quartier": "Agori", "n_supporting_pois": 2, "max_supporting_pois_per_node": 2, "confidence": "MEDIUM", "color": "#dc2626", "radius": 6, "gmaps_link": "https://www.google.com/maps/@6.438210,2.326720,18z"}}, {"type": "Feature", "geometry": {"type": "Point", "coordinates": [2.3099694, 6.4390176]}, "properties": {"zone_id": 68, "n_nodes": 1, "from_quartier": "Houèto", "to_quartier": "Togba_Maria-Gléta", "n_supporting_pois": 2, "max_supporting_pois_per_node": 2, "confidence": "MEDIUM", "color": "#dc2626", "radius": 6, "gmaps_link": "https://www.google.com/maps/@6.439018,2.309969,18z"}}, {"type": "Feature", "geometry": {"type": "Point", "coordinates": [2.3575419, 6.5451426]}, "properties": {"zone_id": 69, "n_nodes": 1, "from_quartier": "Agassa-Godomey", "to_quartier": "Gbétagbo", "n_supporting_pois": 2, "max_supporting_pois_per_node": 2, "confidence": "MEDIUM", "color": "#dc2626", "radius": 6, "gmaps_link": "https://www.google.com/maps/@6.545143,2.357542,18z"}}, {"type": "Feature", "geometry": {"type": "Point", "coordinates": [2.3376219, 6.4298482]}, "properties": {"zone_id": 70, "n_nodes": 1, "from_quartier": "Tchinangbégbo\n", "to_quartier": "Zogbadjè", "n_supporting_pois": 2, "max_supporting_pois_per_node": 2, "confidence": "MEDIUM", "color": "#dc2626", "radius": 6, "gmaps_link": "https://www.google.com/maps/@6.429848,2.337622,18z"}}, {"type": "Feature", "geometry": {"type": "Point", "coordinates": [2.3376283, 6.4293718]}, "properties": {"zone_id": 71, "n_nodes": 1, "from_quartier": "Tchinangbégbo\n", "to_quartier": "Zogbadjè", "n_supporting_pois": 2, "max_supporting_pois_per_node": 2, "confidence": "MEDIUM", "color": "#dc2626", "radius": 6, "gmaps_link": "https://www.google.com/maps/@6.429372,2.337628,18z"}}, {"type": "Feature", "geometry": {"type": "Point", "coordinates": [2.3565513, 6.5455246]}, "properties": {"zone_id": 72, "n_nodes": 1, "from_quartier": "Agassa-Godomey", "to_quartier": "Gbétagbo", "n_supporting_pois": 2, "max_supporting_pois_per_node": 2, "confidence": "MEDIUM", "color": "#dc2626", "radius": 6, "gmaps_link": "https://www.google.com/maps/@6.545525,2.356551,18z"}}, {"type": "Feature", "geometry": {"type": "Point", "coordinates": [2.356618, 6.544256225]}, "properties": {"zone_id": 73, "n_nodes": 1, "from_quartier": "Agassa-Godomey", "to_quartier": "Gbétagbo", "n_supporting_pois": 2, "max_supporting_pois_per_node": 2, "confidence": "MEDIUM", "color": "#dc2626", "radius": 6, "gmaps_link": "https://www.google.com/maps/@6.544256,2.356618,18z"}}, {"type": "Feature", "geometry": {"type": "Point", "coordinates": [2.3574659, 6.545919]}, "properties": {"zone_id": 74, "n_nodes": 1, "from_quartier": "Agassa-Godomey", "to_quartier": "Gbétagbo", "n_supporting_pois": 2, "max_supporting_pois_per_node": 2, "confidence": "MEDIUM", "color": "#dc2626", "radius": 6, "gmaps_link": "https://www.google.com/maps/@6.545919,2.357466,18z"}}, {"type": "Feature", "geometry": {"type": "Point", "coordinates": [2.3056572500000003, 6.46325185]}, "properties": {"zone_id": 75, "n_nodes": 1, "from_quartier": "Ouéga-Tokpa", "to_quartier": "Togba_Maria-Gléta", "n_supporting_pois": 2, "max_supporting_pois_per_node": 2, "confidence": "MEDIUM", "color": "#dc2626", "radius": 6, "gmaps_link": "https://www.google.com/maps/@6.463252,2.305657,18z"}}, {"type": "Feature", "geometry": {"type": "Point", "coordinates": [2.306292866666667, 6.463054466666667]}, "properties": {"zone_id": 76, "n_nodes": 1, "from_quartier": "Ouéga-Tokpa", "to_quartier": "Togba_Maria-Gléta", "n_supporting_pois": 2, "max_supporting_pois_per_node": 2, "confidence": "MEDIUM", "color": "#dc2626", "radius": 6, "gmaps_link": "https://www.google.com/maps/@6.463054,2.306293,18z"}}, {"type": "Feature", "geometry": {"type": "Point", "coordinates": [2.306044, 6.4625782]}, "properties": {"zone_id": 77, "n_nodes": 1, "from_quartier": "Ouéga-Tokpa", "to_quartier": "Togba_Maria-Gléta", "n_supporting_pois": 2, "max_supporting_pois_per_node": 2, "confidence": "MEDIUM", "color": "#dc2626", "radius": 6, "gmaps_link": "https://www.google.com/maps/@6.462578,2.306044,18z"}}, {"type": "Feature", "geometry": {"type": "Point", "coordinates": [2.30677785, 6.46290565]}, "properties": {"zone_id": 78, "n_nodes": 1, "from_quartier": "Ouéga-Tokpa", "to_quartier": "Togba_Maria-Gléta", "n_supporting_pois": 2, "max_supporting_pois_per_node": 2, "confidence": "MEDIUM", "color": "#dc2626", "radius": 6, "gmaps_link": "https://www.google.com/maps/@6.462906,2.306778,18z"}}]}