{"type": "FeatureCollection", "audit_only": false, "source": "OSM amenities (ODbL)", "n_zones": 94, "features": [{"type": "Feature", "geometry": {"type": "Point", "coordinates": [2.36477975, 6.38914555]}, "properties": {"from_quartier": "Kindonou", "to_quartier": "Mènontin", "n_pois": 2, "contradicting_pois_in_zone": 0, "n_affected_nodes": 18, "affected_road_length_m": 1310.8, "centroid_lat": 6.38914555, "centroid_lng": 2.36477975, "confidence": 0.451, "poi_names": ["Diamond Bank Agence Menontin", "Hôpital de Menontin"], "weighted_vote": 1.7, "zone_id": 0, "color": "#dc2626", "radius": 10.314, "gmaps_link": "https://www.google.com/maps/@6.389146,2.364780,18z", "poi_names_sample": ["Diamond Bank Agence Menontin", "Hôpital de Menontin"]}}, {"type": "Feature", "geometry": {"type": "Point", "coordinates": [2.30920345, 6.439697949999999]}, "properties": {"from_quartier": "Houèto", "to_quartier": "Togba_Maria-Gléta", "n_pois": 2, "contradicting_pois_in_zone": 2, "n_affected_nodes": 10, "affected_road_length_m": 565.9, "centroid_lat": 6.439697949999999, "centroid_lng": 2.30920345, "confidence": 0.33, "poi_names": ["Commissariat de Togba", "Commisariat de Togba"], "weighted_vote": 1.2, "zone_id": 1, "color": "#dc2626", "radius": 8.620000000000001, "gmaps_link": "https://www.google.com/maps/@6.439698,2.309203,18z", "poi_names_sample": ["Commissariat de Togba", "Commisariat de Togba"]}}, {"type": "Feature", "geometry": {"type": "Point", "coordinates": [2.3268691500000003, 6.43905]}, "properties": {"from_quartier": "Fifonsi\n", "to_quartier": "Agori", "n_pois": 2, "contradicting_pois_in_zone": 0, "n_affected_nodes": 9, "affected_road_length_m": 507.5, "centroid_lat": 6.43905, "centroid_lng": 2.3268691500000003, "confidence": 0.31, "poi_names": ["École Primaire Publique Agori Forêt", "Mosquée Agori forêt"], "weighted_vote": 1.7, "zone_id": 2, "color": "#dc2626", "radius": 8.34, "gmaps_link": "https://www.google.com/maps/@6.439050,2.326869,18z", "poi_names_sample": ["École Primaire Publique Agori Forêt", "Mosquée Agori forêt"]}}, {"type": "Feature", "geometry": {"type": "Point", "coordinates": [2.30601715, 6.462786449999999]}, "properties": {"from_quartier": "Ouéga-Tokpa", "to_quartier": "Togba_Maria-Gléta", "n_pois": 2, "contradicting_pois_in_zone": 0, "n_affected_nodes": 10, "affected_road_length_m": 504.5, "centroid_lat": 6.462786449999999, "centroid_lng": 2.30601715, "confidence": 0.309, "poi_names": ["Marché Togba", "Eglise céleste paroisse cité Jéhovah de Togba"], "weighted_vote": 1.2, "zone_id": 3, "color": "#dc2626", "radius": 8.326, "gmaps_link": "https://www.google.com/maps/@6.462786,2.306017,18z", "poi_names_sample": ["Marché Togba", "Eglise céleste paroisse cité Jéhovah de Togba"]}}, {"type": "Feature", "geometry": {"type": "Point", "coordinates": [2.3570884999999997, 6.545183550000001]}, "properties": {"from_quartier": "Agassa-Godomey", "to_quartier": "Gbétagbo", "n_pois": 2, "contradicting_pois_in_zone": 0, "n_affected_nodes": 10, "affected_road_length_m": 441.6, "centroid_lat": 6.545183550000001, "centroid_lng": 2.3570884999999997, "confidence": 0.285, "poi_names": ["TELLA GBETAGBO", "ABERME GBETAGBO"], "weighted_vote": 1.7, "zone_id": 4, "color": "#fb923c", "radius": 7.99, "gmaps_link": "https://www.google.com/maps/@6.545184,2.357088,18z", "poi_names_sample": ["TELLA GBETAGBO", "ABERME GBETAGBO"]}}, {"type": "Feature", "geometry": {"type": "Point", "coordinates": [2.4283113, 6.35934865]}, "properties": {"from_quartier": "Dota", "to_quartier": "Gbéto", "n_pois": 2, "contradicting_pois_in_zone": 1, "n_affected_nodes": 5, "affected_road_length_m": 381.1, "centroid_lat": 6.35934865, "centroid_lng": 2.4283113, "confidence": 0.26, "poi_names": ["École Maternelle Publique Gbéto Cotonou Lagune", "PASE C 7 SCOA GBETO"], "weighted_vote": 1.7, "zone_id": 5, "color": "#fb923c", "radius": 7.640000000000001, "gmaps_link": "https://www.google.com/maps/@6.359349,2.428311,18z", "poi_names_sample": ["École Maternelle Publique Gbéto Cotonou Lagune", "PASE C 7 SCOA GBETO"]}}, {"type": "Feature", "geometry": {"type": "Point", "coordinates": [2.44163175, 6.3906209]}, "properties": {"from_quartier": "Hlacômey", "to_quartier": "Agbatô", "n_pois": 2, "contradicting_pois_in_zone": 0, "n_affected_nodes": 8, "affected_road_length_m": 327.3, "centroid_lat": 6.3906209, "centroid_lng": 2.44163175, "confidence": 0.234, "poi_names": ["AGBATO CABZ", "Paroisse St. Joseph d'Agbato"], "weighted_vote": 1.7, "zone_id": 6, "color": "#fb923c", "radius": 7.276, "gmaps_link": "https://www.google.com/maps/@6.390621,2.441632,18z", "poi_names_sample": ["AGBATO CABZ", "Paroisse St. Joseph d'Agbato"]}}, {"type": "Feature", "geometry": {"type": "Point", "coordinates": [2.3561644, 6.4577846]}, "properties": {"from_quartier": "Agamandin", "to_quartier": "Agla-Petit-Château", "n_pois": 1, "contradicting_pois_in_zone": 0, "n_affected_nodes": 11, "affected_road_length_m": 680.6, "centroid_lat": 6.4577846, "centroid_lng": 2.3561644, "confidence": 0.211, "poi_names": ["Pharmacie Château d’eau"], "weighted_vote": 0.6, "zone_id": 7, "color": "#fb923c", "radius": 6.954, "gmaps_link": "https://www.google.com/maps/@6.457785,2.356164,18z", "poi_names_sample": ["Pharmacie Château d’eau"]}}, {"type": "Feature", "geometry": {"type": "Point", "coordinates": [2.3489161, 6.4728845]}, "properties": {"from_quartier": "Fandji\n", "to_quartier": "Espace-Saint", "n_pois": 1, "contradicting_pois_in_zone": 0, "n_affected_nodes": 10, "affected_road_length_m": 576.2, "centroid_lat": 6.4728845, "centroid_lng": 2.3489161, "confidence": 0.194, "poi_names": ["Espace Scyca"], "weighted_vote": 0.6, "zone_id": 8, "color": "#fb923c", "radius": 6.716, "gmaps_link": "https://www.google.com/maps/@6.472885,2.348916,18z", "poi_names_sample": ["Espace Scyca"]}}, {"type": "Feature", "geometry": {"type": "Point", "coordinates": [2.4279394, 6.366566949999999]}, "properties": {"from_quartier": "Sèdjro-Saint-Michel", "to_quartier": "Gbéto", "n_pois": 2, "contradicting_pois_in_zone": 8, "n_affected_nodes": 7, "affected_road_length_m": 249.9, "centroid_lat": 6.366566949999999, "centroid_lng": 2.4279394, "confidence": 0.191, "poi_names": ["Eglise Saint Michel Gbéto de Cotonou", "Eglise Saint Michel Gbéto de Cotonou"], "weighted_vote": 1.7, "zone_id": 9, "color": "#fb923c", "radius": 6.6739999999999995, "gmaps_link": "https://www.google.com/maps/@6.366567,2.427939,18z", "poi_names_sample": ["Eglise Saint Michel Gbéto de Cotonou", "Eglise Saint Michel Gbéto de Cotonou"]}}, {"type": "Feature", "geometry": {"type": "Point", "coordinates": [2.3726607, 6.3809501]}, "properties": {"from_quartier": "Agla-Petit-Château", "to_quartier": "Agla-Les-Pylônes", "n_pois": 1, "contradicting_pois_in_zone": 0, "n_affected_nodes": 9, "affected_road_length_m": 550.3, "centroid_lat": 6.3809501, "centroid_lng": 2.3726607, "confidence": 0.189, "poi_names": ["Les Pylônes"], "weighted_vote": 0.6, "zone_id": 10, "color": "#fb923c", "radius": 6.646, "gmaps_link": "https://www.google.com/maps/@6.380950,2.372661,18z", "poi_names_sample": ["Les Pylônes"]}}, {"type": "Feature", "geometry": {"type": "Point", "coordinates": [2.3652314, 6.4973275]}, "properties": {"from_quartier": "Houèkè-Gbo", "to_quartier": "Houèkè-Honou", "n_pois": 1, "contradicting_pois_in_zone": 0, "n_affected_nodes": 15, "affected_road_length_m": 492.8, "centroid_lat": 6.4973275, "centroid_lng": 2.3652314, "confidence": 0.178, "poi_names": ["EPP Houeke Honou"], "weighted_vote": 0.6, "zone_id": 11, "color": "#fb923c", "radius": 6.492, "gmaps_link": "https://www.google.com/maps/@6.497327,2.365231,18z", "poi_names_sample": ["EPP Houeke Honou"]}}, {"type": "Feature", "geometry": {"type": "Point", "coordinates": [2.3096717, 6.3894034]}, "properties": {"from_quartier": "Tokpa\n", "to_quartier": "Cocotomey", "n_pois": 1, "contradicting_pois_in_zone": 0, "n_affected_nodes": 8, "affected_road_length_m": 476.3, "centroid_lat": 6.3894034, "centroid_lng": 2.3096717, "confidence": 0.174, "poi_names": ["Mosquée Centrale de Cocotomey"], "weighted_vote": 0.85, "zone_id": 12, "color": "#fb923c", "radius": 6.436, "gmaps_link": "https://www.google.com/maps/@6.389403,2.309672,18z", "poi_names_sample": ["Mosquée Centrale de Cocotomey"]}}, {"type": "Feature", "geometry": {"type": "Point", "coordinates": [2.3615164, 6.3917506]}, "properties": {"from_quartier": "Kindonou", "to_quartier": "Mènontin", "n_pois": 1, "contradicting_pois_in_zone": 0, "n_affected_nodes": 7, "affected_road_length_m": 471.2, "centroid_lat": 6.3917506, "centroid_lng": 2.3615164, "confidence": 0.173, "poi_names": ["École Primaire Publique de Menontin"], "weighted_vote": 0.85, "zone_id": 13, "color": "#fb923c", "radius": 6.422, "gmaps_link": "https://www.google.com/maps/@6.391751,2.361516,18z", "poi_names_sample": ["École Primaire Publique de Menontin"]}}, {"type": "Feature", "geometry": {"type": "Point", "coordinates": [2.318485, 6.426195]}, "properties": {"from_quartier": "Tankpè-Tanmè", "to_quartier": "Cité-la-Victoire\n", "n_pois": 1, "contradicting_pois_in_zone": 0, "n_affected_nodes": 9, "affected_road_length_m": 448.4, "centroid_lat": 6.426195, "centroid_lng": 2.318485, "confidence": 0.168, "poi_names": ["Mission des intercesseurs évangélique pour la victoire"], "weighted_vote": 0.6, "zone_id": 14, "color": "#fb923c", "radius": 6.352, "gmaps_link": "https://www.google.com/maps/@6.426195,2.318485,18z", "poi_names_sample": ["Mission des intercesseurs évangélique pour la victoire"]}}, {"type": "Feature", "geometry": {"type": "Point", "coordinates": [2.3583851, 6.3577491]}, "properties": {"from_quartier": "Fidjrossè-Kpota", "to_quartier": "Akôgbato", "n_pois": 1, "contradicting_pois_in_zone": 0, "n_affected_nodes": 11, "affected_road_length_m": 448.5, "centroid_lat": 6.3577491, "centroid_lng": 2.3583851, "confidence": 0.168, "poi_names": ["Pharmacie Akogbato"], "weighted_vote": 0.85, "zone_id": 15, "color": "#fb923c", "radius": 6.352, "gmaps_link": "https://www.google.com/maps/@6.357749,2.358385,18z", "poi_names_sample": ["Pharmacie Akogbato"]}}, {"type": "Feature", "geometry": {"type": "Point", "coordinates": [2.4855495, 6.3667856]}, "properties": {"from_quartier": "Dandji-Hokanmè", "to_quartier": "Agla-Petit-Château", "n_pois": 1, "contradicting_pois_in_zone": 2, "n_affected_nodes": 8, "affected_road_length_m": 434.8, "centroid_lat": 6.3667856, "centroid_lng": 2.4855495, "confidence": 0.165, "poi_names": ["PASE DRL2 SONEB CHÂTEAU"], "weighted_vote": 0.6, "zone_id": 16, "color": "#fb923c", "radius": 6.3100000000000005, "gmaps_link": "https://www.google.com/maps/@6.366786,2.485549,18z", "poi_names_sample": ["PASE DRL2 SONEB CHÂTEAU"]}}, {"type": "Feature", "geometry": {"type": "Point", "coordinates": [2.3306942, 6.4272993]}, "properties": {"from_quartier": "Tankpè-Tanmè", "to_quartier": "Zogbadjè", "n_pois": 1, "contradicting_pois_in_zone": 0, "n_affected_nodes": 12, "affected_road_length_m": 414.7, "centroid_lat": 6.4272993, "centroid_lng": 2.3306942, "confidence": 0.16, "poi_names": ["ZOGBADJE ANIOU"], "weighted_vote": 0.85, "zone_id": 17, "color": "#fb923c", "radius": 6.24, "gmaps_link": "https://www.google.com/maps/@6.427299,2.330694,18z", "poi_names_sample": ["ZOGBADJE ANIOU"]}}, {"type": "Feature", "geometry": {"type": "Point", "coordinates": [2.4304849, 6.3899159]}, "properties": {"from_quartier": "Ahouansori-Towéta-Kpota", "to_quartier": "Ladji", "n_pois": 1, "contradicting_pois_in_zone": 1, "n_affected_nodes": 7, "affected_road_length_m": 409.9, "centroid_lat": 6.3899159, "centroid_lng": 2.4304849, "confidence": 0.159, "poi_names": ["Église protestante de ladji"], "weighted_vote": 0.85, "zone_id": 18, "color": "#fb923c", "radius": 6.226, "gmaps_link": "https://www.google.com/maps/@6.389916,2.430485,18z", "poi_names_sample": ["Église protestante de ladji"]}}, {"type": "Feature", "geometry": {"type": "Point", "coordinates": [2.3015722, 6.4350829]}, "properties": {"from_quartier": "Houèto", "to_quartier": "Togba_Maria-Gléta", "n_pois": 1, "contradicting_pois_in_zone": 0, "n_affected_nodes": 10, "affected_road_length_m": 395.7, "centroid_lat": 6.4350829, "centroid_lng": 2.3015722, "confidence": 0.155, "poi_names": ["Commissariat de Togba"], "weighted_vote": 0.6, "zone_id": 19, "color": "#fb923c", "radius": 6.17, "gmaps_link": "https://www.google.com/maps/@6.435083,2.301572,18z", "poi_names_sample": ["Commissariat de Togba"]}}, {"type": "Feature", "geometry": {"type": "Point", "coordinates": [2.3106453, 6.4371096]}, "properties": {"from_quartier": "Tankpê-Yoho", "to_quartier": "Houèto", "n_pois": 1, "contradicting_pois_in_zone": 0, "n_affected_nodes": 10, "affected_road_length_m": 397.4, "centroid_lat": 6.4371096, "centroid_lng": 2.3106453, "confidence": 0.155, "poi_names": ["EPMB Cité de Lumière de Houêto"], "weighted_vote": 0.85, "zone_id": 20, "color": "#fb923c", "radius": 6.17, "gmaps_link": "https://www.google.com/maps/@6.437110,2.310645,18z", "poi_names_sample": ["EPMB Cité de Lumière de Houêto"]}}, {"type": "Feature", "geometry": {"type": "Point", "coordinates": [2.3407759, 6.3741733]}, "properties": {"from_quartier": "Godomey-N'Gbèho", "to_quartier": "Fignonhou\n", "n_pois": 1, "contradicting_pois_in_zone": 0, "n_affected_nodes": 10, "affected_road_length_m": 391.9, "centroid_lat": 6.3741733, "centroid_lng": 2.3407759, "confidence": 0.154, "poi_names": ["Pharmacie Godomey-Fignonhou"], "weighted_vote": 0.85, "zone_id": 21, "color": "#fb923c", "radius": 6.156000000000001, "gmaps_link": "https://www.google.com/maps/@6.374173,2.340776,18z", "poi_names_sample": ["Pharmacie Godomey-Fignonhou"]}}, {"type": "Feature", "geometry": {"type": "Point", "coordinates": [2.3070823, 6.3914236]}, "properties": {"from_quartier": "Tokpa\n", "to_quartier": "Cocotomey", "n_pois": 1, "contradicting_pois_in_zone": 0, "n_affected_nodes": 7, "affected_road_length_m": 386.5, "centroid_lat": 6.3914236, "centroid_lng": 2.3070823, "confidence": 0.153, "poi_names": ["Mission des Ambassadeurs pour Christ de Cocotomey"], "weighted_vote": 0.85, "zone_id": 22, "color": "#fb923c", "radius": 6.1419999999999995, "gmaps_link": "https://www.google.com/maps/@6.391424,2.307082,18z", "poi_names_sample": ["Mission des Ambassadeurs pour Christ de Cocotomey"]}}, {"type": "Feature", "geometry": {"type": "Point", "coordinates": [2.3170308, 6.4581063]}, "properties": {"from_quartier": "Ahossougbéta", "to_quartier": "Tokan", "n_pois": 1, "contradicting_pois_in_zone": 0, "n_affected_nodes": 8, "affected_road_length_m": 358.9, "centroid_lat": 6.4581063, "centroid_lng": 2.3170308, "confidence": 0.145, "poi_names": ["Marché de Tokan"], "weighted_vote": 0.85, "zone_id": 23, "color": "#fbbf24", "radius": 6.029999999999999, "gmaps_link": "https://www.google.com/maps/@6.458106,2.317031,18z", "poi_names_sample": ["Marché de Tokan"]}}, {"type": "Feature", "geometry": {"type": "Point", "coordinates": [2.3519159, 6.4493809]}, "properties": {"from_quartier": "Agori", "to_quartier": "Cité-la-Victoire\n", "n_pois": 1, "contradicting_pois_in_zone": 0, "n_affected_nodes": 11, "affected_road_length_m": 350.2, "centroid_lat": 6.4493809, "centroid_lng": 2.3519159, "confidence": 0.143, "poi_names": ["Restaurant La Victoire"], "weighted_vote": 0.6, "zone_id": 24, "color": "#fbbf24", "radius": 6.002, "gmaps_link": "https://www.google.com/maps/@6.449381,2.351916,18z", "poi_names_sample": ["Restaurant La Victoire"]}}, {"type": "Feature", "geometry": {"type": "Point", "coordinates": [2.3409913, 6.4309462]}, "properties": {"from_quartier": "Tchinangbégbo\n", "to_quartier": "Espace-Saint", "n_pois": 1, "contradicting_pois_in_zone": 0, "n_affected_nodes": 9, "affected_road_length_m": 346.9, "centroid_lat": 6.4309462, "centroid_lng": 2.3409913, "confidence": 0.142, "poi_names": ["Espace Alomasunsun"], "weighted_vote": 0.6, "zone_id": 25, "color": "#fbbf24", "radius": 5.9879999999999995, "gmaps_link": "https://www.google.com/maps/@6.430946,2.340991,18z", "poi_names_sample": ["Espace Alomasunsun"]}}, {"type": "Feature", "geometry": {"type": "Point", "coordinates": [2.3947911, 6.391435]}, "properties": {"from_quartier": "Yénawa-Fifadji", "to_quartier": "Zogbo", "n_pois": 1, "contradicting_pois_in_zone": 0, "n_affected_nodes": 7, "affected_road_length_m": 332.6, "centroid_lat": 6.391435, "centroid_lng": 2.3947911, "confidence": 0.138, "poi_names": ["Centre d'éducation générale de Zogbo"], "weighted_vote": 0.85, "zone_id": 26, "color": "#fbbf24", "radius": 5.932, "gmaps_link": "https://www.google.com/maps/@6.391435,2.394791,18z", "poi_names_sample": ["Centre d'éducation générale de Zogbo"]}}, {"type": "Feature", "geometry": {"type": "Point", "coordinates": [2.3920058, 6.3799665]}, "properties": {"from_quartier": "Missogbé", "to_quartier": "Védokô", "n_pois": 1, "contradicting_pois_in_zone": 0, "n_affected_nodes": 6, "affected_road_length_m": 328.5, "centroid_lat": 6.3799665, "centroid_lng": 2.3920058, "confidence": 0.137, "poi_names": ["Église baptiste de Vêdoko"], "weighted_vote": 0.85, "zone_id": 27, "color": "#fbbf24", "radius": 5.918, "gmaps_link": "https://www.google.com/maps/@6.379967,2.392006,18z", "poi_names_sample": ["Église baptiste de Vêdoko"]}}, {"type": "Feature", "geometry": {"type": "Point", "coordinates": [2.2659583, 6.407175]}, "properties": {"from_quartier": "Sogan", "to_quartier": "Hêvié", "n_pois": 1, "contradicting_pois_in_zone": 0, "n_affected_nodes": 8, "affected_road_length_m": 330.7, "centroid_lat": 6.407175, "centroid_lng": 2.2659583, "confidence": 0.137, "poi_names": ["Pharmacie Hêvié"], "weighted_vote": 0.85, "zone_id": 28, "color": "#fbbf24", "radius": 5.918, "gmaps_link": "https://www.google.com/maps/@6.407175,2.265958,18z", "poi_names_sample": ["Pharmacie Hêvié"]}}, {"type": "Feature", "geometry": {"type": "Point", "coordinates": [2.4853303, 6.3653818]}, "properties": {"from_quartier": "Dandji-Hokanmè", "to_quartier": "Tokplégbé", "n_pois": 1, "contradicting_pois_in_zone": 1, "n_affected_nodes": 7, "affected_road_length_m": 325.3, "centroid_lat": 6.3653818, "centroid_lng": 2.4853303, "confidence": 0.136, "poi_names": ["Commissariat de Tokplégbé"], "weighted_vote": 0.85, "zone_id": 29, "color": "#fbbf24", "radius": 5.904, "gmaps_link": "https://www.google.com/maps/@6.365382,2.485330,18z", "poi_names_sample": ["Commissariat de Tokplégbé"]}}, {"type": "Feature", "geometry": {"type": "Point", "coordinates": [2.3073405, 6.5050002]}, "properties": {"from_quartier": "Kansounkpa", "to_quartier": "Drabo", "n_pois": 1, "contradicting_pois_in_zone": 0, "n_affected_nodes": 12, "affected_road_length_m": 317.5, "centroid_lat": 6.5050002, "centroid_lng": 2.3073405, "confidence": 0.133, "poi_names": ["ECOLE PRIMAIRE PUBLIQUE DE DRABO"], "weighted_vote": 0.85, "zone_id": 30, "color": "#fbbf24", "radius": 5.862, "gmaps_link": "https://www.google.com/maps/@6.505000,2.307341,18z", "poi_names_sample": ["ECOLE PRIMAIRE PUBLIQUE DE DRABO"]}}, {"type": "Feature", "geometry": {"type": "Point", "coordinates": [2.4850068, 6.3683595]}, "properties": {"from_quartier": "Dandji-Hokanmè", "to_quartier": "Tokplégbé", "n_pois": 1, "contradicting_pois_in_zone": 1, "n_affected_nodes": 5, "affected_road_length_m": 316.6, "centroid_lat": 6.3683595, "centroid_lng": 2.4850068, "confidence": 0.133, "poi_names": ["Marché Moderne de Tokplègbè"], "weighted_vote": 0.85, "zone_id": 31, "color": "#fbbf24", "radius": 5.862, "gmaps_link": "https://www.google.com/maps/@6.368360,2.485007,18z", "poi_names_sample": ["Marché Moderne de Tokplègbè"]}}, {"type": "Feature", "geometry": {"type": "Point", "coordinates": [2.3429733, 6.451813]}, "properties": {"from_quartier": "Aïtchédji\n", "to_quartier": "Cité-la-Victoire\n", "n_pois": 1, "contradicting_pois_in_zone": 0, "n_affected_nodes": 10, "affected_road_length_m": 306.2, "centroid_lat": 6.451813, "centroid_lng": 2.3429733, "confidence": 0.13, "poi_names": ["Complexe Scolaire Dieu de Victoire"], "weighted_vote": 0.6, "zone_id": 32, "color": "#fbbf24", "radius": 5.82, "gmaps_link": "https://www.google.com/maps/@6.451813,2.342973,18z", "poi_names_sample": ["Complexe Scolaire Dieu de Victoire"]}}, {"type": "Feature", "geometry": {"type": "Point", "coordinates": [2.3947654, 6.38223]}, "properties": {"from_quartier": "Missogbé", "to_quartier": "Védokô", "n_pois": 1, "contradicting_pois_in_zone": 0, "n_affected_nodes": 5, "affected_road_length_m": 300.0, "centroid_lat": 6.38223, "centroid_lng": 2.3947654, "confidence": 0.128, "poi_names": ["Vedoko Esther"], "weighted_vote": 0.85, "zone_id": 33, "color": "#fbbf24", "radius": 5.792, "gmaps_link": "https://www.google.com/maps/@6.382230,2.394765,18z", "poi_names_sample": ["Vedoko Esther"]}}, {"type": "Feature", "geometry": {"type": "Point", "coordinates": [2.3439885, 6.5418553]}, "properties": {"from_quartier": "Gbétagbo", "to_quartier": "Agla-Les-Pylônes", "n_pois": 1, "contradicting_pois_in_zone": 0, "n_affected_nodes": 10, "affected_road_length_m": 282.8, "centroid_lat": 6.5418553, "centroid_lng": 2.3439885, "confidence": 0.122, "poi_names": ["Ifedon des Pylones"], "weighted_vote": 0.6, "zone_id": 34, "color": "#fbbf24", "radius": 5.708, "gmaps_link": "https://www.google.com/maps/@6.541855,2.343989,18z", "poi_names_sample": ["Ifedon des Pylones"]}}, {"type": "Feature", "geometry": {"type": "Point", "coordinates": [2.4358052, 6.3518259]}, "properties": {"from_quartier": "Xwlacôdji-Kpodji", "to_quartier": "Xwlacôdji-Plage", "n_pois": 1, "contradicting_pois_in_zone": 0, "n_affected_nodes": 4, "affected_road_length_m": 259.7, "centroid_lat": 6.3518259, "centroid_lng": 2.4358052, "confidence": 0.115, "poi_names": ["Azalaï Hôtel de la Plage"], "weighted_vote": 0.6, "zone_id": 35, "color": "#fbbf24", "radius": 5.61, "gmaps_link": "https://www.google.com/maps/@6.351826,2.435805,18z", "poi_names_sample": ["Azalaï Hôtel de la Plage"]}}, {"type": "Feature", "geometry": {"type": "Point", "coordinates": [2.4651303, 6.3674559]}, "properties": {"from_quartier": "Nvènamèdé", "to_quartier": "Akpakpa-Dodomè", "n_pois": 1, "contradicting_pois_in_zone": 0, "n_affected_nodes": 10, "affected_road_length_m": 254.0, "centroid_lat": 6.3674559, "centroid_lng": 2.4651303, "confidence": 0.113, "poi_names": ["Super U Akpakpa"], "weighted_vote": 0.6, "zone_id": 36, "color": "#fbbf24", "radius": 5.582, "gmaps_link": "https://www.google.com/maps/@6.367456,2.465130,18z", "poi_names_sample": ["Super U Akpakpa"]}}, {"type": "Feature", "geometry": {"type": "Point", "coordinates": [2.2763793, 6.455982]}, "properties": {"from_quartier": "Dessato\n", "to_quartier": "Ouèdo", "n_pois": 1, "contradicting_pois_in_zone": 0, "n_affected_nodes": 10, "affected_road_length_m": 253.7, "centroid_lat": 6.455982, "centroid_lng": 2.2763793, "confidence": 0.113, "poi_names": ["Pharmacie Les Graces Divines de Ouedo"], "weighted_vote": 0.85, "zone_id": 37, "color": "#fbbf24", "radius": 5.582, "gmaps_link": "https://www.google.com/maps/@6.455982,2.276379,18z", "poi_names_sample": ["Pharmacie Les Graces Divines de Ouedo"]}}, {"type": "Feature", "geometry": {"type": "Point", "coordinates": [2.3000459, 6.3978088]}, "properties": {"from_quartier": "Sodo\n", "to_quartier": "Cocotomey", "n_pois": 1, "contradicting_pois_in_zone": 0, "n_affected_nodes": 6, "affected_road_length_m": 248.3, "centroid_lat": 6.3978088, "centroid_lng": 2.3000459, "confidence": 0.111, "poi_names": ["CEG 1 de Cocotomey"], "weighted_vote": 0.85, "zone_id": 38, "color": "#fbbf24", "radius": 5.554, "gmaps_link": "https://www.google.com/maps/@6.397809,2.300046,18z", "poi_names_sample": ["CEG 1 de Cocotomey"]}}, {"type": "Feature", "geometry": {"type": "Point", "coordinates": [2.3513584, 6.493293]}, "properties": {"from_quartier": "Zopah-Akassato", "to_quartier": "Kpodji-Les-Monts", "n_pois": 1, "contradicting_pois_in_zone": 0, "n_affected_nodes": 4, "affected_road_length_m": 244.6, "centroid_lat": 6.493293, "centroid_lng": 2.3513584, "confidence": 0.11, "poi_names": ["Monts oliviers lifes shop"], "weighted_vote": 0.6, "zone_id": 39, "color": "#fbbf24", "radius": 5.54, "gmaps_link": "https://www.google.com/maps/@6.493293,2.351358,18z", "poi_names_sample": ["Monts oliviers lifes shop"]}}, {"type": "Feature", "geometry": {"type": "Point", "coordinates": [2.3392809, 6.4348373]}, "properties": {"from_quartier": "Tchinangbégbo\n", "to_quartier": "Zogbadjè", "n_pois": 1, "contradicting_pois_in_zone": 0, "n_affected_nodes": 4, "affected_road_length_m": 241.1, "centroid_lat": 6.4348373, "centroid_lng": 2.3392809, "confidence": 0.108, "poi_names": ["École Primaire Publique Zogbadje"], "weighted_vote": 0.85, "zone_id": 40, "color": "#fbbf24", "radius": 5.5120000000000005, "gmaps_link": "https://www.google.com/maps/@6.434837,2.339281,18z", "poi_names_sample": ["École Primaire Publique Zogbadje"]}}, {"type": "Feature", "geometry": {"type": "Point", "coordinates": [2.353114, 6.3768691]}, "properties": {"from_quartier": "Plateau\n", "to_quartier": "Agla-Akplomey", "n_pois": 1, "contradicting_pois_in_zone": 0, "n_affected_nodes": 6, "affected_road_length_m": 230.6, "centroid_lat": 6.3768691, "centroid_lng": 2.353114, "confidence": 0.105, "poi_names": ["Eglise catholique saint Charles lwanga Agla Akplomey"], "weighted_vote": 0.6, "zone_id": 41, "color": "#fbbf24", "radius": 5.47, "gmaps_link": "https://www.google.com/maps/@6.376869,2.353114,18z", "poi_names_sample": ["Eglise catholique saint Charles lwanga Agla Akplomey"]}}, {"type": "Feature", "geometry": {"type": "Point", "coordinates": [2.4258992, 6.387732]}, "properties": {"from_quartier": "Ahouansori-Towéta", "to_quartier": "Avlékété-Joncquet", "n_pois": 1, "contradicting_pois_in_zone": 0, "n_affected_nodes": 7, "affected_road_length_m": 227.3, "centroid_lat": 6.387732, "centroid_lng": 2.4258992, "confidence": 0.104, "poi_names": ["Avlekete Honto"], "weighted_vote": 0.6, "zone_id": 42, "color": "#fbbf24", "radius": 5.4559999999999995, "gmaps_link": "https://www.google.com/maps/@6.387732,2.425899,18z", "poi_names_sample": ["Avlekete Honto"]}}, {"type": "Feature", "geometry": {"type": "Point", "coordinates": [2.3352245, 6.4018911]}, "properties": {"from_quartier": "Djoukpa-Togoudo\n", "to_quartier": "Sèdjro-Saint-Michel", "n_pois": 1, "contradicting_pois_in_zone": 0, "n_affected_nodes": 5, "affected_road_length_m": 223.5, "centroid_lat": 6.4018911, "centroid_lng": 2.3352245, "confidence": 0.102, "poi_names": ["Saint Michel de Togoudo"], "weighted_vote": 0.6, "zone_id": 43, "color": "#fbbf24", "radius": 5.428, "gmaps_link": "https://www.google.com/maps/@6.401891,2.335224,18z", "poi_names_sample": ["Saint Michel de Togoudo"]}}, {"type": "Feature", "geometry": {"type": "Point", "coordinates": [2.3268054, 6.4836965]}, "properties": {"from_quartier": "Cité-les-Palmiers\n", "to_quartier": "Sèdami", "n_pois": 1, "contradicting_pois_in_zone": 0, "n_affected_nodes": 9, "affected_road_length_m": 220.9, "centroid_lat": 6.4836965, "centroid_lng": 2.3268054, "confidence": 0.101, "poi_names": ["Pharmacie SEDAMI"], "weighted_vote": 0.85, "zone_id": 44, "color": "#fbbf24", "radius": 5.414, "gmaps_link": "https://www.google.com/maps/@6.483696,2.326805,18z", "poi_names_sample": ["Pharmacie SEDAMI"]}}, {"type": "Feature", "geometry": {"type": "Point", "coordinates": [2.461674, 6.358253]}, "properties": {"from_quartier": "Fifadji-Houto (Jak)", "to_quartier": "Alédjo\n", "n_pois": 1, "contradicting_pois_in_zone": 0, "n_affected_nodes": 6, "affected_road_length_m": 218.7, "centroid_lat": 6.358253, "centroid_lng": 2.461674, "confidence": 0.1, "poi_names": ["PASE DRL2 C 188 PLM ALEDJO"], "weighted_vote": 0.85, "zone_id": 45, "color": "#fbbf24", "radius": 5.4, "gmaps_link": "https://www.google.com/maps/@6.358253,2.461674,18z", "poi_names_sample": ["PASE DRL2 C 188 PLM ALEDJO"]}}, {"type": "Feature", "geometry": {"type": "Point", "coordinates": [2.4108333, 6.3777975]}, "properties": {"from_quartier": "Houéhoun", "to_quartier": "Espace-Saint", "n_pois": 1, "contradicting_pois_in_zone": 0, "n_affected_nodes": 4, "affected_road_length_m": 218.1, "centroid_lat": 6.3777975, "centroid_lng": 2.4108333, "confidence": 0.1, "poi_names": ["Espace Ifedu"], "weighted_vote": 0.6, "zone_id": 46, "color": "#fbbf24", "radius": 5.4, "gmaps_link": "https://www.google.com/maps/@6.377797,2.410833,18z", "poi_names_sample": ["Espace Ifedu"]}}, {"type": "Feature", "geometry": {"type": "Point", "coordinates": [2.4220937, 6.3613121]}, "properties": {"from_quartier": "Todoté", "to_quartier": "Agla-Petit-Château", "n_pois": 1, "contradicting_pois_in_zone": 0, "n_affected_nodes": 6, "affected_road_length_m": 209.2, "centroid_lat": 6.3613121, "centroid_lng": 2.4220937, "confidence": 0.097, "poi_names": ["Station Château d'Eau Sonacop"], "weighted_vote": 0.6, "zone_id": 47, "color": "#fbbf24", "radius": 5.3580000000000005, "gmaps_link": "https://www.google.com/maps/@6.361312,2.422094,18z", "poi_names_sample": ["Station Château d'Eau Sonacop"]}}, {"type": "Feature", "geometry": {"type": "Point", "coordinates": [2.3342147, 6.4616756]}, "properties": {"from_quartier": "Aïtchédji\n", "to_quartier": "Cité-la-Victoire\n", "n_pois": 1, "contradicting_pois_in_zone": 0, "n_affected_nodes": 5, "affected_road_length_m": 201.7, "centroid_lat": 6.4616756, "centroid_lng": 2.3342147, "confidence": 0.094, "poi_names": ["Complexe scolaire Saint Joseph de la victoire"], "weighted_vote": 0.6, "zone_id": 48, "color": "#fbbf24", "radius": 5.316, "gmaps_link": "https://www.google.com/maps/@6.461676,2.334215,18z", "poi_names_sample": ["Complexe scolaire Saint Joseph de la victoire"]}}, {"type": "Feature", "geometry": {"type": "Point", "coordinates": [2.3824429, 6.3886677]}, "properties": {"from_quartier": "Zogbohouè", "to_quartier": "Zogbo", "n_pois": 1, "contradicting_pois_in_zone": 1, "n_affected_nodes": 5, "affected_road_length_m": 200.8, "centroid_lat": 6.3886677, "centroid_lng": 2.3824429, "confidence": 0.094, "poi_names": ["Eglise Baptiste du Benin Temple de Zogbo"], "weighted_vote": 0.85, "zone_id": 49, "color": "#fbbf24", "radius": 5.316, "gmaps_link": "https://www.google.com/maps/@6.388668,2.382443,18z", "poi_names_sample": ["Eglise Baptiste du Benin Temple de Zogbo"]}}, {"type": "Feature", "geometry": {"type": "Point", "coordinates": [2.4300091, 6.3602719]}, "properties": {"from_quartier": "Dota", "to_quartier": "Guinkômey", "n_pois": 1, "contradicting_pois_in_zone": 1, "n_affected_nodes": 3, "affected_road_length_m": 199.2, "centroid_lat": 6.3602719, "centroid_lng": 2.4300091, "confidence": 0.093, "poi_names": ["Tchiep Guinkomey"], "weighted_vote": 0.85, "zone_id": 50, "color": "#fbbf24", "radius": 5.302, "gmaps_link": "https://www.google.com/maps/@6.360272,2.430009,18z", "poi_names_sample": ["Tchiep Guinkomey"]}}, {"type": "Feature", "geometry": {"type": "Point", "coordinates": [2.3554361, 6.4553439]}, "properties": {"from_quartier": "Agamandin", "to_quartier": "Sèdjro-Saint-Michel", "n_pois": 1, "contradicting_pois_in_zone": 0, "n_affected_nodes": 9, "affected_road_length_m": 191.0, "centroid_lat": 6.4553439, "centroid_lng": 2.3554361, "confidence": 0.09, "poi_names": ["Collège Jean Michel le Faucon"], "weighted_vote": 0.6, "zone_id": 51, "color": "#fbbf24", "radius": 5.26, "gmaps_link": "https://www.google.com/maps/@6.455344,2.355436,18z", "poi_names_sample": ["Collège Jean Michel le Faucon"]}}, {"type": "Feature", "geometry": {"type": "Point", "coordinates": [2.4759888, 6.3757868]}, "properties": {"from_quartier": "Avotrou-Houézèkomè", "to_quartier": "Akpakpa-Dodomè", "n_pois": 1, "contradicting_pois_in_zone": 0, "n_affected_nodes": 5, "affected_road_length_m": 191.4, "centroid_lat": 6.3757868, "centroid_lng": 2.4759888, "confidence": 0.09, "poi_names": ["AKPATA AKPAKPA"], "weighted_vote": 0.6, "zone_id": 52, "color": "#fbbf24", "radius": 5.26, "gmaps_link": "https://www.google.com/maps/@6.375787,2.475989,18z", "poi_names_sample": ["AKPATA AKPAKPA"]}}, {"type": "Feature", "geometry": {"type": "Point", "coordinates": [2.3351096, 6.3833491]}, "properties": {"from_quartier": "Ounvènoumèdé\n", "to_quartier": "Espace-Saint", "n_pois": 1, "contradicting_pois_in_zone": 0, "n_affected_nodes": 5, "affected_road_length_m": 182.8, "centroid_lat": 6.3833491, "centroid_lng": 2.3351096, "confidence": 0.087, "poi_names": ["Pharmacie Espace Santé"], "weighted_vote": 0.6, "zone_id": 53, "color": "#fbbf24", "radius": 5.218, "gmaps_link": "https://www.google.com/maps/@6.383349,2.335110,18z", "poi_names_sample": ["Pharmacie Espace Santé"]}}, {"type": "Feature", "geometry": {"type": "Point", "coordinates": [2.3833827, 6.3803878]}, "properties": {"from_quartier": "Védokô", "to_quartier": "Sètôvi", "n_pois": 1, "contradicting_pois_in_zone": 0, "n_affected_nodes": 6, "affected_road_length_m": 184.1, "centroid_lat": 6.3803878, "centroid_lng": 2.3833827, "confidence": 0.087, "poi_names": ["Église Catholique de Sètovi"], "weighted_vote": 0.85, "zone_id": 54, "color": "#fbbf24", "radius": 5.218, "gmaps_link": "https://www.google.com/maps/@6.380388,2.383383,18z", "poi_names_sample": ["Église Catholique de Sètovi"]}}, {"type": "Feature", "geometry": {"type": "Point", "coordinates": [2.3143588, 6.4622061]}, "properties": {"from_quartier": "Ahossougbéta", "to_quartier": "Togba_Maria-Gléta", "n_pois": 1, "contradicting_pois_in_zone": 0, "n_affected_nodes": 5, "affected_road_length_m": 170.4, "centroid_lat": 6.4622061, "centroid_lng": 2.3143588, "confidence": 0.082, "poi_names": ["Commissariat d’arrondissement de Togba"], "weighted_vote": 0.6, "zone_id": 55, "color": "#fbbf24", "radius": 5.148, "gmaps_link": "https://www.google.com/maps/@6.462206,2.314359,18z", "poi_names_sample": ["Commissariat d’arrondissement de Togba"]}}, {"type": "Feature", "geometry": {"type": "Point", "coordinates": [2.3879721, 6.3900911]}, "properties": {"from_quartier": "Agounvocôdji", "to_quartier": "Zogbo", "n_pois": 1, "contradicting_pois_in_zone": 0, "n_affected_nodes": 8, "affected_road_length_m": 165.0, "centroid_lat": 6.3900911, "centroid_lng": 2.3879721, "confidence": 0.08, "poi_names": ["pharmacie Zogbo"], "weighted_vote": 0.85, "zone_id": 56, "color": "#fbbf24", "radius": 5.12, "gmaps_link": "https://www.google.com/maps/@6.390091,2.387972,18z", "poi_names_sample": ["pharmacie Zogbo"]}}, {"type": "Feature", "geometry": {"type": "Point", "coordinates": [2.3371333, 6.4254833]}, "properties": {"from_quartier": "Zogbadjè", "to_quartier": "Cité-les-Palmiers\n", "n_pois": 1, "contradicting_pois_in_zone": 3, "n_affected_nodes": 4, "affected_road_length_m": 164.3, "centroid_lat": 6.4254833, "centroid_lng": 2.3371333, "confidence": 0.079, "poi_names": ["Alimentation générale \" les palmiers"], "weighted_vote": 0.6, "zone_id": 57, "color": "#fbbf24", "radius": 5.106, "gmaps_link": "https://www.google.com/maps/@6.425483,2.337133,18z", "poi_names_sample": ["Alimentation générale \" les palmiers"]}}, {"type": "Feature", "geometry": {"type": "Point", "coordinates": [2.4271065, 6.3651395]}, "properties": {"from_quartier": "Mifongou", "to_quartier": "Sèdjro-Saint-Michel", "n_pois": 1, "contradicting_pois_in_zone": 3, "n_affected_nodes": 4, "affected_road_length_m": 160.9, "centroid_lat": 6.3651395, "centroid_lng": 2.4271065, "confidence": 0.078, "poi_names": ["SGBBE agence saint michel"], "weighted_vote": 0.6, "zone_id": 58, "color": "#fbbf24", "radius": 5.0920000000000005, "gmaps_link": "https://www.google.com/maps/@6.365139,2.427106,18z", "poi_names_sample": ["SGBBE agence saint michel"]}}, {"type": "Feature", "geometry": {"type": "Point", "coordinates": [2.3171898, 6.4896334]}, "properties": {"from_quartier": "Kansounkpa", "to_quartier": "Zoundja\n", "n_pois": 1, "contradicting_pois_in_zone": 0, "n_affected_nodes": 5, "affected_road_length_m": 150.9, "centroid_lat": 6.4896334, "centroid_lng": 2.3171898, "confidence": 0.074, "poi_names": ["ZOUNDJA MON AMOUR"], "weighted_vote": 0.85, "zone_id": 59, "color": "#fbbf24", "radius": 5.036, "gmaps_link": "https://www.google.com/maps/@6.489633,2.317190,18z", "poi_names_sample": ["ZOUNDJA MON AMOUR"]}}, {"type": "Feature", "geometry": {"type": "Point", "coordinates": [2.3040236, 6.457779]}, "properties": {"from_quartier": "Somè", "to_quartier": "Togba_Maria-Gléta", "n_pois": 1, "contradicting_pois_in_zone": 0, "n_affected_nodes": 7, "affected_road_length_m": 146.9, "centroid_lat": 6.457779, "centroid_lng": 2.3040236, "confidence": 0.072, "poi_names": ["Complexe scolaire de Togba"], "weighted_vote": 0.6, "zone_id": 60, "color": "#fbbf24", "radius": 5.008, "gmaps_link": "https://www.google.com/maps/@6.457779,2.304024,18z", "poi_names_sample": ["Complexe scolaire de Togba"]}}, {"type": "Feature", "geometry": {"type": "Point", "coordinates": [2.3061368, 6.347664]}, "properties": {"from_quartier": "Togbin-Fandji", "to_quartier": "Xwlacôdji-Plage", "n_pois": 1, "contradicting_pois_in_zone": 0, "n_affected_nodes": 3, "affected_road_length_m": 141.1, "centroid_lat": 6.347664, "centroid_lng": 2.3061368, "confidence": 0.07, "poi_names": ["code bar plage"], "weighted_vote": 0.6, "zone_id": 61, "color": "#fbbf24", "radius": 4.98, "gmaps_link": "https://www.google.com/maps/@6.347664,2.306137,18z", "poi_names_sample": ["code bar plage"]}}, {"type": "Feature", "geometry": {"type": "Point", "coordinates": [2.3876348, 6.3766759]}, "properties": {"from_quartier": "Houéyihô-Tannou", "to_quartier": "Ahogbohoué-Cité-Eucharistie", "n_pois": 1, "contradicting_pois_in_zone": 0, "n_affected_nodes": 3, "affected_road_length_m": 141.5, "centroid_lat": 6.3766759, "centroid_lng": 2.3876348, "confidence": 0.07, "poi_names": ["Paroisse Jésus Eucharistie"], "weighted_vote": 0.6, "zone_id": 62, "color": "#fbbf24", "radius": 4.98, "gmaps_link": "https://www.google.com/maps/@6.376676,2.387635,18z", "poi_names_sample": ["Paroisse Jésus Eucharistie"]}}, {"type": "Feature", "geometry": {"type": "Point", "coordinates": [2.4440343, 6.3784095]}, "properties": {"from_quartier": "Midombo", "to_quartier": "Akpakpa-Dodomè", "n_pois": 1, "contradicting_pois_in_zone": 0, "n_affected_nodes": 4, "affected_road_length_m": 141.5, "centroid_lat": 6.3784095, "centroid_lng": 2.4440343, "confidence": 0.07, "poi_names": ["Complexe Scolaire Akpakpa Nord"], "weighted_vote": 0.6, "zone_id": 63, "color": "#fbbf24", "radius": 4.98, "gmaps_link": "https://www.google.com/maps/@6.378410,2.444034,18z", "poi_names_sample": ["Complexe Scolaire Akpakpa Nord"]}}, {"type": "Feature", "geometry": {"type": "Point", "coordinates": [2.426784, 6.3626784]}, "properties": {"from_quartier": "Mifongou", "to_quartier": "Gbéto", "n_pois": 1, "contradicting_pois_in_zone": 1, "n_affected_nodes": 3, "affected_road_length_m": 139.0, "centroid_lat": 6.3626784, "centroid_lng": 2.426784, "confidence": 0.069, "poi_names": ["PASE C 109 SCOA GBETO"], "weighted_vote": 0.85, "zone_id": 64, "color": "#fbbf24", "radius": 4.966, "gmaps_link": "https://www.google.com/maps/@6.362678,2.426784,18z", "poi_names_sample": ["PASE C 109 SCOA GBETO"]}}, {"type": "Feature", "geometry": {"type": "Point", "coordinates": [2.4417953, 6.3774115]}, "properties": {"from_quartier": "Kpankpan", "to_quartier": "Midombo", "n_pois": 1, "contradicting_pois_in_zone": 0, "n_affected_nodes": 3, "affected_road_length_m": 137.0, "centroid_lat": 6.3774115, "centroid_lng": 2.4417953, "confidence": 0.068, "poi_names": ["Pharmacie Midombo"], "weighted_vote": 0.85, "zone_id": 65, "color": "#fbbf24", "radius": 4.952, "gmaps_link": "https://www.google.com/maps/@6.377412,2.441795,18z", "poi_names_sample": ["Pharmacie Midombo"]}}, {"type": "Feature", "geometry": {"type": "Point", "coordinates": [2.4340309, 6.3591586]}, "properties": {"from_quartier": "Guinkômey", "to_quartier": "Avlékété-Joncquet", "n_pois": 1, "contradicting_pois_in_zone": 0, "n_affected_nodes": 3, "affected_road_length_m": 133.0, "centroid_lat": 6.3591586, "centroid_lng": 2.4340309, "confidence": 0.066, "poi_names": ["PASE C 187 JONCQUET"], "weighted_vote": 0.6, "zone_id": 66, "color": "#fbbf24", "radius": 4.924, "gmaps_link": "https://www.google.com/maps/@6.359159,2.434031,18z", "poi_names_sample": ["PASE C 187 JONCQUET"]}}, {"type": "Feature", "geometry": {"type": "Point", "coordinates": [2.3928528, 6.3558074]}, "properties": {"from_quartier": "Cadjèhoun-Agonga", "to_quartier": "Haie-Vive-Cocotiers", "n_pois": 1, "contradicting_pois_in_zone": 0, "n_affected_nodes": 4, "affected_road_length_m": 130.9, "centroid_lat": 6.3558074, "centroid_lng": 2.3928528, "confidence": 0.065, "poi_names": ["Ecole Les cocotiers"], "weighted_vote": 0.6, "zone_id": 67, "color": "#fbbf24", "radius": 4.91, "gmaps_link": "https://www.google.com/maps/@6.355807,2.392853,18z", "poi_names_sample": ["Ecole Les cocotiers"]}}, {"type": "Feature", "geometry": {"type": "Point", "coordinates": [2.4051944, 6.3757063]}, "properties": {"from_quartier": "Vodjè-Ayidoté", "to_quartier": "Agontinkon", "n_pois": 1, "contradicting_pois_in_zone": 0, "n_affected_nodes": 5, "affected_road_length_m": 128.9, "centroid_lat": 6.3757063, "centroid_lng": 2.4051944, "confidence": 0.064, "poi_names": ["Pharmacie Agontinkon"], "weighted_vote": 0.85, "zone_id": 68, "color": "#fbbf24", "radius": 4.896, "gmaps_link": "https://www.google.com/maps/@6.375706,2.405194,18z", "poi_names_sample": ["Pharmacie Agontinkon"]}}, {"type": "Feature", "geometry": {"type": "Point", "coordinates": [2.3655613, 6.3498053]}, "properties": {"from_quartier": "Fiyégnon-Jacquot", "to_quartier": "Xwlacôdji-Plage", "n_pois": 1, "contradicting_pois_in_zone": 0, "n_affected_nodes": 5, "affected_road_length_m": 122.3, "centroid_lat": 6.3498053, "centroid_lng": 2.3655613, "confidence": 0.062, "poi_names": ["Resto plage"], "weighted_vote": 0.6, "zone_id": 69, "color": "#fbbf24", "radius": 4.868, "gmaps_link": "https://www.google.com/maps/@6.349805,2.365561,18z", "poi_names_sample": ["Resto plage"]}}, {"type": "Feature", "geometry": {"type": "Point", "coordinates": [2.4260881, 6.3644242]}, "properties": {"from_quartier": "Mifongou", "to_quartier": "Espace-Saint", "n_pois": 1, "contradicting_pois_in_zone": 2, "n_affected_nodes": 5, "affected_road_length_m": 122.4, "centroid_lat": 6.3644242, "centroid_lng": 2.4260881, "confidence": 0.062, "poi_names": ["PASE C 481 ESPACE DINA"], "weighted_vote": 0.6, "zone_id": 70, "color": "#fbbf24", "radius": 4.868, "gmaps_link": "https://www.google.com/maps/@6.364424,2.426088,18z", "poi_names_sample": ["PASE C 481 ESPACE DINA"]}}, {"type": "Feature", "geometry": {"type": "Point", "coordinates": [2.3116726, 6.4325942]}, "properties": {"from_quartier": "Tankpê-Yoho", "to_quartier": "Houèto", "n_pois": 1, "contradicting_pois_in_zone": 0, "n_affected_nodes": 5, "affected_road_length_m": 117.7, "centroid_lat": 6.4325942, "centroid_lng": 2.3116726, "confidence": 0.059, "poi_names": ["Eglise Protestante méthodistes SALEM Houèto"], "weighted_vote": 0.85, "zone_id": 71, "color": "#fbbf24", "radius": 4.826, "gmaps_link": "https://www.google.com/maps/@6.432594,2.311673,18z", "poi_names_sample": ["Eglise Protestante méthodistes SALEM Houèto"]}}, {"type": "Feature", "geometry": {"type": "Point", "coordinates": [2.3902366, 6.3781996]}, "properties": {"from_quartier": "Missogbé", "to_quartier": "Védokô", "n_pois": 1, "contradicting_pois_in_zone": 0, "n_affected_nodes": 4, "affected_road_length_m": 114.5, "centroid_lat": 6.3781996, "centroid_lng": 2.3902366, "confidence": 0.058, "poi_names": ["Pharmacie Marché Vedoko"], "weighted_vote": 0.85, "zone_id": 72, "color": "#fbbf24", "radius": 4.812, "gmaps_link": "https://www.google.com/maps/@6.378200,2.390237,18z", "poi_names_sample": ["Pharmacie Marché Vedoko"]}}, {"type": "Feature", "geometry": {"type": "Point", "coordinates": [2.4291618, 6.3905948]}, "properties": {"from_quartier": "Ladji", "to_quartier": "Espace-Saint", "n_pois": 1, "contradicting_pois_in_zone": 3, "n_affected_nodes": 4, "affected_road_length_m": 115.4, "centroid_lat": 6.3905948, "centroid_lng": 2.4291618, "confidence": 0.058, "poi_names": ["École Maternelle Privée Espace Éveil"], "weighted_vote": 0.6, "zone_id": 73, "color": "#fbbf24", "radius": 4.812, "gmaps_link": "https://www.google.com/maps/@6.390595,2.429162,18z", "poi_names_sample": ["École Maternelle Privée Espace Éveil"]}}, {"type": "Feature", "geometry": {"type": "Point", "coordinates": [2.424243, 6.3739488]}, "properties": {"from_quartier": "Jéricho-Nord", "to_quartier": "Espace-Saint", "n_pois": 1, "contradicting_pois_in_zone": 0, "n_affected_nodes": 3, "affected_road_length_m": 107.1, "centroid_lat": 6.3739488, "centroid_lng": 2.424243, "confidence": 0.055, "poi_names": ["Espace beauté"], "weighted_vote": 0.6, "zone_id": 74, "color": "#fbbf24", "radius": 4.77, "gmaps_link": "https://www.google.com/maps/@6.373949,2.424243,18z", "poi_names_sample": ["Espace beauté"]}}, {"type": "Feature", "geometry": {"type": "Point", "coordinates": [2.3896977, 6.3781811]}, "properties": {"from_quartier": "Sètôvi", "to_quartier": "Védokô", "n_pois": 1, "contradicting_pois_in_zone": 0, "n_affected_nodes": 3, "affected_road_length_m": 96.2, "centroid_lat": 6.3781811, "centroid_lng": 2.3896977, "confidence": 0.05, "poi_names": ["Marché Vêdoko"], "weighted_vote": 0.85, "zone_id": 75, "color": "#fbbf24", "radius": 4.7, "gmaps_link": "https://www.google.com/maps/@6.378181,2.389698,18z", "poi_names_sample": ["Marché Vêdoko"]}}, {"type": "Feature", "geometry": {"type": "Point", "coordinates": [2.3129297, 6.4050018]}, "properties": {"from_quartier": "Yénandjro\n", "to_quartier": "Plateau\n", "n_pois": 1, "contradicting_pois_in_zone": 0, "n_affected_nodes": 4, "affected_road_length_m": 92.4, "centroid_lat": 6.4050018, "centroid_lng": 2.3129297, "confidence": 0.048, "poi_names": ["CEG Le Plateau"], "weighted_vote": 0.85, "zone_id": 76, "color": "#fbbf24", "radius": 4.672, "gmaps_link": "https://www.google.com/maps/@6.405002,2.312930,18z", "poi_names_sample": ["CEG Le Plateau"]}}, {"type": "Feature", "geometry": {"type": "Point", "coordinates": [2.4298785, 6.363477]}, "properties": {"from_quartier": "Gbédokpo", "to_quartier": "Gbéto", "n_pois": 1, "contradicting_pois_in_zone": 0, "n_affected_nodes": 4, "affected_road_length_m": 86.5, "centroid_lat": 6.363477, "centroid_lng": 2.4298785, "confidence": 0.045, "poi_names": ["Complexe scolaire Gbéto sud - Groupe A, C, D"], "weighted_vote": 0.85, "zone_id": 77, "color": "#fbbf24", "radius": 4.63, "gmaps_link": "https://www.google.com/maps/@6.363477,2.429879,18z", "poi_names_sample": ["Complexe scolaire Gbéto sud - Groupe A, C, D"]}}, {"type": "Feature", "geometry": {"type": "Point", "coordinates": [2.3422656, 6.4862203]}, "properties": {"from_quartier": "Zopah-Akassato", "to_quartier": "Zoundja\n", "n_pois": 1, "contradicting_pois_in_zone": 0, "n_affected_nodes": 2, "affected_road_length_m": 79.8, "centroid_lat": 6.4862203, "centroid_lng": 2.3422656, "confidence": 0.042, "poi_names": ["EPP Zoundja"], "weighted_vote": 0.85, "zone_id": 78, "color": "#fbbf24", "radius": 4.588, "gmaps_link": "https://www.google.com/maps/@6.486220,2.342266,18z", "poi_names_sample": ["EPP Zoundja"]}}, {"type": "Feature", "geometry": {"type": "Point", "coordinates": [2.4381975, 6.3615883]}, "properties": {"from_quartier": "Tokpa-Hoho", "to_quartier": "Abokicodji-Lagune", "n_pois": 1, "contradicting_pois_in_zone": 0, "n_affected_nodes": 3, "affected_road_length_m": 80.1, "centroid_lat": 6.3615883, "centroid_lng": 2.4381975, "confidence": 0.042, "poi_names": ["Hôpital de l'enfant et de la mère lagune"], "weighted_vote": 0.6, "zone_id": 79, "color": "#fbbf24", "radius": 4.588, "gmaps_link": "https://www.google.com/maps/@6.361588,2.438197,18z", "poi_names_sample": ["Hôpital de l'enfant et de la mère lagune"]}}, {"type": "Feature", "geometry": {"type": "Point", "coordinates": [2.3071512, 6.4707828]}, "properties": {"from_quartier": "Ouéga-Tokpa", "to_quartier": "Togba_Maria-Gléta", "n_pois": 1, "contradicting_pois_in_zone": 0, "n_affected_nodes": 3, "affected_road_length_m": 78.2, "centroid_lat": 6.4707828, "centroid_lng": 2.3071512, "confidence": 0.041, "poi_names": ["École primaire publique Ouega-Togba"], "weighted_vote": 0.6, "zone_id": 80, "color": "#fbbf24", "radius": 4.574, "gmaps_link": "https://www.google.com/maps/@6.470783,2.307151,18z", "poi_names_sample": ["École primaire publique Ouega-Togba"]}}, {"type": "Feature", "geometry": {"type": "Point", "coordinates": [2.4264092, 6.3695386]}, "properties": {"from_quartier": "Sèdami", "to_quartier": "Sèdjro-Saint-Michel", "n_pois": 1, "contradicting_pois_in_zone": 0, "n_affected_nodes": 2, "affected_road_length_m": 78.5, "centroid_lat": 6.3695386, "centroid_lng": 2.4264092, "confidence": 0.041, "poi_names": ["Marché St Michel"], "weighted_vote": 0.6, "zone_id": 81, "color": "#fbbf24", "radius": 4.574, "gmaps_link": "https://www.google.com/maps/@6.369539,2.426409,18z", "poi_names_sample": ["Marché St Michel"]}}, {"type": "Feature", "geometry": {"type": "Point", "coordinates": [2.4777622, 6.3675598]}, "properties": {"from_quartier": "Dandji", "to_quartier": "Minonkpô-Wologuèdè", "n_pois": 1, "contradicting_pois_in_zone": 0, "n_affected_nodes": 2, "affected_road_length_m": 69.7, "centroid_lat": 6.3675598, "centroid_lng": 2.4777622, "confidence": 0.037, "poi_names": ["Hôpital Minonkpo (ProFam)"], "weighted_vote": 0.6, "zone_id": 82, "color": "#fbbf24", "radius": 4.518, "gmaps_link": "https://www.google.com/maps/@6.367560,2.477762,18z", "poi_names_sample": ["Hôpital Minonkpo (ProFam)"]}}, {"type": "Feature", "geometry": {"type": "Point", "coordinates": [2.4473923, 6.3709387]}, "properties": {"from_quartier": "Gbèdjèwin", "to_quartier": "Misséssin", "n_pois": 1, "contradicting_pois_in_zone": 0, "n_affected_nodes": 3, "affected_road_length_m": 70.0, "centroid_lat": 6.3709387, "centroid_lng": 2.4473923, "confidence": 0.037, "poi_names": ["Hopital Misséssin"], "weighted_vote": 0.85, "zone_id": 83, "color": "#fbbf24", "radius": 4.518, "gmaps_link": "https://www.google.com/maps/@6.370939,2.447392,18z", "poi_names_sample": ["Hopital Misséssin"]}}, {"type": "Feature", "geometry": {"type": "Point", "coordinates": [2.4050601, 6.3715527]}, "properties": {"from_quartier": "Vodjè-Ayidoté", "to_quartier": "Vodjè-Allobatin", "n_pois": 1, "contradicting_pois_in_zone": 0, "n_affected_nodes": 2, "affected_road_length_m": 66.2, "centroid_lat": 6.3715527, "centroid_lng": 2.4050601, "confidence": 0.035, "poi_names": ["PASE ALLOBATIN"], "weighted_vote": 0.6, "zone_id": 84, "color": "#fbbf24", "radius": 4.49, "gmaps_link": "https://www.google.com/maps/@6.371553,2.405060,18z", "poi_names_sample": ["PASE ALLOBATIN"]}}, {"type": "Feature", "geometry": {"type": "Point", "coordinates": [2.3262892, 6.4871665]}, "properties": {"from_quartier": "Cité-les-Palmiers\n", "to_quartier": "Zoundja\n", "n_pois": 1, "contradicting_pois_in_zone": 0, "n_affected_nodes": 2, "affected_road_length_m": 47.3, "centroid_lat": 6.4871665, "centroid_lng": 2.3262892, "confidence": 0.026, "poi_names": ["École primaire publique Zoundja 2"], "weighted_vote": 0.85, "zone_id": 85, "color": "#fbbf24", "radius": 4.364, "gmaps_link": "https://www.google.com/maps/@6.487166,2.326289,18z", "poi_names_sample": ["École primaire publique Zoundja 2"]}}, {"type": "Feature", "geometry": {"type": "Point", "coordinates": [2.4320238, 6.391917]}, "properties": {"from_quartier": "Ahouansori-Towéta-Kpota", "to_quartier": "Ladji", "n_pois": 1, "contradicting_pois_in_zone": 0, "n_affected_nodes": 3, "affected_road_length_m": 23.3, "centroid_lat": 6.391917, "centroid_lng": 2.4320238, "confidence": 0.013, "poi_names": ["Église catholique Saint-Christophe d’Ayimlonfidé-Ladji"], "weighted_vote": 0.85, "zone_id": 86, "color": "#fbbf24", "radius": 4.182, "gmaps_link": "https://www.google.com/maps/@6.391917,2.432024,18z", "poi_names_sample": ["Église catholique Saint-Christophe d’Ayimlonfidé-Ladji"]}}, {"type": "Feature", "geometry": {"type": "Point", "coordinates": [2.298567, 6.3933187]}, "properties": {"from_quartier": "Fandji\n", "to_quartier": "Cocotomey", "n_pois": 1, "contradicting_pois_in_zone": 0, "n_affected_nodes": 0, "affected_road_length_m": 0.0, "centroid_lat": 6.3933187, "centroid_lng": 2.298567, "confidence": 0.0, "poi_names": ["AVE MARIA DE COCOTOMEY"], "weighted_vote": 0.85, "zone_id": 87, "color": "#fbbf24", "radius": 4.0, "gmaps_link": "https://www.google.com/maps/@6.393319,2.298567,18z", "poi_names_sample": ["AVE MARIA DE COCOTOMEY"]}}, {"type": "Feature", "geometry": {"type": "Point", "coordinates": [2.4397307, 6.3723429]}, "properties": {"from_quartier": "Gbénonkpô", "to_quartier": "Midombo", "n_pois": 1, "contradicting_pois_in_zone": 1, "n_affected_nodes": 0, "affected_road_length_m": 0.0, "centroid_lat": 6.3723429, "centroid_lng": 2.4397307, "confidence": 0.0, "poi_names": ["Ecole Primaire de Midombo A et B"], "weighted_vote": 0.85, "zone_id": 88, "color": "#fbbf24", "radius": 4.0, "gmaps_link": "https://www.google.com/maps/@6.372343,2.439731,18z", "poi_names_sample": ["Ecole Primaire de Midombo A et B"]}}, {"type": "Feature", "geometry": {"type": "Point", "coordinates": [2.434455, 6.3888367]}, "properties": {"from_quartier": "Ahouansori-Towéta-Kpota", "to_quartier": "Ladji", "n_pois": 1, "contradicting_pois_in_zone": 0, "n_affected_nodes": 2, "affected_road_length_m": 0.0, "centroid_lat": 6.3888367, "centroid_lng": 2.434455, "confidence": 0.0, "poi_names": ["Marché  de ladji"], "weighted_vote": 0.85, "zone_id": 89, "color": "#fbbf24", "radius": 4.0, "gmaps_link": "https://www.google.com/maps/@6.388837,2.434455,18z", "poi_names_sample": ["Marché  de ladji"]}}, {"type": "Feature", "geometry": {"type": "Point", "coordinates": [2.4527122500000003, 6.37488395]}, "properties": {"from_quartier": "Lom-Nava", "to_quartier": "Akpakpa-Dodomè", "n_pois": 2, "contradicting_pois_in_zone": 0, "n_affected_nodes": 1, "affected_road_length_m": 0.0, "centroid_lat": 6.37488395, "centroid_lng": 2.4527122500000003, "confidence": 0.0, "poi_names": ["Impact Centre Chrétien campus d'Akpakpa", "Impact Centre Chrétien Akpakpa"], "weighted_vote": 1.2, "zone_id": 90, "color": "#fbbf24", "radius": 4.0, "gmaps_link": "https://www.google.com/maps/@6.374884,2.452712,18z", "poi_names_sample": ["Impact Centre Chrétien campus d'Akpakpa", "Impact Centre Chrétien Akpakpa"]}}, {"type": "Feature", "geometry": {"type": "Point", "coordinates": [2.3497606, 6.3911574]}, "properties": {"from_quartier": "Yolomahouto", "to_quartier": "Hlacômey", "n_pois": 1, "contradicting_pois_in_zone": 0, "n_affected_nodes": 2, "affected_road_length_m": 0.0, "centroid_lat": 6.3911574, "centroid_lng": 2.3497606, "confidence": 0.0, "poi_names": ["Complexe Scolaire Godomey HLACOMEY"], "weighted_vote": 0.85, "zone_id": 91, "color": "#fbbf24", "radius": 4.0, "gmaps_link": "https://www.google.com/maps/@6.391157,2.349761,18z", "poi_names_sample": ["Complexe Scolaire Godomey HLACOMEY"]}}, {"type": "Feature", "geometry": {"type": "Point", "coordinates": [2.4412429, 6.3715431]}, "properties": {"from_quartier": "Gbénonkpô", "to_quartier": "Dédokpo", "n_pois": 1, "contradicting_pois_in_zone": 1, "n_affected_nodes": 0, "affected_road_length_m": 0.0, "centroid_lat": 6.3715431, "centroid_lng": 2.4412429, "confidence": 0.0, "poi_names": ["PASE DRL2 C??? DEDOKPO"], "weighted_vote": 0.85, "zone_id": 92, "color": "#fbbf24", "radius": 4.0, "gmaps_link": "https://www.google.com/maps/@6.371543,2.441243,18z", "poi_names_sample": ["PASE DRL2 C??? DEDOKPO"]}}, {"type": "Feature", "geometry": {"type": "Point", "coordinates": [2.3889913, 6.3821885]}, "properties": {"from_quartier": "Sètôvi", "to_quartier": "Védokô", "n_pois": 1, "contradicting_pois_in_zone": 0, "n_affected_nodes": 1, "affected_road_length_m": 0.0, "centroid_lat": 6.3821885, "centroid_lng": 2.3889913, "confidence": 0.0, "poi_names": ["CEG Védoko"], "weighted_vote": 0.85, "zone_id": 93, "color": "#fbbf24", "radius": 4.0, "gmaps_link": "https://www.google.com/maps/@6.382188,2.388991,18z", "poi_names_sample": ["CEG Védoko"]}}]}