{"type": "FeatureCollection", "audit_only": false, "source": "OSM amenities (ODbL)", "features": [{"type": "Feature", "geometry": {"type": "Point", "coordinates": [2.485058184575597, 6.368890460329282]}, "properties": {"chef_index": 1, "name": "Dandji-Hokanmè", "arrondissement": "1er Arrondissement", "commune": "COTONOU", "lat": 6.368890460329282, "lng": 2.485058184575597, "support_count": 0, "contradiction_count": 3, "external_support_count": 0, "weighted_support": 0.0, "weighted_contradiction": 2.3, "weighted_external_support": 0.0, "total_evidence": 3, "confidence_score": 0.632, "over_expansion_score": 0.697, "under_claim_score": 0.0, "boundary_shift_score": 0.0, "color": "#dc2626"}}, {"type": "Feature", "geometry": {"type": "Point", "coordinates": [2.465827538994987, 6.382225978472974]}, "properties": {"chef_index": 2, "name": "Kowégbo", "arrondissement": "2ème Arrondissement", "commune": "COTONOU", "lat": 6.382225978472974, "lng": 2.465827538994987, "support_count": 1, "contradiction_count": 0, "external_support_count": 0, "weighted_support": 0.85, "weighted_contradiction": 0.0, "weighted_external_support": 0.0, "total_evidence": 1, "confidence_score": 0.283, "over_expansion_score": 0.0, "under_claim_score": 0.0, "boundary_shift_score": 0.0, "color": "#16a34a"}}, {"type": "Feature", "geometry": {"type": "Point", "coordinates": [2.30680022495434, 6.473549012939534]}, "properties": {"chef_index": 8, "name": "Ouéga-Tokpa", "arrondissement": "Togba", "commune": "ABOMEY-CALAVI", "lat": 6.473549012939534, "lng": 2.30680022495434, "support_count": 0, "contradiction_count": 3, "external_support_count": 0, "weighted_support": 0.0, "weighted_contradiction": 1.8, "weighted_external_support": 0.0, "total_evidence": 3, "confidence_score": 0.632, "over_expansion_score": 0.643, "under_claim_score": 0.0, "boundary_shift_score": 0.0, "color": "#dc2626"}}, {"type": "Feature", "geometry": {"type": "Point", "coordinates": [2.413874502852743, 6.374683408489917]}, "properties": {"chef_index": 10, "name": "Minonkpô-Wologuèdè", "arrondissement": "8ème Arrondissement", "commune": "COTONOU", "lat": 6.374683408489917, "lng": 2.413874502852743, "support_count": 0, "contradiction_count": 0, "external_support_count": 1, "weighted_support": 0.0, "weighted_contradiction": 0.0, "weighted_external_support": 0.6, "total_evidence": 1, "confidence_score": 0.283, "over_expansion_score": 0.0, "under_claim_score": 0.375, "boundary_shift_score": 0.0, "color": "#16a34a"}}, {"type": "Feature", "geometry": {"type": "Point", "coordinates": [2.337956703847636, 6.403574813297991]}, "properties": {"chef_index": 11, "name": "Djoukpa-Togoudo\n", "arrondissement": "Godomey", "commune": "ABOMEY-CALAVI", "lat": 6.403574813297991, "lng": 2.337956703847636, "support_count": 0, "contradiction_count": 1, "external_support_count": 0, "weighted_support": 0.0, "weighted_contradiction": 0.6, "weighted_external_support": 0.0, "total_evidence": 1, "confidence_score": 0.283, "over_expansion_score": 0.375, "under_claim_score": 0.0, "boundary_shift_score": 0.0, "color": "#16a34a"}}, {"type": "Feature", "geometry": {"type": "Point", "coordinates": [2.322904265361397, 6.440133968414679]}, "properties": {"chef_index": 13, "name": "Fifonsi\n", "arrondissement": "Togba", "commune": "ABOMEY-CALAVI", "lat": 6.440133968414679, "lng": 2.322904265361397, "support_count": 0, "contradiction_count": 2, "external_support_count": 0, "weighted_support": 0.0, "weighted_contradiction": 1.7, "weighted_external_support": 0.0, "total_evidence": 2, "confidence_score": 0.487, "over_expansion_score": 0.63, "under_claim_score": 0.0, "boundary_shift_score": 0.0, "color": "#dc2626"}}, {"type": "Feature", "geometry": {"type": "Point", "coordinates": [2.33370016269819, 6.387344831642028]}, "properties": {"chef_index": 14, "name": "Ounvènoumèdé\n", "arrondissement": "Godomey", "commune": "ABOMEY-CALAVI", "lat": 6.387344831642028, "lng": 2.33370016269819, "support_count": 0, "contradiction_count": 1, "external_support_count": 0, "weighted_support": 0.0, "weighted_contradiction": 0.6, "weighted_external_support": 0.0, "total_evidence": 1, "confidence_score": 0.283, "over_expansion_score": 0.375, "under_claim_score": 0.0, "boundary_shift_score": 0.0, "color": "#16a34a"}}, {"type": "Feature", "geometry": {"type": "Point", "coordinates": [2.310385829352795, 6.432375677616995]}, "properties": {"chef_index": 16, "name": "Tankpê-Yoho", "arrondissement": "Abomey-Calavi", "commune": "ABOMEY-CALAVI", "lat": 6.432375677616995, "lng": 2.310385829352795, "support_count": 0, "contradiction_count": 2, "external_support_count": 0, "weighted_support": 0.0, "weighted_contradiction": 1.7, "weighted_external_support": 0.0, "total_evidence": 2, "confidence_score": 0.487, "over_expansion_score": 0.63, "under_claim_score": 0.0, "boundary_shift_score": 0.0, "color": "#dc2626"}}, {"type": "Feature", "geometry": {"type": "Point", "coordinates": [2.444688908537918, 6.361032388167098]}, "properties": {"chef_index": 17, "name": "Akpakpa-Dodomè", "arrondissement": "4ème Arrondissement", "commune": "COTONOU", "lat": 6.361032388167098, "lng": 2.444688908537918, "support_count": 0, "contradiction_count": 0, "external_support_count": 5, "weighted_support": 0.0, "weighted_contradiction": 0.0, "weighted_external_support": 3.0, "total_evidence": 5, "confidence_score": 0.811, "over_expansion_score": 0.0, "under_claim_score": 0.75, "boundary_shift_score": 0.0, "color": "#0891b2"}}, {"type": "Feature", "geometry": {"type": "Point", "coordinates": [2.468414428686719, 6.372772934582578]}, "properties": {"chef_index": 20, "name": "Yagbé", "arrondissement": "1er Arrondissement", "commune": "COTONOU", "lat": 6.372772934582578, "lng": 2.468414428686719, "support_count": 1, "contradiction_count": 0, "external_support_count": 0, "weighted_support": 0.85, "weighted_contradiction": 0.0, "weighted_external_support": 0.0, "total_evidence": 1, "confidence_score": 0.283, "over_expansion_score": 0.0, "under_claim_score": 0.0, "boundary_shift_score": 0.0, "color": "#16a34a"}}, {"type": "Feature", "geometry": {"type": "Point", "coordinates": [2.32009876191539, 6.382409347079445]}, "properties": {"chef_index": 23, "name": "Agbo Codji Sèdégbé", "arrondissement": "Godomey", "commune": "ABOMEY-CALAVI", "lat": 6.382409347079445, "lng": 2.32009876191539, "support_count": 1, "contradiction_count": 0, "external_support_count": 0, "weighted_support": 0.6, "weighted_contradiction": 0.0, "weighted_external_support": 0.0, "total_evidence": 1, "confidence_score": 0.283, "over_expansion_score": 0.0, "under_claim_score": 0.0, "boundary_shift_score": 0.0, "color": "#16a34a"}}, {"type": "Feature", "geometry": {"type": "Point", "coordinates": [2.331952378671597, 6.414225063087606]}, "properties": {"chef_index": 28, "name": "Cité-la-Victoire\n", "arrondissement": "Abomey-Calavi", "commune": "ABOMEY-CALAVI", "lat": 6.414225063087606, "lng": 2.331952378671597, "support_count": 0, "contradiction_count": 0, "external_support_count": 4, "weighted_support": 0.0, "weighted_contradiction": 0.0, "weighted_external_support": 2.4, "total_evidence": 4, "confidence_score": 0.736, "over_expansion_score": 0.0, "under_claim_score": 0.706, "boundary_shift_score": 0.0, "color": "#0891b2"}}, {"type": "Feature", "geometry": {"type": "Point", "coordinates": [2.385256327528561, 6.37401256015859]}, "properties": {"chef_index": 29, "name": "Ahogbohoué-Cité-Eucharistie", "arrondissement": "13ème Arrondissement", "commune": "COTONOU", "lat": 6.37401256015859, "lng": 2.385256327528561, "support_count": 0, "contradiction_count": 0, "external_support_count": 1, "weighted_support": 0.0, "weighted_contradiction": 0.0, "weighted_external_support": 0.6, "total_evidence": 1, "confidence_score": 0.283, "over_expansion_score": 0.0, "under_claim_score": 0.375, "boundary_shift_score": 0.0, "color": "#16a34a"}}, {"type": "Feature", "geometry": {"type": "Point", "coordinates": [2.369749036791143, 6.391295178670569]}, "properties": {"chef_index": 31, "name": "Mènontin", "arrondissement": "9ème Arrondissement", "commune": "COTONOU", "lat": 6.391295178670569, "lng": 2.369749036791143, "support_count": 4, "contradiction_count": 0, "external_support_count": 3, "weighted_support": 3.4, "weighted_contradiction": 0.0, "weighted_external_support": 2.55, "total_evidence": 7, "confidence_score": 0.903, "over_expansion_score": 0.0, "under_claim_score": 0.367, "boundary_shift_score": 0.0, "color": "#16a34a"}}, {"type": "Feature", "geometry": {"type": "Point", "coordinates": [2.419311768041911, 6.363334204650752]}, "properties": {"chef_index": 32, "name": "Todoté", "arrondissement": "7ème Arrondissement", "commune": "COTONOU", "lat": 6.363334204650752, "lng": 2.419311768041911, "support_count": 0, "contradiction_count": 1, "external_support_count": 0, "weighted_support": 0.0, "weighted_contradiction": 0.6, "weighted_external_support": 0.0, "total_evidence": 1, "confidence_score": 0.283, "over_expansion_score": 0.375, "under_claim_score": 0.0, "boundary_shift_score": 0.0, "color": "#16a34a"}}, {"type": "Feature", "geometry": {"type": "Point", "coordinates": [2.368442831133803, 6.352294872042274]}, "properties": {"chef_index": 35, "name": "Fiyégnon-Jacquot", "arrondissement": "12ème Arrondissement", "commune": "COTONOU", "lat": 6.352294872042274, "lng": 2.368442831133803, "support_count": 0, "contradiction_count": 1, "external_support_count": 0, "weighted_support": 0.0, "weighted_contradiction": 0.6, "weighted_external_support": 0.0, "total_evidence": 1, "confidence_score": 0.283, "over_expansion_score": 0.375, "under_claim_score": 0.0, "boundary_shift_score": 0.0, "color": "#16a34a"}}, {"type": "Feature", "geometry": {"type": "Point", "coordinates": [2.45358716325789, 6.377121928357666]}, "properties": {"chef_index": 38, "name": "Lom-Nava", "arrondissement": "2ème Arrondissement", "commune": "COTONOU", "lat": 6.377121928357666, "lng": 2.45358716325789, "support_count": 0, "contradiction_count": 2, "external_support_count": 0, "weighted_support": 0.0, "weighted_contradiction": 1.2, "weighted_external_support": 0.0, "total_evidence": 2, "confidence_score": 0.487, "over_expansion_score": 0.545, "under_claim_score": 0.0, "boundary_shift_score": 0.0, "color": "#dc2626"}}, {"type": "Feature", "geometry": {"type": "Point", "coordinates": [2.30449474291105, 6.564084706418892]}, "properties": {"chef_index": 39, "name": "Espace-Saint", "arrondissement": "Golo-Djigbé", "commune": "ABOMEY-CALAVI", "lat": 6.564084706418892, "lng": 2.30449474291105, "support_count": 0, "contradiction_count": 0, "external_support_count": 7, "weighted_support": 0.0, "weighted_contradiction": 0.0, "weighted_external_support": 4.2, "total_evidence": 7, "confidence_score": 0.903, "over_expansion_score": 0.0, "under_claim_score": 0.808, "boundary_shift_score": 0.0, "color": "#0891b2"}}, {"type": "Feature", "geometry": {"type": "Point", "coordinates": [2.307409725754017, 6.422174415569062]}, "properties": {"chef_index": 40, "name": "Maria-Gléta\n", "arrondissement": "Godomey", "commune": "ABOMEY-CALAVI", "lat": 6.422174415569062, "lng": 2.307409725754017, "support_count": 1, "contradiction_count": 0, "external_support_count": 0, "weighted_support": 1.0, "weighted_contradiction": 0.0, "weighted_external_support": 0.0, "total_evidence": 1, "confidence_score": 0.283, "over_expansion_score": 0.0, "under_claim_score": 0.0, "boundary_shift_score": 0.0, "color": "#16a34a"}}, {"type": "Feature", "geometry": {"type": "Point", "coordinates": [2.385935060407983, 6.379254118857429]}, "properties": {"chef_index": 41, "name": "Védokô", "arrondissement": "10ème Arrondissement", "commune": "COTONOU", "lat": 6.379254118857429, "lng": 2.385935060407983, "support_count": 0, "contradiction_count": 1, "external_support_count": 5, "weighted_support": 0.0, "weighted_contradiction": 0.85, "weighted_external_support": 4.25, "total_evidence": 6, "confidence_score": 0.865, "over_expansion_score": 0.459, "under_claim_score": 0.81, "boundary_shift_score": 0.61, "color": "#7c3aed"}}, {"type": "Feature", "geometry": {"type": "Point", "coordinates": [2.334256920885097, 6.443043601716527]}, "properties": {"chef_index": 43, "name": "Alédjo\n", "arrondissement": "Abomey-Calavi", "commune": "ABOMEY-CALAVI", "lat": 6.443043601716527, "lng": 2.334256920885097, "support_count": 0, "contradiction_count": 0, "external_support_count": 1, "weighted_support": 0.0, "weighted_contradiction": 0.0, "weighted_external_support": 0.85, "total_evidence": 1, "confidence_score": 0.283, "over_expansion_score": 0.0, "under_claim_score": 0.459, "boundary_shift_score": 0.0, "color": "#16a34a"}}, {"type": "Feature", "geometry": {"type": "Point", "coordinates": [2.385571301988101, 6.387897930129924]}, "properties": {"chef_index": 45, "name": "Agounvocôdji", "arrondissement": "10ème Arrondissement", "commune": "COTONOU", "lat": 6.387897930129924, "lng": 2.385571301988101, "support_count": 0, "contradiction_count": 1, "external_support_count": 0, "weighted_support": 0.0, "weighted_contradiction": 0.85, "weighted_external_support": 0.0, "total_evidence": 1, "confidence_score": 0.283, "over_expansion_score": 0.459, "under_claim_score": 0.0, "boundary_shift_score": 0.0, "color": "#16a34a"}}, {"type": "Feature", "geometry": {"type": "Point", "coordinates": [2.29897343498701, 6.453545179815483]}, "properties": {"chef_index": 46, "name": "Somè", "arrondissement": "Togba", "commune": "ABOMEY-CALAVI", "lat": 6.453545179815483, "lng": 2.29897343498701, "support_count": 0, "contradiction_count": 1, "external_support_count": 0, "weighted_support": 0.0, "weighted_contradiction": 0.6, "weighted_external_support": 0.0, "total_evidence": 1, "confidence_score": 0.283, "over_expansion_score": 0.375, "under_claim_score": 0.0, "boundary_shift_score": 0.0, "color": "#16a34a"}}, {"type": "Feature", "geometry": {"type": "Point", "coordinates": [2.45024638006181, 6.392860824205965]}, "properties": {"chef_index": 50, "name": "Minontchou", "arrondissement": "2ème Arrondissement", "commune": "COTONOU", "lat": 6.392860824205965, "lng": 2.45024638006181, "support_count": 2, "contradiction_count": 0, "external_support_count": 0, "weighted_support": 1.7, "weighted_contradiction": 0.0, "weighted_external_support": 0.0, "total_evidence": 2, "confidence_score": 0.487, "over_expansion_score": 0.0, "under_claim_score": 0.0, "boundary_shift_score": 0.0, "color": "#16a34a"}}, {"type": "Feature", "geometry": {"type": "Point", "coordinates": [2.439451918940784, 6.358973822984335]}, "properties": {"chef_index": 52, "name": "Tokpa-Hoho", "arrondissement": "5ème Arrondissement", "commune": "COTONOU", "lat": 6.358973822984335, "lng": 2.439451918940784, "support_count": 0, "contradiction_count": 1, "external_support_count": 0, "weighted_support": 0.0, "weighted_contradiction": 0.6, "weighted_external_support": 0.0, "total_evidence": 1, "confidence_score": 0.283, "over_expansion_score": 0.375, "under_claim_score": 0.0, "boundary_shift_score": 0.0, "color": "#16a34a"}}, {"type": "Feature", "geometry": {"type": "Point", "coordinates": [2.424121282890475, 6.370194430138387]}, "properties": {"chef_index": 53, "name": "Sèdami", "arrondissement": "7ème Arrondissement", "commune": "COTONOU", "lat": 6.370194430138387, "lng": 2.424121282890475, "support_count": 0, "contradiction_count": 1, "external_support_count": 1, "weighted_support": 0.0, "weighted_contradiction": 0.6, "weighted_external_support": 0.85, "total_evidence": 2, "confidence_score": 0.487, "over_expansion_score": 0.375, "under_claim_score": 0.459, "boundary_shift_score": 0.415, "color": "#7c3aed"}}, {"type": "Feature", "geometry": {"type": "Point", "coordinates": [2.272137151986549, 6.388040794330395]}, "properties": {"chef_index": 55, "name": "Cococodji", "arrondissement": "Godomey", "commune": "ABOMEY-CALAVI", "lat": 6.388040794330395, "lng": 2.272137151986549, "support_count": 4, "contradiction_count": 0, "external_support_count": 0, "weighted_support": 3.4, "weighted_contradiction": 0.0, "weighted_external_support": 0.0, "total_evidence": 4, "confidence_score": 0.736, "over_expansion_score": 0.0, "under_claim_score": 0.0, "boundary_shift_score": 0.0, "color": "#16a34a"}}, {"type": "Feature", "geometry": {"type": "Point", "coordinates": [2.306642391722998, 6.388911807581605]}, "properties": {"chef_index": 58, "name": "Tokpa\n", "arrondissement": "Godomey", "commune": "ABOMEY-CALAVI", "lat": 6.388911807581605, "lng": 2.306642391722998, "support_count": 0, "contradiction_count": 2, "external_support_count": 0, "weighted_support": 0.0, "weighted_contradiction": 1.7, "weighted_external_support": 0.0, "total_evidence": 2, "confidence_score": 0.487, "over_expansion_score": 0.63, "under_claim_score": 0.0, "boundary_shift_score": 0.0, "color": "#dc2626"}}, {"type": "Feature", "geometry": {"type": "Point", "coordinates": [2.354827650456111, 6.499733027376658]}, "properties": {"chef_index": 60, "name": "Houèkè-Honou", "arrondissement": "Akassato", "commune": "ABOMEY-CALAVI", "lat": 6.499733027376658, "lng": 2.354827650456111, "support_count": 0, "contradiction_count": 0, "external_support_count": 1, "weighted_support": 0.0, "weighted_contradiction": 0.0, "weighted_external_support": 0.6, "total_evidence": 1, "confidence_score": 0.283, "over_expansion_score": 0.0, "under_claim_score": 0.375, "boundary_shift_score": 0.0, "color": "#16a34a"}}, {"type": "Feature", "geometry": {"type": "Point", "coordinates": [2.437618371294602, 6.353551437010183]}, "properties": {"chef_index": 63, "name": "Xwlacôdji-Kpodji", "arrondissement": "5ème Arrondissement", "commune": "COTONOU", "lat": 6.353551437010183, "lng": 2.437618371294602, "support_count": 0, "contradiction_count": 1, "external_support_count": 0, "weighted_support": 0.0, "weighted_contradiction": 0.6, "weighted_external_support": 0.0, "total_evidence": 1, "confidence_score": 0.283, "over_expansion_score": 0.375, "under_claim_score": 0.0, "boundary_shift_score": 0.0, "color": "#16a34a"}}, {"type": "Feature", "geometry": {"type": "Point", "coordinates": [2.388390601734404, 6.381389218388034]}, "properties": {"chef_index": 67, "name": "Sètôvi", "arrondissement": "10ème Arrondissement", "commune": "COTONOU", "lat": 6.381389218388034, "lng": 2.388390601734404, "support_count": 1, "contradiction_count": 2, "external_support_count": 1, "weighted_support": 0.85, "weighted_contradiction": 1.7, "weighted_external_support": 0.85, "total_evidence": 4, "confidence_score": 0.736, "over_expansion_score": 0.479, "under_claim_score": 0.315, "boundary_shift_score": 0.388, "color": "#7c3aed"}}, {"type": "Feature", "geometry": {"type": "Point", "coordinates": [2.337775794507753, 6.45306360958733]}, "properties": {"chef_index": 70, "name": "Aïtchédji\n", "arrondissement": "Abomey-Calavi", "commune": "ABOMEY-CALAVI", "lat": 6.45306360958733, "lng": 2.337775794507753, "support_count": 3, "contradiction_count": 2, "external_support_count": 0, "weighted_support": 2.55, "weighted_contradiction": 1.2, "weighted_external_support": 0.0, "total_evidence": 5, "confidence_score": 0.811, "over_expansion_score": 0.253, "under_claim_score": 0.0, "boundary_shift_score": 0.0, "color": "#16a34a"}}, {"type": "Feature", "geometry": {"type": "Point", "coordinates": [2.303694635891587, 6.440538017159928]}, "properties": {"chef_index": 74, "name": "Houèto", "arrondissement": "Togba", "commune": "ABOMEY-CALAVI", "lat": 6.440538017159928, "lng": 2.303694635891587, "support_count": 5, "contradiction_count": 3, "external_support_count": 2, "weighted_support": 4.25, "weighted_contradiction": 1.8, "weighted_external_support": 1.7, "total_evidence": 10, "confidence_score": 0.964, "over_expansion_score": 0.255, "under_claim_score": 0.245, "boundary_shift_score": 0.25, "color": "#16a34a"}}, {"type": "Feature", "geometry": {"type": "Point", "coordinates": [2.403176633681567, 6.373929769245663]}, "properties": {"chef_index": 80, "name": "Vodjè-Ayidoté", "arrondissement": "11ème Arrondissement", "commune": "COTONOU", "lat": 6.373929769245663, "lng": 2.403176633681567, "support_count": 0, "contradiction_count": 2, "external_support_count": 0, "weighted_support": 0.0, "weighted_contradiction": 1.45, "weighted_external_support": 0.0, "total_evidence": 2, "confidence_score": 0.487, "over_expansion_score": 0.592, "under_claim_score": 0.0, "boundary_shift_score": 0.0, "color": "#dc2626"}}, {"type": "Feature", "geometry": {"type": "Point", "coordinates": [2.337084069255347, 6.376257195705525]}, "properties": {"chef_index": 94, "name": "Fignonhou\n", "arrondissement": "Godomey", "commune": "ABOMEY-CALAVI", "lat": 6.376257195705525, "lng": 2.337084069255347, "support_count": 0, "contradiction_count": 0, "external_support_count": 1, "weighted_support": 0.0, "weighted_contradiction": 0.0, "weighted_external_support": 0.85, "total_evidence": 1, "confidence_score": 0.283, "over_expansion_score": 0.0, "under_claim_score": 0.459, "boundary_shift_score": 0.0, "color": "#16a34a"}}, {"type": "Feature", "geometry": {"type": "Point", "coordinates": [2.36039988279798, 6.358109760230045]}, "properties": {"chef_index": 101, "name": "Fidjrossè-Kpota", "arrondissement": "12ème Arrondissement", "commune": "COTONOU", "lat": 6.358109760230045, "lng": 2.36039988279798, "support_count": 0, "contradiction_count": 1, "external_support_count": 0, "weighted_support": 0.0, "weighted_contradiction": 0.85, "weighted_external_support": 0.0, "total_evidence": 1, "confidence_score": 0.283, "over_expansion_score": 0.459, "under_claim_score": 0.0, "boundary_shift_score": 0.0, "color": "#16a34a"}}, {"type": "Feature", "geometry": {"type": "Point", "coordinates": [2.404293531244689, 6.356653787616432]}, "properties": {"chef_index": 102, "name": "Cadjèhoun-Aupiais", "arrondissement": "12ème Arrondissement", "commune": "COTONOU", "lat": 6.356653787616432, "lng": 2.404293531244689, "support_count": 3, "contradiction_count": 0, "external_support_count": 0, "weighted_support": 1.8, "weighted_contradiction": 0.0, "weighted_external_support": 0.0, "total_evidence": 3, "confidence_score": 0.632, "over_expansion_score": 0.0, "under_claim_score": 0.0, "boundary_shift_score": 0.0, "color": "#16a34a"}}, {"type": "Feature", "geometry": {"type": "Point", "coordinates": [2.31506106908709, 6.507109056133443]}, "properties": {"chef_index": 110, "name": "Kansounkpa", "arrondissement": "Abomey-Calavi", "commune": "ABOMEY-CALAVI", "lat": 6.507109056133443, "lng": 2.31506106908709, "support_count": 1, "contradiction_count": 2, "external_support_count": 0, "weighted_support": 0.85, "weighted_contradiction": 1.7, "weighted_external_support": 0.0, "total_evidence": 3, "confidence_score": 0.632, "over_expansion_score": 0.479, "under_claim_score": 0.0, "boundary_shift_score": 0.0, "color": "#16a34a"}}, {"type": "Feature", "geometry": {"type": "Point", "coordinates": [2.35645028782525, 6.384276044890476]}, "properties": {"chef_index": 111, "name": "Agla-Akplomey", "arrondissement": "13ème Arrondissement", "commune": "COTONOU", "lat": 6.384276044890476, "lng": 2.35645028782525, "support_count": 0, "contradiction_count": 0, "external_support_count": 1, "weighted_support": 0.0, "weighted_contradiction": 0.0, "weighted_external_support": 0.6, "total_evidence": 1, "confidence_score": 0.283, "over_expansion_score": 0.0, "under_claim_score": 0.375, "boundary_shift_score": 0.0, "color": "#16a34a"}}, {"type": "Feature", "geometry": {"type": "Point", "coordinates": [2.442307661466128, 6.367694222429447]}, "properties": {"chef_index": 114, "name": "Dédokpo", "arrondissement": "4ème Arrondissement", "commune": "COTONOU", "lat": 6.367694222429447, "lng": 2.442307661466128, "support_count": 0, "contradiction_count": 0, "external_support_count": 1, "weighted_support": 0.0, "weighted_contradiction": 0.0, "weighted_external_support": 0.85, "total_evidence": 1, "confidence_score": 0.283, "over_expansion_score": 0.0, "under_claim_score": 0.459, "boundary_shift_score": 0.0, "color": "#16a34a"}}, {"type": "Feature", "geometry": {"type": "Point", "coordinates": [2.294956289943732, 6.40340131281441]}, "properties": {"chef_index": 115, "name": "Sodo\n", "arrondissement": "Godomey", "commune": "ABOMEY-CALAVI", "lat": 6.40340131281441, "lng": 2.294956289943732, "support_count": 0, "contradiction_count": 1, "external_support_count": 0, "weighted_support": 0.0, "weighted_contradiction": 0.85, "weighted_external_support": 0.0, "total_evidence": 1, "confidence_score": 0.283, "over_expansion_score": 0.459, "under_claim_score": 0.0, "boundary_shift_score": 0.0, "color": "#16a34a"}}, {"type": "Feature", "geometry": {"type": "Point", "coordinates": [2.439282012136696, 6.37717477958463]}, "properties": {"chef_index": 116, "name": "Kpankpan", "arrondissement": "3ème Arrondissement", "commune": "COTONOU", "lat": 6.37717477958463, "lng": 2.439282012136696, "support_count": 0, "contradiction_count": 1, "external_support_count": 0, "weighted_support": 0.0, "weighted_contradiction": 0.85, "weighted_external_support": 0.0, "total_evidence": 1, "confidence_score": 0.283, "over_expansion_score": 0.459, "under_claim_score": 0.0, "boundary_shift_score": 0.0, "color": "#16a34a"}}, {"type": "Feature", "geometry": {"type": "Point", "coordinates": [2.472004316594913, 6.367756095057556]}, "properties": {"chef_index": 117, "name": "Tanto", "arrondissement": "1er Arrondissement", "commune": "COTONOU", "lat": 6.367756095057556, "lng": 2.472004316594913, "support_count": 1, "contradiction_count": 0, "external_support_count": 0, "weighted_support": 0.85, "weighted_contradiction": 0.0, "weighted_external_support": 0.0, "total_evidence": 1, "confidence_score": 0.283, "over_expansion_score": 0.0, "under_claim_score": 0.0, "boundary_shift_score": 0.0, "color": "#16a34a"}}, {"type": "Feature", "geometry": {"type": "Point", "coordinates": [2.406858418732843, 6.369169355073549]}, "properties": {"chef_index": 118, "name": "Vodjè-Allobatin", "arrondissement": "11ème Arrondissement", "commune": "COTONOU", "lat": 6.369169355073549, "lng": 2.406858418732843, "support_count": 0, "contradiction_count": 0, "external_support_count": 1, "weighted_support": 0.0, "weighted_contradiction": 0.0, "weighted_external_support": 0.6, "total_evidence": 1, "confidence_score": 0.283, "over_expansion_score": 0.0, "under_claim_score": 0.375, "boundary_shift_score": 0.0, "color": "#16a34a"}}, {"type": "Feature", "geometry": {"type": "Point", "coordinates": [2.407534246817678, 6.377384298417058]}, "properties": {"chef_index": 122, "name": "Agontinkon", "arrondissement": "8ème Arrondissement", "commune": "COTONOU", "lat": 6.377384298417058, "lng": 2.407534246817678, "support_count": 0, "contradiction_count": 0, "external_support_count": 1, "weighted_support": 0.0, "weighted_contradiction": 0.0, "weighted_external_support": 0.85, "total_evidence": 1, "confidence_score": 0.283, "over_expansion_score": 0.0, "under_claim_score": 0.459, "boundary_shift_score": 0.0, "color": "#16a34a"}}, {"type": "Feature", "geometry": {"type": "Point", "coordinates": [2.475942714536939, 6.376949160761281]}, "properties": {"chef_index": 124, "name": "Avotrou-Houézèkomè", "arrondissement": "1er Arrondissement", "commune": "COTONOU", "lat": 6.376949160761281, "lng": 2.475942714536939, "support_count": 0, "contradiction_count": 1, "external_support_count": 0, "weighted_support": 0.0, "weighted_contradiction": 0.6, "weighted_external_support": 0.0, "total_evidence": 1, "confidence_score": 0.283, "over_expansion_score": 0.375, "under_claim_score": 0.0, "boundary_shift_score": 0.0, "color": "#16a34a"}}, {"type": "Feature", "geometry": {"type": "Point", "coordinates": [2.440702402008151, 6.352468634302518]}, "properties": {"chef_index": 130, "name": "Xwlacôdji-Plage", "arrondissement": "5ème Arrondissement", "commune": "COTONOU", "lat": 6.352468634302518, "lng": 2.440702402008151, "support_count": 0, "contradiction_count": 0, "external_support_count": 3, "weighted_support": 0.0, "weighted_contradiction": 0.0, "weighted_external_support": 1.8, "total_evidence": 3, "confidence_score": 0.632, "over_expansion_score": 0.0, "under_claim_score": 0.643, "boundary_shift_score": 0.0, "color": "#0891b2"}}, {"type": "Feature", "geometry": {"type": "Point", "coordinates": [2.440823900978928, 6.38868418666766]}, "properties": {"chef_index": 132, "name": "Hlacômey", "arrondissement": "3ème Arrondissement", "commune": "COTONOU", "lat": 6.38868418666766, "lng": 2.440823900978928, "support_count": 0, "contradiction_count": 2, "external_support_count": 1, "weighted_support": 0.0, "weighted_contradiction": 1.7, "weighted_external_support": 0.85, "total_evidence": 3, "confidence_score": 0.632, "over_expansion_score": 0.63, "under_claim_score": 0.459, "boundary_shift_score": 0.538, "color": "#7c3aed"}}, {"type": "Feature", "geometry": {"type": "Point", "coordinates": [2.337515666765913, 6.479119226062662]}, "properties": {"chef_index": 136, "name": "Cité-les-Palmiers\n", "arrondissement": "Abomey-Calavi", "commune": "ABOMEY-CALAVI", "lat": 6.479119226062662, "lng": 2.337515666765913, "support_count": 0, "contradiction_count": 2, "external_support_count": 1, "weighted_support": 0.0, "weighted_contradiction": 1.7, "weighted_external_support": 0.6, "total_evidence": 3, "confidence_score": 0.632, "over_expansion_score": 0.63, "under_claim_score": 0.375, "boundary_shift_score": 0.486, "color": "#7c3aed"}}, {"type": "Feature", "geometry": {"type": "Point", "coordinates": [2.441545517708419, 6.393526932430639]}, "properties": {"chef_index": 137, "name": "Agbatô", "arrondissement": "3ème Arrondissement", "commune": "COTONOU", "lat": 6.393526932430639, "lng": 2.441545517708419, "support_count": 0, "contradiction_count": 0, "external_support_count": 2, "weighted_support": 0.0, "weighted_contradiction": 0.0, "weighted_external_support": 1.7, "total_evidence": 2, "confidence_score": 0.487, "over_expansion_score": 0.0, "under_claim_score": 0.63, "boundary_shift_score": 0.0, "color": "#0891b2"}}, {"type": "Feature", "geometry": {"type": "Point", "coordinates": [2.427552872717358, 6.387585271283132]}, "properties": {"chef_index": 140, "name": "Ahouansori-Towéta", "arrondissement": "6ème Arrondissement", "commune": "COTONOU", "lat": 6.387585271283132, "lng": 2.427552872717358, "support_count": 0, "contradiction_count": 1, "external_support_count": 0, "weighted_support": 0.0, "weighted_contradiction": 0.6, "weighted_external_support": 0.0, "total_evidence": 1, "confidence_score": 0.283, "over_expansion_score": 0.375, "under_claim_score": 0.0, "boundary_shift_score": 0.0, "color": "#16a34a"}}, {"type": "Feature", "geometry": {"type": "Point", "coordinates": [2.48957796820289, 6.364730087893121]}, "properties": {"chef_index": 142, "name": "Tokplégbé", "arrondissement": "1er Arrondissement", "commune": "COTONOU", "lat": 6.364730087893121, "lng": 2.48957796820289, "support_count": 0, "contradiction_count": 0, "external_support_count": 2, "weighted_support": 0.0, "weighted_contradiction": 0.0, "weighted_external_support": 1.7, "total_evidence": 2, "confidence_score": 0.487, "over_expansion_score": 0.0, "under_claim_score": 0.63, "boundary_shift_score": 0.0, "color": "#0891b2"}}, {"type": "Feature", "geometry": {"type": "Point", "coordinates": [2.478232682918784, 6.368269807213661]}, "properties": {"chef_index": 148, "name": "Dandji", "arrondissement": "1er Arrondissement", "commune": "COTONOU", "lat": 6.368269807213661, "lng": 2.478232682918784, "support_count": 0, "contradiction_count": 1, "external_support_count": 0, "weighted_support": 0.0, "weighted_contradiction": 0.6, "weighted_external_support": 0.0, "total_evidence": 1, "confidence_score": 0.283, "over_expansion_score": 0.375, "under_claim_score": 0.0, "boundary_shift_score": 0.0, "color": "#16a34a"}}, {"type": "Feature", "geometry": {"type": "Point", "coordinates": [2.340681771621278, 6.372826762593936]}, "properties": {"chef_index": 149, "name": "Godomey-N'Gbèho", "arrondissement": "Godomey", "commune": "ABOMEY-CALAVI", "lat": 6.372826762593936, "lng": 2.340681771621278, "support_count": 0, "contradiction_count": 1, "external_support_count": 0, "weighted_support": 0.0, "weighted_contradiction": 0.85, "weighted_external_support": 0.0, "total_evidence": 1, "confidence_score": 0.283, "over_expansion_score": 0.459, "under_claim_score": 0.0, "boundary_shift_score": 0.0, "color": "#16a34a"}}, {"type": "Feature", "geometry": {"type": "Point", "coordinates": [2.336395432670797, 6.497410210573912]}, "properties": {"chef_index": 150, "name": "Zoundja\n", "arrondissement": "Abomey-Calavi", "commune": "ABOMEY-CALAVI", "lat": 6.497410210573912, "lng": 2.336395432670797, "support_count": 0, "contradiction_count": 0, "external_support_count": 3, "weighted_support": 0.0, "weighted_contradiction": 0.0, "weighted_external_support": 2.55, "total_evidence": 3, "confidence_score": 0.632, "over_expansion_score": 0.0, "under_claim_score": 0.718, "boundary_shift_score": 0.0, "color": "#0891b2"}}, {"type": "Feature", "geometry": {"type": "Point", "coordinates": [2.442342934579337, 6.364563039358073]}, "properties": {"chef_index": 151, "name": "Abokicodji-Lagune", "arrondissement": "4ème Arrondissement", "commune": "COTONOU", "lat": 6.364563039358073, "lng": 2.442342934579337, "support_count": 0, "contradiction_count": 0, "external_support_count": 1, "weighted_support": 0.0, "weighted_contradiction": 0.0, "weighted_external_support": 0.6, "total_evidence": 1, "confidence_score": 0.283, "over_expansion_score": 0.0, "under_claim_score": 0.375, "boundary_shift_score": 0.0, "color": "#16a34a"}}, {"type": "Feature", "geometry": {"type": "Point", "coordinates": [2.390598635178596, 6.392713160062153]}, "properties": {"chef_index": 153, "name": "Zogbo", "arrondissement": "9ème Arrondissement", "commune": "COTONOU", "lat": 6.392713160062153, "lng": 2.390598635178596, "support_count": 0, "contradiction_count": 0, "external_support_count": 3, "weighted_support": 0.0, "weighted_contradiction": 0.0, "weighted_external_support": 2.55, "total_evidence": 3, "confidence_score": 0.632, "over_expansion_score": 0.0, "under_claim_score": 0.718, "boundary_shift_score": 0.0, "color": "#0891b2"}}, {"type": "Feature", "geometry": {"type": "Point", "coordinates": [2.42536746152798, 6.363624629555242]}, "properties": {"chef_index": 154, "name": "Mifongou", "arrondissement": "5ème Arrondissement", "commune": "COTONOU", "lat": 6.363624629555242, "lng": 2.42536746152798, "support_count": 0, "contradiction_count": 3, "external_support_count": 0, "weighted_support": 0.0, "weighted_contradiction": 2.05, "weighted_external_support": 0.0, "total_evidence": 3, "confidence_score": 0.632, "over_expansion_score": 0.672, "under_claim_score": 0.0, "boundary_shift_score": 0.0, "color": "#dc2626"}}, {"type": "Feature", "geometry": {"type": "Point", "coordinates": [2.372758736668154, 6.381823623459121]}, "properties": {"chef_index": 156, "name": "Agla-Petit-Château", "arrondissement": "13ème Arrondissement", "commune": "COTONOU", "lat": 6.381823623459121, "lng": 2.372758736668154, "support_count": 0, "contradiction_count": 1, "external_support_count": 3, "weighted_support": 0.0, "weighted_contradiction": 0.6, "weighted_external_support": 1.8, "total_evidence": 4, "confidence_score": 0.736, "over_expansion_score": 0.375, "under_claim_score": 0.643, "boundary_shift_score": 0.491, "color": "#7c3aed"}}, {"type": "Feature", "geometry": {"type": "Point", "coordinates": [2.330312218138574, 6.354731938914918]}, "properties": {"chef_index": 162, "name": "Togbin-Fandji", "arrondissement": "Godomey", "commune": "ABOMEY-CALAVI", "lat": 6.354731938914918, "lng": 2.330312218138574, "support_count": 0, "contradiction_count": 1, "external_support_count": 0, "weighted_support": 0.0, "weighted_contradiction": 0.6, "weighted_external_support": 0.0, "total_evidence": 1, "confidence_score": 0.283, "over_expansion_score": 0.375, "under_claim_score": 0.0, "boundary_shift_score": 0.0, "color": "#16a34a"}}, {"type": "Feature", "geometry": {"type": "Point", "coordinates": [2.425342688161394, 6.360140776698062]}, "properties": {"chef_index": 163, "name": "Gbéto", "arrondissement": "5ème Arrondissement", "commune": "COTONOU", "lat": 6.360140776698062, "lng": 2.425342688161394, "support_count": 0, "contradiction_count": 0, "external_support_count": 6, "weighted_support": 0.0, "weighted_contradiction": 0.0, "weighted_external_support": 5.1, "total_evidence": 6, "confidence_score": 0.865, "over_expansion_score": 0.0, "under_claim_score": 0.836, "boundary_shift_score": 0.0, "color": "#0891b2"}}, {"type": "Feature", "geometry": {"type": "Point", "coordinates": [2.459257962851995, 6.36291986206149]}, "properties": {"chef_index": 167, "name": "Fifadji-Houto (Jak)", "arrondissement": "4ème Arrondissement", "commune": "COTONOU", "lat": 6.36291986206149, "lng": 2.459257962851995, "support_count": 0, "contradiction_count": 1, "external_support_count": 0, "weighted_support": 0.0, "weighted_contradiction": 0.85, "weighted_external_support": 0.0, "total_evidence": 1, "confidence_score": 0.283, "over_expansion_score": 0.459, "under_claim_score": 0.0, "boundary_shift_score": 0.0, "color": "#16a34a"}}, {"type": "Feature", "geometry": {"type": "Point", "coordinates": [2.391582450472842, 6.381106888687805]}, "properties": {"chef_index": 168, "name": "Missogbé", "arrondissement": "10ème Arrondissement", "commune": "COTONOU", "lat": 6.381106888687805, "lng": 2.391582450472842, "support_count": 0, "contradiction_count": 3, "external_support_count": 0, "weighted_support": 0.0, "weighted_contradiction": 2.55, "weighted_external_support": 0.0, "total_evidence": 3, "confidence_score": 0.632, "over_expansion_score": 0.718, "under_claim_score": 0.0, "boundary_shift_score": 0.0, "color": "#dc2626"}}, {"type": "Feature", "geometry": {"type": "Point", "coordinates": [2.359418029075937, 6.459125671141735]}, "properties": {"chef_index": 169, "name": "Agamandin", "arrondissement": "Abomey-Calavi", "commune": "ABOMEY-CALAVI", "lat": 6.459125671141735, "lng": 2.359418029075937, "support_count": 1, "contradiction_count": 2, "external_support_count": 0, "weighted_support": 0.85, "weighted_contradiction": 1.2, "weighted_external_support": 0.0, "total_evidence": 3, "confidence_score": 0.632, "over_expansion_score": 0.393, "under_claim_score": 0.0, "boundary_shift_score": 0.0, "color": "#16a34a"}}, {"type": "Feature", "geometry": {"type": "Point", "coordinates": [2.425647133995281, 6.375398793051792]}, "properties": {"chef_index": 171, "name": "Jéricho-Nord", "arrondissement": "6ème Arrondissement", "commune": "COTONOU", "lat": 6.375398793051792, "lng": 2.425647133995281, "support_count": 0, "contradiction_count": 1, "external_support_count": 0, "weighted_support": 0.0, "weighted_contradiction": 0.6, "weighted_external_support": 0.0, "total_evidence": 1, "confidence_score": 0.283, "over_expansion_score": 0.375, "under_claim_score": 0.0, "boundary_shift_score": 0.0, "color": "#16a34a"}}, {"type": "Feature", "geometry": {"type": "Point", "coordinates": [2.443651024740626, 6.370644768763935]}, "properties": {"chef_index": 172, "name": "Misséssin", "arrondissement": "4ème Arrondissement", "commune": "COTONOU", "lat": 6.370644768763935, "lng": 2.443651024740626, "support_count": 0, "contradiction_count": 0, "external_support_count": 1, "weighted_support": 0.0, "weighted_contradiction": 0.0, "weighted_external_support": 0.85, "total_evidence": 1, "confidence_score": 0.283, "over_expansion_score": 0.0, "under_claim_score": 0.459, "boundary_shift_score": 0.0, "color": "#16a34a"}}, {"type": "Feature", "geometry": {"type": "Point", "coordinates": [2.360020739305281, 6.468530734207171]}, "properties": {"chef_index": 173, "name": "Gbodjo", "arrondissement": "Abomey-Calavi", "commune": "ABOMEY-CALAVI", "lat": 6.468530734207171, "lng": 2.360020739305281, "support_count": 2, "contradiction_count": 0, "external_support_count": 0, "weighted_support": 1.7, "weighted_contradiction": 0.0, "weighted_external_support": 0.0, "total_evidence": 2, "confidence_score": 0.487, "over_expansion_score": 0.0, "under_claim_score": 0.0, "boundary_shift_score": 0.0, "color": "#16a34a"}}, {"type": "Feature", "geometry": {"type": "Point", "coordinates": [2.364254124197146, 6.392221838386909]}, "properties": {"chef_index": 174, "name": "Kindonou", "arrondissement": "9ème Arrondissement", "commune": "COTONOU", "lat": 6.392221838386909, "lng": 2.364254124197146, "support_count": 3, "contradiction_count": 3, "external_support_count": 0, "weighted_support": 2.55, "weighted_contradiction": 2.55, "weighted_external_support": 0.0, "total_evidence": 6, "confidence_score": 0.865, "over_expansion_score": 0.418, "under_claim_score": 0.0, "boundary_shift_score": 0.0, "color": "#16a34a"}}, {"type": "Feature", "geometry": {"type": "Point", "coordinates": [2.313502659171219, 6.410203100045705]}, "properties": {"chef_index": 175, "name": "Yénandjro\n", "arrondissement": "Godomey", "commune": "ABOMEY-CALAVI", "lat": 6.410203100045705, "lng": 2.313502659171219, "support_count": 0, "contradiction_count": 1, "external_support_count": 0, "weighted_support": 0.0, "weighted_contradiction": 0.85, "weighted_external_support": 0.0, "total_evidence": 1, "confidence_score": 0.283, "over_expansion_score": 0.459, "under_claim_score": 0.0, "boundary_shift_score": 0.0, "color": "#16a34a"}}, {"type": "Feature", "geometry": {"type": "Point", "coordinates": [2.340790672921356, 6.380663796391585]}, "properties": {"chef_index": 177, "name": "Dénou\n", "arrondissement": "Godomey", "commune": "ABOMEY-CALAVI", "lat": 6.380663796391585, "lng": 2.340790672921356, "support_count": 0, "contradiction_count": 0, "external_support_count": 2, "weighted_support": 0.0, "weighted_contradiction": 0.0, "weighted_external_support": 1.7, "total_evidence": 2, "confidence_score": 0.487, "over_expansion_score": 0.0, "under_claim_score": 0.63, "boundary_shift_score": 0.0, "color": "#0891b2"}}, {"type": "Feature", "geometry": {"type": "Point", "coordinates": [2.444560366968681, 6.377283366925354]}, "properties": {"chef_index": 183, "name": "Midombo", "arrondissement": "3ème Arrondissement", "commune": "COTONOU", "lat": 6.377283366925354, "lng": 2.444560366968681, "support_count": 0, "contradiction_count": 1, "external_support_count": 2, "weighted_support": 0.0, "weighted_contradiction": 0.6, "weighted_external_support": 1.7, "total_evidence": 3, "confidence_score": 0.632, "over_expansion_score": 0.375, "under_claim_score": 0.63, "boundary_shift_score": 0.486, "color": "#7c3aed"}}, {"type": "Feature", "geometry": {"type": "Point", "coordinates": [2.42814583008818, 6.391350335619639]}, "properties": {"chef_index": 185, "name": "Ladji", "arrondissement": "6ème Arrondissement", "commune": "COTONOU", "lat": 6.391350335619639, "lng": 2.42814583008818, "support_count": 2, "contradiction_count": 1, "external_support_count": 3, "weighted_support": 1.7, "weighted_contradiction": 0.6, "weighted_external_support": 2.55, "total_evidence": 6, "confidence_score": 0.865, "over_expansion_score": 0.182, "under_claim_score": 0.486, "boundary_shift_score": 0.297, "color": "#16a34a"}}, {"type": "Feature", "geometry": {"type": "Point", "coordinates": [2.364810813185319, 6.545052684455164]}, "properties": {"chef_index": 191, "name": "Agassa-Godomey", "arrondissement": "Akassato", "commune": "ABOMEY-CALAVI", "lat": 6.545052684455164, "lng": 2.364810813185319, "support_count": 0, "contradiction_count": 2, "external_support_count": 0, "weighted_support": 0.0, "weighted_contradiction": 1.7, "weighted_external_support": 0.0, "total_evidence": 2, "confidence_score": 0.487, "over_expansion_score": 0.63, "under_claim_score": 0.0, "boundary_shift_score": 0.0, "color": "#dc2626"}}, {"type": "Feature", "geometry": {"type": "Point", "coordinates": [2.26706983065117, 6.466030642035745]}, "properties": {"chef_index": 192, "name": "Dessato\n", "arrondissement": "Ouèdo", "commune": "ABOMEY-CALAVI", "lat": 6.466030642035745, "lng": 2.26706983065117, "support_count": 0, "contradiction_count": 1, "external_support_count": 0, "weighted_support": 0.0, "weighted_contradiction": 0.85, "weighted_external_support": 0.0, "total_evidence": 1, "confidence_score": 0.283, "over_expansion_score": 0.459, "under_claim_score": 0.0, "boundary_shift_score": 0.0, "color": "#16a34a"}}, {"type": "Feature", "geometry": {"type": "Point", "coordinates": [2.442458753685009, 6.371911800796783]}, "properties": {"chef_index": 193, "name": "Gbénonkpô", "arrondissement": "3ème Arrondissement", "commune": "COTONOU", "lat": 6.371911800796783, "lng": 2.442458753685009, "support_count": 0, "contradiction_count": 2, "external_support_count": 0, "weighted_support": 0.0, "weighted_contradiction": 1.7, "weighted_external_support": 0.0, "total_evidence": 2, "confidence_score": 0.487, "over_expansion_score": 0.63, "under_claim_score": 0.0, "boundary_shift_score": 0.0, "color": "#dc2626"}}, {"type": "Feature", "geometry": {"type": "Point", "coordinates": [2.429022229467125, 6.359771307551789]}, "properties": {"chef_index": 198, "name": "Dota", "arrondissement": "5ème Arrondissement", "commune": "COTONOU", "lat": 6.359771307551789, "lng": 2.429022229467125, "support_count": 0, "contradiction_count": 3, "external_support_count": 0, "weighted_support": 0.0, "weighted_contradiction": 2.55, "weighted_external_support": 0.0, "total_evidence": 3, "confidence_score": 0.632, "over_expansion_score": 0.718, "under_claim_score": 0.0, "boundary_shift_score": 0.0, "color": "#dc2626"}}, {"type": "Feature", "geometry": {"type": "Point", "coordinates": [2.296214491987767, 6.387333512261288]}, "properties": {"chef_index": 199, "name": "Fandji\n", "arrondissement": "Godomey", "commune": "ABOMEY-CALAVI", "lat": 6.387333512261288, "lng": 2.296214491987767, "support_count": 0, "contradiction_count": 2, "external_support_count": 0, "weighted_support": 0.0, "weighted_contradiction": 1.45, "weighted_external_support": 0.0, "total_evidence": 2, "confidence_score": 0.487, "over_expansion_score": 0.592, "under_claim_score": 0.0, "boundary_shift_score": 0.0, "color": "#dc2626"}}, {"type": "Feature", "geometry": {"type": "Point", "coordinates": [2.326013037459919, 6.427859223654188]}, "properties": {"chef_index": 201, "name": "Tankpè-Tanmè", "arrondissement": "Togba", "commune": "ABOMEY-CALAVI", "lat": 6.427859223654188, "lng": 2.326013037459919, "support_count": 0, "contradiction_count": 2, "external_support_count": 0, "weighted_support": 0.0, "weighted_contradiction": 1.45, "weighted_external_support": 0.0, "total_evidence": 2, "confidence_score": 0.487, "over_expansion_score": 0.592, "under_claim_score": 0.0, "boundary_shift_score": 0.0, "color": "#dc2626"}}, {"type": "Feature", "geometry": {"type": "Point", "coordinates": [2.395776219963597, 6.358596835367859]}, "properties": {"chef_index": 203, "name": "Cadjèhoun-Agonga", "arrondissement": "12ème Arrondissement", "commune": "COTONOU", "lat": 6.358596835367859, "lng": 2.395776219963597, "support_count": 0, "contradiction_count": 1, "external_support_count": 0, "weighted_support": 0.0, "weighted_contradiction": 0.6, "weighted_external_support": 0.0, "total_evidence": 1, "confidence_score": 0.283, "over_expansion_score": 0.375, "under_claim_score": 0.0, "boundary_shift_score": 0.0, "color": "#16a34a"}}, {"type": "Feature", "geometry": {"type": "Point", "coordinates": [2.429931355546123, 6.367090990215393]}, "properties": {"chef_index": 206, "name": "Sèdjro-Saint-Michel", "arrondissement": "7ème Arrondissement", "commune": "COTONOU", "lat": 6.367090990215393, "lng": 2.429931355546123, "support_count": 7, "contradiction_count": 2, "external_support_count": 6, "weighted_support": 4.2, "weighted_contradiction": 1.7, "weighted_external_support": 3.6, "total_evidence": 15, "confidence_score": 0.993, "over_expansion_score": 0.246, "under_claim_score": 0.409, "boundary_shift_score": 0.317, "color": "#7c3aed"}}, {"type": "Feature", "geometry": {"type": "Point", "coordinates": [2.269108453387185, 6.399896323011996]}, "properties": {"chef_index": 211, "name": "Sogan", "arrondissement": "Hêvié", "commune": "ABOMEY-CALAVI", "lat": 6.399896323011996, "lng": 2.269108453387185, "support_count": 0, "contradiction_count": 1, "external_support_count": 0, "weighted_support": 0.0, "weighted_contradiction": 0.85, "weighted_external_support": 0.0, "total_evidence": 1, "confidence_score": 0.283, "over_expansion_score": 0.459, "under_claim_score": 0.0, "boundary_shift_score": 0.0, "color": "#16a34a"}}, {"type": "Feature", "geometry": {"type": "Point", "coordinates": [2.430030816406597, 6.363856443776802]}, "properties": {"chef_index": 212, "name": "Gbédokpo", "arrondissement": "5ème Arrondissement", "commune": "COTONOU", "lat": 6.363856443776802, "lng": 2.430030816406597, "support_count": 0, "contradiction_count": 1, "external_support_count": 0, "weighted_support": 0.0, "weighted_contradiction": 0.85, "weighted_external_support": 0.0, "total_evidence": 1, "confidence_score": 0.283, "over_expansion_score": 0.459, "under_claim_score": 0.0, "boundary_shift_score": 0.0, "color": "#16a34a"}}, {"type": "Feature", "geometry": {"type": "Point", "coordinates": [2.347420083704914, 6.465892633120393]}, "properties": {"chef_index": 213, "name": "Fandji\n", "arrondissement": "Abomey-Calavi", "commune": "ABOMEY-CALAVI", "lat": 6.465892633120393, "lng": 2.347420083704914, "support_count": 0, "contradiction_count": 2, "external_support_count": 0, "weighted_support": 0.0, "weighted_contradiction": 1.45, "weighted_external_support": 0.0, "total_evidence": 2, "confidence_score": 0.487, "over_expansion_score": 0.592, "under_claim_score": 0.0, "boundary_shift_score": 0.0, "color": "#dc2626"}}, {"type": "Feature", "geometry": {"type": "Point", "coordinates": [2.41007050739592, 6.379432458452477]}, "properties": {"chef_index": 217, "name": "Houéhoun", "arrondissement": "8ème Arrondissement", "commune": "COTONOU", "lat": 6.379432458452477, "lng": 2.41007050739592, "support_count": 0, "contradiction_count": 1, "external_support_count": 0, "weighted_support": 0.0, "weighted_contradiction": 0.6, "weighted_external_support": 0.0, "total_evidence": 1, "confidence_score": 0.283, "over_expansion_score": 0.375, "under_claim_score": 0.0, "boundary_shift_score": 0.0, "color": "#16a34a"}}, {"type": "Feature", "geometry": {"type": "Point", "coordinates": [2.464195646538764, 6.370328175133891]}, "properties": {"chef_index": 220, "name": "Nvènamèdé", "arrondissement": "1er Arrondissement", "commune": "COTONOU", "lat": 6.370328175133891, "lng": 2.464195646538764, "support_count": 0, "contradiction_count": 1, "external_support_count": 0, "weighted_support": 0.0, "weighted_contradiction": 0.6, "weighted_external_support": 0.0, "total_evidence": 1, "confidence_score": 0.283, "over_expansion_score": 0.375, "under_claim_score": 0.0, "boundary_shift_score": 0.0, "color": "#16a34a"}}, {"type": "Feature", "geometry": {"type": "Point", "coordinates": [2.312681238012783, 6.451316631502892]}, "properties": {"chef_index": 221, "name": "Tokan", "arrondissement": "Togba", "commune": "ABOMEY-CALAVI", "lat": 6.451316631502892, "lng": 2.312681238012783, "support_count": 4, "contradiction_count": 0, "external_support_count": 1, "weighted_support": 3.4, "weighted_contradiction": 0.0, "weighted_external_support": 0.85, "total_evidence": 5, "confidence_score": 0.811, "over_expansion_score": 0.0, "under_claim_score": 0.162, "boundary_shift_score": 0.0, "color": "#16a34a"}}, {"type": "Feature", "geometry": {"type": "Point", "coordinates": [2.391825281707699, 6.373474566932848]}, "properties": {"chef_index": 222, "name": "Houéyihô-Tannou", "arrondissement": "11ème Arrondissement", "commune": "COTONOU", "lat": 6.373474566932848, "lng": 2.391825281707699, "support_count": 0, "contradiction_count": 1, "external_support_count": 0, "weighted_support": 0.0, "weighted_contradiction": 0.6, "weighted_external_support": 0.0, "total_evidence": 1, "confidence_score": 0.283, "over_expansion_score": 0.375, "under_claim_score": 0.0, "boundary_shift_score": 0.0, "color": "#16a34a"}}, {"type": "Feature", "geometry": {"type": "Point", "coordinates": [2.364886077460708, 6.492244749147511]}, "properties": {"chef_index": 228, "name": "Houèkè-Gbo", "arrondissement": "Akassato", "commune": "ABOMEY-CALAVI", "lat": 6.492244749147511, "lng": 2.364886077460708, "support_count": 0, "contradiction_count": 1, "external_support_count": 0, "weighted_support": 0.0, "weighted_contradiction": 0.6, "weighted_external_support": 0.0, "total_evidence": 1, "confidence_score": 0.283, "over_expansion_score": 0.375, "under_claim_score": 0.0, "boundary_shift_score": 0.0, "color": "#16a34a"}}, {"type": "Feature", "geometry": {"type": "Point", "coordinates": [2.398009031378049, 6.354921678177107]}, "properties": {"chef_index": 231, "name": "Haie-Vive-Cocotiers", "arrondissement": "12ème Arrondissement", "commune": "COTONOU", "lat": 6.354921678177107, "lng": 2.398009031378049, "support_count": 1, "contradiction_count": 0, "external_support_count": 1, "weighted_support": 0.6, "weighted_contradiction": 0.0, "weighted_external_support": 0.6, "total_evidence": 2, "confidence_score": 0.487, "over_expansion_score": 0.0, "under_claim_score": 0.273, "boundary_shift_score": 0.0, "color": "#16a34a"}}, {"type": "Feature", "geometry": {"type": "Point", "coordinates": [2.431539231644202, 6.389330948663305]}, "properties": {"chef_index": 234, "name": "Ahouansori-Towéta-Kpota", "arrondissement": "6ème Arrondissement", "commune": "COTONOU", "lat": 6.389330948663305, "lng": 2.431539231644202, "support_count": 0, "contradiction_count": 3, "external_support_count": 0, "weighted_support": 0.0, "weighted_contradiction": 2.55, "weighted_external_support": 0.0, "total_evidence": 3, "confidence_score": 0.632, "over_expansion_score": 0.718, "under_claim_score": 0.0, "boundary_shift_score": 0.0, "color": "#dc2626"}}, {"type": "Feature", "geometry": {"type": "Point", "coordinates": [2.33748612782928, 6.435227679926117]}, "properties": {"chef_index": 236, "name": "Tchinangbégbo\n", "arrondissement": "Abomey-Calavi", "commune": "ABOMEY-CALAVI", "lat": 6.435227679926117, "lng": 2.33748612782928, "support_count": 0, "contradiction_count": 2, "external_support_count": 0, "weighted_support": 0.0, "weighted_contradiction": 1.45, "weighted_external_support": 0.0, "total_evidence": 2, "confidence_score": 0.487, "over_expansion_score": 0.592, "under_claim_score": 0.0, "boundary_shift_score": 0.0, "color": "#dc2626"}}, {"type": "Feature", "geometry": {"type": "Point", "coordinates": [2.396318770901341, 6.388490106662927]}, "properties": {"chef_index": 239, "name": "Yénawa-Fifadji", "arrondissement": "10ème Arrondissement", "commune": "COTONOU", "lat": 6.388490106662927, "lng": 2.396318770901341, "support_count": 0, "contradiction_count": 1, "external_support_count": 0, "weighted_support": 0.0, "weighted_contradiction": 0.85, "weighted_external_support": 0.0, "total_evidence": 1, "confidence_score": 0.283, "over_expansion_score": 0.459, "under_claim_score": 0.0, "boundary_shift_score": 0.0, "color": "#16a34a"}}, {"type": "Feature", "geometry": {"type": "Point", "coordinates": [2.346964272713087, 6.384958316897507]}, "properties": {"chef_index": 242, "name": "Plateau\n", "arrondissement": "Godomey", "commune": "ABOMEY-CALAVI", "lat": 6.384958316897507, "lng": 2.346964272713087, "support_count": 0, "contradiction_count": 1, "external_support_count": 1, "weighted_support": 0.0, "weighted_contradiction": 0.6, "weighted_external_support": 0.85, "total_evidence": 2, "confidence_score": 0.487, "over_expansion_score": 0.375, "under_claim_score": 0.459, "boundary_shift_score": 0.415, "color": "#7c3aed"}}, {"type": "Feature", "geometry": {"type": "Point", "coordinates": [2.431525249936954, 6.359291516071079]}, "properties": {"chef_index": 244, "name": "Avlékété-Joncquet", "arrondissement": "5ème Arrondissement", "commune": "COTONOU", "lat": 6.359291516071079, "lng": 2.431525249936954, "support_count": 1, "contradiction_count": 0, "external_support_count": 2, "weighted_support": 0.6, "weighted_contradiction": 0.0, "weighted_external_support": 1.2, "total_evidence": 3, "confidence_score": 0.632, "over_expansion_score": 0.0, "under_claim_score": 0.429, "boundary_shift_score": 0.0, "color": "#16a34a"}}, {"type": "Feature", "geometry": {"type": "Point", "coordinates": [2.446855480385761, 6.369916675369505]}, "properties": {"chef_index": 245, "name": "Gbèdjèwin", "arrondissement": "4ème Arrondissement", "commune": "COTONOU", "lat": 6.369916675369505, "lng": 2.446855480385761, "support_count": 0, "contradiction_count": 1, "external_support_count": 0, "weighted_support": 0.0, "weighted_contradiction": 0.85, "weighted_external_support": 0.0, "total_evidence": 1, "confidence_score": 0.283, "over_expansion_score": 0.459, "under_claim_score": 0.0, "boundary_shift_score": 0.0, "color": "#16a34a"}}, {"type": "Feature", "geometry": {"type": "Point", "coordinates": [2.381211463130722, 6.390657530184552]}, "properties": {"chef_index": 250, "name": "Zogbohouè", "arrondissement": "9ème Arrondissement", "commune": "COTONOU", "lat": 6.390657530184552, "lng": 2.381211463130722, "support_count": 2, "contradiction_count": 1, "external_support_count": 0, "weighted_support": 1.7, "weighted_contradiction": 0.85, "weighted_external_support": 0.0, "total_evidence": 3, "confidence_score": 0.632, "over_expansion_score": 0.239, "under_claim_score": 0.0, "boundary_shift_score": 0.0, "color": "#16a34a"}}, {"type": "Feature", "geometry": {"type": "Point", "coordinates": [2.397775064392104, 6.382847037296844]}, "properties": {"chef_index": 252, "name": "Gbénonkpô", "arrondissement": "10ème Arrondissement", "commune": "COTONOU", "lat": 6.382847037296844, "lng": 2.397775064392104, "support_count": 0, "contradiction_count": 2, "external_support_count": 0, "weighted_support": 0.0, "weighted_contradiction": 1.7, "weighted_external_support": 0.0, "total_evidence": 2, "confidence_score": 0.487, "over_expansion_score": 0.63, "under_claim_score": 0.0, "boundary_shift_score": 0.0, "color": "#dc2626"}}, {"type": "Feature", "geometry": {"type": "Point", "coordinates": [2.346424148396105, 6.390356647794413]}, "properties": {"chef_index": 254, "name": "Yolomahouto", "arrondissement": "Godomey", "commune": "ABOMEY-CALAVI", "lat": 6.390356647794413, "lng": 2.346424148396105, "support_count": 0, "contradiction_count": 1, "external_support_count": 0, "weighted_support": 0.0, "weighted_contradiction": 0.85, "weighted_external_support": 0.0, "total_evidence": 1, "confidence_score": 0.283, "over_expansion_score": 0.459, "under_claim_score": 0.0, "boundary_shift_score": 0.0, "color": "#16a34a"}}, {"type": "Feature", "geometry": {"type": "Point", "coordinates": [2.354151802371591, 6.445881337612267]}, "properties": {"chef_index": 256, "name": "Agori", "arrondissement": "Abomey-Calavi", "commune": "ABOMEY-CALAVI", "lat": 6.445881337612267, "lng": 2.354151802371591, "support_count": 0, "contradiction_count": 1, "external_support_count": 2, "weighted_support": 0.0, "weighted_contradiction": 0.6, "weighted_external_support": 1.7, "total_evidence": 3, "confidence_score": 0.632, "over_expansion_score": 0.375, "under_claim_score": 0.63, "boundary_shift_score": 0.486, "color": "#7c3aed"}}, {"type": "Feature", "geometry": {"type": "Point", "coordinates": [2.43587997480736, 6.356530124670067]}, "properties": {"chef_index": 257, "name": "Guinkômey", "arrondissement": "5ème Arrondissement", "commune": "COTONOU", "lat": 6.356530124670067, "lng": 2.43587997480736, "support_count": 0, "contradiction_count": 1, "external_support_count": 1, "weighted_support": 0.0, "weighted_contradiction": 0.6, "weighted_external_support": 0.85, "total_evidence": 2, "confidence_score": 0.487, "over_expansion_score": 0.375, "under_claim_score": 0.459, "boundary_shift_score": 0.415, "color": "#7c3aed"}}, {"type": "Feature", "geometry": {"type": "Point", "coordinates": [2.347182671292094, 6.358345749428059]}, "properties": {"chef_index": 258, "name": "Akôgbato", "arrondissement": "12ème Arrondissement", "commune": "COTONOU", "lat": 6.358345749428059, "lng": 2.347182671292094, "support_count": 0, "contradiction_count": 0, "external_support_count": 1, "weighted_support": 0.0, "weighted_contradiction": 0.0, "weighted_external_support": 0.85, "total_evidence": 1, "confidence_score": 0.283, "over_expansion_score": 0.0, "under_claim_score": 0.459, "boundary_shift_score": 0.0, "color": "#16a34a"}}, {"type": "Feature", "geometry": {"type": "Point", "coordinates": [2.361351013448613, 6.562163550445428]}, "properties": {"chef_index": 270, "name": "Kpodji-Les-Monts", "arrondissement": "Akassato", "commune": "ABOMEY-CALAVI", "lat": 6.562163550445428, "lng": 2.361351013448613, "support_count": 0, "contradiction_count": 0, "external_support_count": 1, "weighted_support": 0.0, "weighted_contradiction": 0.0, "weighted_external_support": 0.6, "total_evidence": 1, "confidence_score": 0.283, "over_expansion_score": 0.0, "under_claim_score": 0.375, "boundary_shift_score": 0.0, "color": "#16a34a"}}, {"type": "Feature", "geometry": {"type": "Point", "coordinates": [2.367740697975946, 6.383055532076955]}, "properties": {"chef_index": 271, "name": "Agla-Les-Pylônes", "arrondissement": "13ème Arrondissement", "commune": "COTONOU", "lat": 6.383055532076955, "lng": 2.367740697975946, "support_count": 1, "contradiction_count": 0, "external_support_count": 2, "weighted_support": 0.6, "weighted_contradiction": 0.0, "weighted_external_support": 1.2, "total_evidence": 3, "confidence_score": 0.632, "over_expansion_score": 0.0, "under_claim_score": 0.429, "boundary_shift_score": 0.0, "color": "#16a34a"}}, {"type": "Feature", "geometry": {"type": "Point", "coordinates": [2.338044614421109, 6.423262040776687]}, "properties": {"chef_index": 274, "name": "Zogbadjè", "arrondissement": "Abomey-Calavi", "commune": "ABOMEY-CALAVI", "lat": 6.423262040776687, "lng": 2.338044614421109, "support_count": 8, "contradiction_count": 1, "external_support_count": 2, "weighted_support": 6.8, "weighted_contradiction": 0.6, "weighted_external_support": 1.7, "total_evidence": 11, "confidence_score": 0.974, "over_expansion_score": 0.071, "under_claim_score": 0.179, "boundary_shift_score": 0.113, "color": "#16a34a"}}, {"type": "Feature", "geometry": {"type": "Point", "coordinates": [2.363429270767735, 6.373973678226093]}, "properties": {"chef_index": 276, "name": "Agla-Agongbomey", "arrondissement": "13ème Arrondissement", "commune": "COTONOU", "lat": 6.373973678226093, "lng": 2.363429270767735, "support_count": 2, "contradiction_count": 0, "external_support_count": 0, "weighted_support": 1.2, "weighted_contradiction": 0.0, "weighted_external_support": 0.0, "total_evidence": 2, "confidence_score": 0.487, "over_expansion_score": 0.0, "under_claim_score": 0.0, "boundary_shift_score": 0.0, "color": "#16a34a"}}, {"type": "Feature", "geometry": {"type": "Point", "coordinates": [2.300386176203758, 6.385835011059971]}, "properties": {"chef_index": 279, "name": "Cocotomey", "arrondissement": "Godomey", "commune": "ABOMEY-CALAVI", "lat": 6.385835011059971, "lng": 2.300386176203758, "support_count": 3, "contradiction_count": 0, "external_support_count": 4, "weighted_support": 2.55, "weighted_contradiction": 0.0, "weighted_external_support": 3.4, "total_evidence": 7, "confidence_score": 0.903, "over_expansion_score": 0.0, "under_claim_score": 0.489, "boundary_shift_score": 0.0, "color": "#16a34a"}}, {"type": "Feature", "geometry": {"type": "Point", "coordinates": [2.299853153206487, 6.495076859534596]}, "properties": {"chef_index": 286, "name": "Drabo", "arrondissement": "Togba", "commune": "ABOMEY-CALAVI", "lat": 6.495076859534596, "lng": 2.299853153206487, "support_count": 0, "contradiction_count": 0, "external_support_count": 1, "weighted_support": 0.0, "weighted_contradiction": 0.0, "weighted_external_support": 0.85, "total_evidence": 1, "confidence_score": 0.283, "over_expansion_score": 0.0, "under_claim_score": 0.459, "boundary_shift_score": 0.0, "color": "#16a34a"}}, {"type": "Feature", "geometry": {"type": "Point", "coordinates": [2.432568212999587, 6.371018469496023]}, "properties": {"chef_index": 287, "name": "Dantôkpa", "arrondissement": "6ème Arrondissement", "commune": "COTONOU", "lat": 6.371018469496023, "lng": 2.432568212999587, "support_count": 2, "contradiction_count": 0, "external_support_count": 0, "weighted_support": 1.7, "weighted_contradiction": 0.0, "weighted_external_support": 0.0, "total_evidence": 2, "confidence_score": 0.487, "over_expansion_score": 0.0, "under_claim_score": 0.0, "boundary_shift_score": 0.0, "color": "#16a34a"}}, {"type": "Feature", "geometry": {"type": "Point", "coordinates": [2.385528716120703, 6.365765743773713]}, "properties": {"chef_index": 292, "name": "Gbèdégbé", "arrondissement": "13ème Arrondissement", "commune": "COTONOU", "lat": 6.365765743773713, "lng": 2.385528716120703, "support_count": 1, "contradiction_count": 0, "external_support_count": 0, "weighted_support": 0.85, "weighted_contradiction": 0.0, "weighted_external_support": 0.0, "total_evidence": 1, "confidence_score": 0.283, "over_expansion_score": 0.0, "under_claim_score": 0.0, "boundary_shift_score": 0.0, "color": "#16a34a"}}, {"type": "Feature", "geometry": {"type": "Point", "coordinates": [2.346280095006697, 6.53704494492878]}, "properties": {"chef_index": 293, "name": "Gbétagbo", "arrondissement": "Akassato", "commune": "ABOMEY-CALAVI", "lat": 6.53704494492878, "lng": 2.346280095006697, "support_count": 1, "contradiction_count": 1, "external_support_count": 2, "weighted_support": 0.85, "weighted_contradiction": 0.6, "weighted_external_support": 1.7, "total_evidence": 4, "confidence_score": 0.736, "over_expansion_score": 0.245, "under_claim_score": 0.479, "boundary_shift_score": 0.342, "color": "#7c3aed"}}, {"type": "Feature", "geometry": {"type": "Point", "coordinates": [2.283491817678333, 6.36976615675345]}, "properties": {"chef_index": 294, "name": "Djèkpota", "arrondissement": "Godomey", "commune": "ABOMEY-CALAVI", "lat": 6.36976615675345, "lng": 2.283491817678333, "support_count": 1, "contradiction_count": 0, "external_support_count": 0, "weighted_support": 0.85, "weighted_contradiction": 0.0, "weighted_external_support": 0.0, "total_evidence": 1, "confidence_score": 0.283, "over_expansion_score": 0.0, "under_claim_score": 0.0, "boundary_shift_score": 0.0, "color": "#16a34a"}}, {"type": "Feature", "geometry": {"type": "Point", "coordinates": [2.3461242667591, 6.49141290548024]}, "properties": {"chef_index": 297, "name": "Zopah-Akassato", "arrondissement": "Akassato", "commune": "ABOMEY-CALAVI", "lat": 6.49141290548024, "lng": 2.3461242667591, "support_count": 0, "contradiction_count": 2, "external_support_count": 0, "weighted_support": 0.0, "weighted_contradiction": 1.45, "weighted_external_support": 0.0, "total_evidence": 2, "confidence_score": 0.487, "over_expansion_score": 0.592, "under_claim_score": 0.0, "boundary_shift_score": 0.0, "color": "#dc2626"}}, {"type": "Feature", "geometry": {"type": "Point", "coordinates": [2.318434759154452, 6.459212335618542]}, "properties": {"chef_index": 298, "name": "Ahossougbéta", "arrondissement": "Togba", "commune": "ABOMEY-CALAVI", "lat": 6.459212335618542, "lng": 2.318434759154452, "support_count": 0, "contradiction_count": 2, "external_support_count": 0, "weighted_support": 0.0, "weighted_contradiction": 1.45, "weighted_external_support": 0.0, "total_evidence": 2, "confidence_score": 0.487, "over_expansion_score": 0.592, "under_claim_score": 0.0, "boundary_shift_score": 0.0, "color": "#dc2626"}}, {"type": "Feature", "geometry": {"type": "Point", "coordinates": [2.30851225496917, 6.484521446433421]}, "properties": {"chef_index": 303, "name": "Ouéga-Agué", "arrondissement": "Togba", "commune": "ABOMEY-CALAVI", "lat": 6.484521446433421, "lng": 2.30851225496917, "support_count": 1, "contradiction_count": 0, "external_support_count": 0, "weighted_support": 1.0, "weighted_contradiction": 0.0, "weighted_external_support": 0.0, "total_evidence": 1, "confidence_score": 0.283, "over_expansion_score": 0.0, "under_claim_score": 0.0, "boundary_shift_score": 0.0, "color": "#16a34a"}}, {"type": "Feature", "geometry": {"type": "Point", "coordinates": [2.36494856158701, 6.675582143600403]}, "properties": {"chef_index": 304, "name": "Kpanroun", "arrondissement": "Kpanroun", "commune": "ABOMEY-CALAVI", "lat": 6.675582143600403, "lng": 2.36494856158701, "support_count": 2, "contradiction_count": 0, "external_support_count": 0, "weighted_support": 1.7, "weighted_contradiction": 0.0, "weighted_external_support": 0.0, "total_evidence": 2, "confidence_score": 0.487, "over_expansion_score": 0.0, "under_claim_score": 0.0, "boundary_shift_score": 0.0, "color": "#16a34a"}}, {"type": "Feature", "geometry": {"type": "Point", "coordinates": [2.243794160106147, 6.447090144798646]}, "properties": {"chef_index": 305, "name": "Hêvié", "arrondissement": "Hêvié", "commune": "ABOMEY-CALAVI", "lat": 6.447090144798646, "lng": 2.243794160106147, "support_count": 0, "contradiction_count": 0, "external_support_count": 1, "weighted_support": 0.0, "weighted_contradiction": 0.0, "weighted_external_support": 0.85, "total_evidence": 1, "confidence_score": 0.283, "over_expansion_score": 0.0, "under_claim_score": 0.459, "boundary_shift_score": 0.0, "color": "#16a34a"}}, {"type": "Feature", "geometry": {"type": "Point", "coordinates": [2.259939973131943, 6.4561540112843]}, "properties": {"chef_index": 307, "name": "Ouèdo", "arrondissement": "Ouèdo", "commune": "ABOMEY-CALAVI", "lat": 6.4561540112843, "lng": 2.259939973131943, "support_count": 1, "contradiction_count": 0, "external_support_count": 1, "weighted_support": 0.85, "weighted_contradiction": 0.0, "weighted_external_support": 0.85, "total_evidence": 2, "confidence_score": 0.487, "over_expansion_score": 0.0, "under_claim_score": 0.315, "boundary_shift_score": 0.0, "color": "#16a34a"}}, {"type": "Feature", "geometry": {"type": "Point", "coordinates": [2.299820627390529, 6.559616245688551]}, "properties": {"chef_index": 308, "name": "Golo-Djigbé", "arrondissement": "Golo-Djigbé", "commune": "ABOMEY-CALAVI", "lat": 6.559616245688551, "lng": 2.299820627390529, "support_count": 2, "contradiction_count": 0, "external_support_count": 0, "weighted_support": 2.0, "weighted_contradiction": 0.0, "weighted_external_support": 0.0, "total_evidence": 2, "confidence_score": 0.487, "over_expansion_score": 0.0, "under_claim_score": 0.0, "boundary_shift_score": 0.0, "color": "#16a34a"}}, {"type": "Feature", "geometry": {"type": "Point", "coordinates": [2.295115343495001, 6.4441601919452]}, "properties": {"chef_index": 309, "name": "Togba_Maria-Gléta", "arrondissement": "Togba", "commune": "Abomey-Calavi", "lat": 6.4441601919452, "lng": 2.295115343495001, "support_count": 0, "contradiction_count": 0, "external_support_count": 8, "weighted_support": 0.0, "weighted_contradiction": 0.0, "weighted_external_support": 4.8, "total_evidence": 8, "confidence_score": 0.931, "over_expansion_score": 0.0, "under_claim_score": 0.828, "boundary_shift_score": 0.0, "color": "#0891b2"}}]}