{"type": "FeatureCollection", "source": "OSM amenities (ODbL)", "audit_only": false, "cluster_eps_m": 300, "confidence_thresholds": {"HIGH": 3, "MEDIUM": 2}, "features": [{"type": "Feature", "geometry": {"type": "Point", "coordinates": [2.4271714799999997, 6.3650752]}, "properties": {"cluster_id": 0, "n_pois": 5, "dominant_poi_quartier": "Gbéto", "current_majority_owner": "Sèdjro-Saint-Michel", "confidence": "MEDIUM", "votes_top": 2, "votes_runner_up": 1, "conflicted": true, "suggested_correction": "reassign roads currently owned by 'Sèdjro-Saint-Michel' near this cluster to 'Gbéto'", "poi_names": ["SGBBE agence saint michel", "Eglise Saint Michel Gbéto de Cotonou", "PASE C 109 SCOA GBETO", "PASE C 481 ESPACE DINA", "Eglise Saint Michel Gbéto de Cotonou"], "color": "#dc2626", "radius": 6, "gmaps_link": "https://www.google.com/maps/@6.365075,2.427171,18z"}}, {"type": "Feature", "geometry": {"type": "Point", "coordinates": [2.3898937250000003, 6.378255775]}, "properties": {"cluster_id": 1, "n_pois": 4, "dominant_poi_quartier": "Védokô", "current_majority_owner": "Missogbé", "confidence": "MEDIUM", "votes_top": 2, "votes_runner_up": 1, "conflicted": true, "suggested_correction": "reassign roads currently owned by 'Missogbé' near this cluster to 'Védokô'", "poi_names": ["Pharmacie Marché Vedoko", "Église baptiste de Vêdoko", "Marché Vêdoko", "Paroisse Jésus Eucharistie"], "color": "#dc2626", "radius": 6, "gmaps_link": "https://www.google.com/maps/@6.378256,2.389894,18z"}}, {"type": "Feature", "geometry": {"type": "Point", "coordinates": [2.4288772333333335, 6.3596563999999995]}, "properties": {"cluster_id": 2, "n_pois": 3, "dominant_poi_quartier": "Gbéto", "current_majority_owner": "Dota", "confidence": "MEDIUM", "votes_top": 2, "votes_runner_up": 1, "conflicted": true, "suggested_correction": "reassign roads currently owned by 'Dota' near this cluster to 'Gbéto'", "poi_names": ["École Maternelle Publique Gbéto Cotonou Lagune", "PASE C 7 SCOA GBETO", "Tchiep Guinkomey"], "color": "#dc2626", "radius": 6, "gmaps_link": "https://www.google.com/maps/@6.359656,2.428877,18z"}}, {"type": "Feature", "geometry": {"type": "Point", "coordinates": [2.4305568333333336, 6.390809233333333]}, "properties": {"cluster_id": 3, "n_pois": 3, "dominant_poi_quartier": "Ladji", "current_majority_owner": "Ahouansori-Towéta-Kpota", "confidence": "MEDIUM", "votes_top": 2, "votes_runner_up": 1, "conflicted": true, "suggested_correction": "reassign roads currently owned by 'Ahouansori-Towéta-Kpota' near this cluster to 'Ladji'", "poi_names": ["École Maternelle Privée Espace Éveil", "Église protestante de ladji", "Église catholique Saint-Christophe d’Ayimlonfidé-Ladji"], "color": "#dc2626", "radius": 6, "gmaps_link": "https://www.google.com/maps/@6.390809,2.430557,18z"}}, {"type": "Feature", "geometry": {"type": "Point", "coordinates": [2.4852955333333333, 6.366842299999999]}, "properties": {"cluster_id": 4, "n_pois": 3, "dominant_poi_quartier": "Tokplégbé", "current_majority_owner": "Dandji-Hokanmè", "confidence": "MEDIUM", "votes_top": 2, "votes_runner_up": 1, "conflicted": true, "suggested_correction": "reassign roads currently owned by 'Dandji-Hokanmè' near this cluster to 'Tokplégbé'", "poi_names": ["PASE DRL2 SONEB CHÂTEAU", "Commissariat de Tokplégbé", "Marché Moderne de Tokplègbè"], "color": "#dc2626", "radius": 6, "gmaps_link": "https://www.google.com/maps/@6.366842,2.485296,18z"}}, {"type": "Feature", "geometry": {"type": "Point", "coordinates": [2.30601715, 6.462786449999999]}, "properties": {"cluster_id": 5, "n_pois": 2, "dominant_poi_quartier": "Togba_Maria-Gléta", "current_majority_owner": "Ouéga-Tokpa", "confidence": "MEDIUM", "votes_top": 2, "votes_runner_up": 0, "conflicted": false, "suggested_correction": "reassign roads currently owned by 'Ouéga-Tokpa' near this cluster to 'Togba_Maria-Gléta'", "poi_names": ["Marché Togba", "Eglise céleste paroisse cité Jéhovah de Togba"], "color": "#dc2626", "radius": 6, "gmaps_link": "https://www.google.com/maps/@6.462786,2.306017,18z"}}, {"type": "Feature", "geometry": {"type": "Point", "coordinates": [2.36477975, 6.38914555]}, "properties": {"cluster_id": 6, "n_pois": 2, "dominant_poi_quartier": "Mènontin", "current_majority_owner": "Kindonou", "confidence": "MEDIUM", "votes_top": 2, "votes_runner_up": 0, "conflicted": false, "suggested_correction": "reassign roads currently owned by 'Kindonou' near this cluster to 'Mènontin'", "poi_names": ["Diamond Bank Agence Menontin", "Hôpital de Menontin"], "color": "#dc2626", "radius": 6, "gmaps_link": "https://www.google.com/maps/@6.389146,2.364780,18z"}}, {"type": "Feature", "geometry": {"type": "Point", "coordinates": [2.4429148, 6.3779105000000005]}, "properties": {"cluster_id": 7, "n_pois": 2, "dominant_poi_quartier": "Midombo", "current_majority_owner": "Kpankpan", "confidence": "LOW", "votes_top": 1, "votes_runner_up": 1, "conflicted": true, "suggested_correction": "reassign roads currently owned by 'Kpankpan' near this cluster to 'Midombo'", "poi_names": ["Pharmacie Midombo", "Complexe Scolaire Akpakpa Nord"], "color": "#fb923c", "radius": 4, "gmaps_link": "https://www.google.com/maps/@6.377911,2.442915,18z"}}, {"type": "Feature", "geometry": {"type": "Point", "coordinates": [2.3558002499999997, 6.45656425]}, "properties": {"cluster_id": 8, "n_pois": 2, "dominant_poi_quartier": "Sèdjro-Saint-Michel", "current_majority_owner": "Agamandin", "confidence": "LOW", "votes_top": 1, "votes_runner_up": 1, "conflicted": true, "suggested_correction": "reassign roads currently owned by 'Agamandin' near this cluster to 'Sèdjro-Saint-Michel'", "poi_names": ["Collège Jean Michel le Faucon", "Pharmacie Château d’eau"], "color": "#fb923c", "radius": 4, "gmaps_link": "https://www.google.com/maps/@6.456564,2.355800,18z"}}, {"type": "Feature", "geometry": {"type": "Point", "coordinates": [2.4404868000000004, 6.371943]}, "properties": {"cluster_id": 9, "n_pois": 2, "dominant_poi_quartier": "Midombo", "current_majority_owner": "Gbénonkpô", "confidence": "LOW", "votes_top": 1, "votes_runner_up": 1, "conflicted": true, "suggested_correction": "reassign roads currently owned by 'Gbénonkpô' near this cluster to 'Midombo'", "poi_names": ["Ecole Primaire de Midombo A et B", "PASE DRL2 C??? DEDOKPO"], "color": "#fb923c", "radius": 4, "gmaps_link": "https://www.google.com/maps/@6.371943,2.440487,18z"}}, {"type": "Feature", "geometry": {"type": "Point", "coordinates": [2.3268691500000003, 6.43905]}, "properties": {"cluster_id": 10, "n_pois": 2, "dominant_poi_quartier": "Agori", "current_majority_owner": "Fifonsi\n", "confidence": "MEDIUM", "votes_top": 2, "votes_runner_up": 0, "conflicted": false, "suggested_correction": "reassign roads currently owned by 'Fifonsi\n' near this cluster to 'Agori'", "poi_names": ["École Primaire Publique Agori Forêt", "Mosquée Agori forêt"], "color": "#dc2626", "radius": 6, "gmaps_link": "https://www.google.com/maps/@6.439050,2.326869,18z"}}, {"type": "Feature", "geometry": {"type": "Point", "coordinates": [2.30920345, 6.439697949999999]}, "properties": {"cluster_id": 11, "n_pois": 2, "dominant_poi_quartier": "Togba_Maria-Gléta", "current_majority_owner": "Houèto", "confidence": "MEDIUM", "votes_top": 2, "votes_runner_up": 0, "conflicted": false, "suggested_correction": "reassign roads currently owned by 'Houèto' near this cluster to 'Togba_Maria-Gléta'", "poi_names": ["Commissariat de Togba", "Commisariat de Togba"], "color": "#dc2626", "radius": 6, "gmaps_link": "https://www.google.com/maps/@6.439698,2.309203,18z"}}, {"type": "Feature", "geometry": {"type": "Point", "coordinates": [2.4527122500000003, 6.37488395]}, "properties": {"cluster_id": 12, "n_pois": 2, "dominant_poi_quartier": "Akpakpa-Dodomè", "current_majority_owner": "Lom-Nava", "confidence": "MEDIUM", "votes_top": 2, "votes_runner_up": 0, "conflicted": false, "suggested_correction": "reassign roads currently owned by 'Lom-Nava' near this cluster to 'Akpakpa-Dodomè'", "poi_names": ["Impact Centre Chrétien campus d'Akpakpa", "Impact Centre Chrétien Akpakpa"], "color": "#dc2626", "radius": 6, "gmaps_link": "https://www.google.com/maps/@6.374884,2.452712,18z"}}, {"type": "Feature", "geometry": {"type": "Point", "coordinates": [2.44163175, 6.3906209]}, "properties": {"cluster_id": 13, "n_pois": 2, "dominant_poi_quartier": "Agbatô", "current_majority_owner": "Hlacômey", "confidence": "MEDIUM", "votes_top": 2, "votes_runner_up": 0, "conflicted": false, "suggested_correction": "reassign roads currently owned by 'Hlacômey' near this cluster to 'Agbatô'", "poi_names": ["AGBATO CABZ", "Paroisse St. Joseph d'Agbato"], "color": "#dc2626", "radius": 6, "gmaps_link": "https://www.google.com/maps/@6.390621,2.441632,18z"}}, {"type": "Feature", "geometry": {"type": "Point", "coordinates": [2.3570884999999997, 6.545183550000001]}, "properties": {"cluster_id": 14, "n_pois": 2, "dominant_poi_quartier": "Gbétagbo", "current_majority_owner": "Agassa-Godomey", "confidence": "MEDIUM", "votes_top": 2, "votes_runner_up": 0, "conflicted": false, "suggested_correction": "reassign roads currently owned by 'Agassa-Godomey' near this cluster to 'Gbétagbo'", "poi_names": ["TELLA GBETAGBO", "ABERME GBETAGBO"], "color": "#dc2626", "radius": 6, "gmaps_link": "https://www.google.com/maps/@6.545184,2.357088,18z"}}, {"type": "Feature", "geometry": {"type": "Point", "coordinates": [2.3352245, 6.4018911]}, "properties": {"cluster_id": 15, "n_pois": 1, "dominant_poi_quartier": "Sèdjro-Saint-Michel", "current_majority_owner": "Djoukpa-Togoudo\n", "confidence": "LOW", "votes_top": 1, "votes_runner_up": 0, "conflicted": false, "suggested_correction": "reassign roads currently owned by 'Djoukpa-Togoudo\n' near this cluster to 'Sèdjro-Saint-Michel'", "poi_names": ["Saint Michel de Togoudo"], "color": "#fb923c", "radius": 4, "gmaps_link": "https://www.google.com/maps/@6.401891,2.335224,18z"}}, {"type": "Feature", "geometry": {"type": "Point", "coordinates": [2.3879721, 6.3900911]}, "properties": {"cluster_id": 16, "n_pois": 1, "dominant_poi_quartier": "Zogbo", "current_majority_owner": "Agounvocôdji", "confidence": "LOW", "votes_top": 1, "votes_runner_up": 0, "conflicted": false, "suggested_correction": "reassign roads currently owned by 'Agounvocôdji' near this cluster to 'Zogbo'", "poi_names": ["pharmacie Zogbo"], "color": "#fb923c", "radius": 4, "gmaps_link": "https://www.google.com/maps/@6.390091,2.387972,18z"}}, {"type": "Feature", "geometry": {"type": "Point", "coordinates": [2.298567, 6.3933187]}, "properties": {"cluster_id": 17, "n_pois": 1, "dominant_poi_quartier": "Cocotomey", "current_majority_owner": "Fandji\n", "confidence": "LOW", "votes_top": 1, "votes_runner_up": 0, "conflicted": false, "suggested_correction": "reassign roads currently owned by 'Fandji\n' near this cluster to 'Cocotomey'", "poi_names": ["AVE MARIA DE COCOTOMEY"], "color": "#fb923c", "radius": 4, "gmaps_link": "https://www.google.com/maps/@6.393319,2.298567,18z"}}, {"type": "Feature", "geometry": {"type": "Point", "coordinates": [2.3928528, 6.3558074]}, "properties": {"cluster_id": 18, "n_pois": 1, "dominant_poi_quartier": "Haie-Vive-Cocotiers", "current_majority_owner": "Cadjèhoun-Agonga", "confidence": "LOW", "votes_top": 1, "votes_runner_up": 0, "conflicted": false, "suggested_correction": "reassign roads currently owned by 'Cadjèhoun-Agonga' near this cluster to 'Haie-Vive-Cocotiers'", "poi_names": ["Ecole Les cocotiers"], "color": "#fb923c", "radius": 4, "gmaps_link": "https://www.google.com/maps/@6.355807,2.392853,18z"}}, {"type": "Feature", "geometry": {"type": "Point", "coordinates": [2.4220937, 6.3613121]}, "properties": {"cluster_id": 19, "n_pois": 1, "dominant_poi_quartier": "Agla-Petit-Château", "current_majority_owner": "Todoté", "confidence": "LOW", "votes_top": 1, "votes_runner_up": 0, "conflicted": false, "suggested_correction": "reassign roads currently owned by 'Todoté' near this cluster to 'Agla-Petit-Château'", "poi_names": ["Station Château d'Eau Sonacop"], "color": "#fb923c", "radius": 4, "gmaps_link": "https://www.google.com/maps/@6.361312,2.422094,18z"}}, {"type": "Feature", "geometry": {"type": "Point", "coordinates": [2.4051944, 6.3757063]}, "properties": {"cluster_id": 20, "n_pois": 1, "dominant_poi_quartier": "Agontinkon", "current_majority_owner": "Vodjè-Ayidoté", "confidence": "LOW", "votes_top": 1, "votes_runner_up": 0, "conflicted": false, "suggested_correction": "reassign roads currently owned by 'Vodjè-Ayidoté' near this cluster to 'Agontinkon'", "poi_names": ["Pharmacie Agontinkon"], "color": "#fb923c", "radius": 4, "gmaps_link": "https://www.google.com/maps/@6.375706,2.405194,18z"}}, {"type": "Feature", "geometry": {"type": "Point", "coordinates": [2.3351096, 6.3833491]}, "properties": {"cluster_id": 21, "n_pois": 1, "dominant_poi_quartier": "Espace-Saint", "current_majority_owner": "Ounvènoumèdé\n", "confidence": "LOW", "votes_top": 1, "votes_runner_up": 0, "conflicted": false, "suggested_correction": "reassign roads currently owned by 'Ounvènoumèdé\n' near this cluster to 'Espace-Saint'", "poi_names": ["Pharmacie Espace Santé"], "color": "#fb923c", "radius": 4, "gmaps_link": "https://www.google.com/maps/@6.383349,2.335110,18z"}}, {"type": "Feature", "geometry": {"type": "Point", "coordinates": [2.3726607, 6.3809501]}, "properties": {"cluster_id": 22, "n_pois": 1, "dominant_poi_quartier": "Agla-Les-Pylônes", "current_majority_owner": "Agla-Petit-Château", "confidence": "LOW", "votes_top": 1, "votes_runner_up": 0, "conflicted": false, "suggested_correction": "reassign roads currently owned by 'Agla-Petit-Château' near this cluster to 'Agla-Les-Pylônes'", "poi_names": ["Les Pylônes"], "color": "#fb923c", "radius": 4, "gmaps_link": "https://www.google.com/maps/@6.380950,2.372661,18z"}}, {"type": "Feature", "geometry": {"type": "Point", "coordinates": [2.3519159, 6.4493809]}, "properties": {"cluster_id": 23, "n_pois": 1, "dominant_poi_quartier": "Cité-la-Victoire\n", "current_majority_owner": "Agori", "confidence": "LOW", "votes_top": 1, "votes_runner_up": 0, "conflicted": false, "suggested_correction": "reassign roads currently owned by 'Agori' near this cluster to 'Cité-la-Victoire\n'", "poi_names": ["Restaurant La Victoire"], "color": "#fb923c", "radius": 4, "gmaps_link": "https://www.google.com/maps/@6.449381,2.351916,18z"}}, {"type": "Feature", "geometry": {"type": "Point", "coordinates": [2.3170308, 6.4581063]}, "properties": {"cluster_id": 24, "n_pois": 1, "dominant_poi_quartier": "Tokan", "current_majority_owner": "Ahossougbéta", "confidence": "LOW", "votes_top": 1, "votes_runner_up": 0, "conflicted": false, "suggested_correction": "reassign roads currently owned by 'Ahossougbéta' near this cluster to 'Tokan'", "poi_names": ["Marché de Tokan"], "color": "#fb923c", "radius": 4, "gmaps_link": "https://www.google.com/maps/@6.458106,2.317031,18z"}}, {"type": "Feature", "geometry": {"type": "Point", "coordinates": [2.4651303, 6.3674559]}, "properties": {"cluster_id": 25, "n_pois": 1, "dominant_poi_quartier": "Akpakpa-Dodomè", "current_majority_owner": "Nvènamèdé", "confidence": "LOW", "votes_top": 1, "votes_runner_up": 0, "conflicted": false, "suggested_correction": "reassign roads currently owned by 'Nvènamèdé' near this cluster to 'Akpakpa-Dodomè'", "poi_names": ["Super U Akpakpa"], "color": "#fb923c", "radius": 4, "gmaps_link": "https://www.google.com/maps/@6.367456,2.465130,18z"}}, {"type": "Feature", "geometry": {"type": "Point", "coordinates": [2.3040236, 6.457779]}, "properties": {"cluster_id": 26, "n_pois": 1, "dominant_poi_quartier": "Togba_Maria-Gléta", "current_majority_owner": "Somè", "confidence": "LOW", "votes_top": 1, "votes_runner_up": 0, "conflicted": false, "suggested_correction": "reassign roads currently owned by 'Somè' near this cluster to 'Togba_Maria-Gléta'", "poi_names": ["Complexe scolaire de Togba"], "color": "#fb923c", "radius": 4, "gmaps_link": "https://www.google.com/maps/@6.457779,2.304024,18z"}}, {"type": "Feature", "geometry": {"type": "Point", "coordinates": [2.3073405, 6.5050002]}, "properties": {"cluster_id": 27, "n_pois": 1, "dominant_poi_quartier": "Drabo", "current_majority_owner": "Kansounkpa", "confidence": "LOW", "votes_top": 1, "votes_runner_up": 0, "conflicted": false, "suggested_correction": "reassign roads currently owned by 'Kansounkpa' near this cluster to 'Drabo'", "poi_names": ["ECOLE PRIMAIRE PUBLIQUE DE DRABO"], "color": "#fb923c", "radius": 4, "gmaps_link": "https://www.google.com/maps/@6.505000,2.307341,18z"}}, {"type": "Feature", "geometry": {"type": "Point", "coordinates": [2.3071512, 6.4707828]}, "properties": {"cluster_id": 28, "n_pois": 1, "dominant_poi_quartier": "Togba_Maria-Gléta", "current_majority_owner": "Ouéga-Tokpa", "confidence": "LOW", "votes_top": 1, "votes_runner_up": 0, "conflicted": false, "suggested_correction": "reassign roads currently owned by 'Ouéga-Tokpa' near this cluster to 'Togba_Maria-Gléta'", "poi_names": ["École primaire publique Ouega-Togba"], "color": "#fb923c", "radius": 4, "gmaps_link": "https://www.google.com/maps/@6.470783,2.307151,18z"}}, {"type": "Feature", "geometry": {"type": "Point", "coordinates": [2.2659583, 6.407175]}, "properties": {"cluster_id": 29, "n_pois": 1, "dominant_poi_quartier": "Hêvié", "current_majority_owner": "Sogan", "confidence": "LOW", "votes_top": 1, "votes_runner_up": 0, "conflicted": false, "suggested_correction": "reassign roads currently owned by 'Sogan' near this cluster to 'Hêvié'", "poi_names": ["Pharmacie Hêvié"], "color": "#fb923c", "radius": 4, "gmaps_link": "https://www.google.com/maps/@6.407175,2.265958,18z"}}, {"type": "Feature", "geometry": {"type": "Point", "coordinates": [2.2763793, 6.455982]}, "properties": {"cluster_id": 30, "n_pois": 1, "dominant_poi_quartier": "Ouèdo", "current_majority_owner": "Dessato\n", "confidence": "LOW", "votes_top": 1, "votes_runner_up": 0, "conflicted": false, "suggested_correction": "reassign roads currently owned by 'Dessato\n' near this cluster to 'Ouèdo'", "poi_names": ["Pharmacie Les Graces Divines de Ouedo"], "color": "#fb923c", "radius": 4, "gmaps_link": "https://www.google.com/maps/@6.455982,2.276379,18z"}}, {"type": "Feature", "geometry": {"type": "Point", "coordinates": [2.424243, 6.3739488]}, "properties": {"cluster_id": 31, "n_pois": 1, "dominant_poi_quartier": "Espace-Saint", "current_majority_owner": "Jéricho-Nord", "confidence": "LOW", "votes_top": 1, "votes_runner_up": 0, "conflicted": false, "suggested_correction": "reassign roads currently owned by 'Jéricho-Nord' near this cluster to 'Espace-Saint'", "poi_names": ["Espace beauté"], "color": "#fb923c", "radius": 4, "gmaps_link": "https://www.google.com/maps/@6.373949,2.424243,18z"}}, {"type": "Feature", "geometry": {"type": "Point", "coordinates": [2.3422656, 6.4862203]}, "properties": {"cluster_id": 32, "n_pois": 1, "dominant_poi_quartier": "Zoundja\n", "current_majority_owner": "Zopah-Akassato", "confidence": "LOW", "votes_top": 1, "votes_runner_up": 0, "conflicted": false, "suggested_correction": "reassign roads currently owned by 'Zopah-Akassato' near this cluster to 'Zoundja\n'", "poi_names": ["EPP Zoundja"], "color": "#fb923c", "radius": 4, "gmaps_link": "https://www.google.com/maps/@6.486220,2.342266,18z"}}, {"type": "Feature", "geometry": {"type": "Point", "coordinates": [2.3652314, 6.4973275]}, "properties": {"cluster_id": 33, "n_pois": 1, "dominant_poi_quartier": "Houèkè-Honou", "current_majority_owner": "Houèkè-Gbo", "confidence": "LOW", "votes_top": 1, "votes_runner_up": 0, "conflicted": false, "suggested_correction": "reassign roads currently owned by 'Houèkè-Gbo' near this cluster to 'Houèkè-Honou'", "poi_names": ["EPP Houeke Honou"], "color": "#fb923c", "radius": 4, "gmaps_link": "https://www.google.com/maps/@6.497327,2.365231,18z"}}, {"type": "Feature", "geometry": {"type": "Point", "coordinates": [2.3392809, 6.4348373]}, "properties": {"cluster_id": 34, "n_pois": 1, "dominant_poi_quartier": "Zogbadjè", "current_majority_owner": "Tchinangbégbo\n", "confidence": "LOW", "votes_top": 1, "votes_runner_up": 0, "conflicted": false, "suggested_correction": "reassign roads currently owned by 'Tchinangbégbo\n' near this cluster to 'Zogbadjè'", "poi_names": ["École Primaire Publique Zogbadje"], "color": "#fb923c", "radius": 4, "gmaps_link": "https://www.google.com/maps/@6.434837,2.339281,18z"}}, {"type": "Feature", "geometry": {"type": "Point", "coordinates": [2.3262892, 6.4871665]}, "properties": {"cluster_id": 35, "n_pois": 1, "dominant_poi_quartier": "Zoundja\n", "current_majority_owner": "Cité-les-Palmiers\n", "confidence": "LOW", "votes_top": 1, "votes_runner_up": 0, "conflicted": false, "suggested_correction": "reassign roads currently owned by 'Cité-les-Palmiers\n' near this cluster to 'Zoundja\n'", "poi_names": ["École primaire publique Zoundja 2"], "color": "#fb923c", "radius": 4, "gmaps_link": "https://www.google.com/maps/@6.487166,2.326289,18z"}}, {"type": "Feature", "geometry": {"type": "Point", "coordinates": [2.3407759, 6.3741733]}, "properties": {"cluster_id": 36, "n_pois": 1, "dominant_poi_quartier": "Fignonhou\n", "current_majority_owner": "Godomey-N'Gbèho", "confidence": "LOW", "votes_top": 1, "votes_runner_up": 0, "conflicted": false, "suggested_correction": "reassign roads currently owned by 'Godomey-N'Gbèho' near this cluster to 'Fignonhou\n'", "poi_names": ["Pharmacie Godomey-Fignonhou"], "color": "#fb923c", "radius": 4, "gmaps_link": "https://www.google.com/maps/@6.374173,2.340776,18z"}}, {"type": "Feature", "geometry": {"type": "Point", "coordinates": [2.3655613, 6.3498053]}, "properties": {"cluster_id": 37, "n_pois": 1, "dominant_poi_quartier": "Xwlacôdji-Plage", "current_majority_owner": "Fiyégnon-Jacquot", "confidence": "LOW", "votes_top": 1, "votes_runner_up": 0, "conflicted": false, "suggested_correction": "reassign roads currently owned by 'Fiyégnon-Jacquot' near this cluster to 'Xwlacôdji-Plage'", "poi_names": ["Resto plage"], "color": "#fb923c", "radius": 4, "gmaps_link": "https://www.google.com/maps/@6.349805,2.365561,18z"}}, {"type": "Feature", "geometry": {"type": "Point", "coordinates": [2.3489161, 6.4728845]}, "properties": {"cluster_id": 38, "n_pois": 1, "dominant_poi_quartier": "Espace-Saint", "current_majority_owner": "Fandji\n", "confidence": "LOW", "votes_top": 1, "votes_runner_up": 0, "conflicted": false, "suggested_correction": "reassign roads currently owned by 'Fandji\n' near this cluster to 'Espace-Saint'", "poi_names": ["Espace Scyca"], "color": "#fb923c", "radius": 4, "gmaps_link": "https://www.google.com/maps/@6.472885,2.348916,18z"}}, {"type": "Feature", "geometry": {"type": "Point", "coordinates": [2.434455, 6.3888367]}, "properties": {"cluster_id": 39, "n_pois": 1, "dominant_poi_quartier": "Ladji", "current_majority_owner": "Ahouansori-Towéta-Kpota", "confidence": "LOW", "votes_top": 1, "votes_runner_up": 0, "conflicted": false, "suggested_correction": "reassign roads currently owned by 'Ahouansori-Towéta-Kpota' near this cluster to 'Ladji'", "poi_names": ["Marché  de ladji"], "color": "#fb923c", "radius": 4, "gmaps_link": "https://www.google.com/maps/@6.388837,2.434455,18z"}}, {"type": "Feature", "geometry": {"type": "Point", "coordinates": [2.3439885, 6.5418553]}, "properties": {"cluster_id": 40, "n_pois": 1, "dominant_poi_quartier": "Agla-Les-Pylônes", "current_majority_owner": "Gbétagbo", "confidence": "LOW", "votes_top": 1, "votes_runner_up": 0, "conflicted": false, "suggested_correction": "reassign roads currently owned by 'Gbétagbo' near this cluster to 'Agla-Les-Pylônes'", "poi_names": ["Ifedon des Pylones"], "color": "#fb923c", "radius": 4, "gmaps_link": "https://www.google.com/maps/@6.541855,2.343989,18z"}}, {"type": "Feature", "geometry": {"type": "Point", "coordinates": [2.3371333, 6.4254833]}, "properties": {"cluster_id": 41, "n_pois": 1, "dominant_poi_quartier": "Cité-les-Palmiers\n", "current_majority_owner": "Zogbadjè", "confidence": "LOW", "votes_top": 1, "votes_runner_up": 0, "conflicted": false, "suggested_correction": "reassign roads currently owned by 'Zogbadjè' near this cluster to 'Cité-les-Palmiers\n'", "poi_names": ["Alimentation générale \" les palmiers"], "color": "#fb923c", "radius": 4, "gmaps_link": "https://www.google.com/maps/@6.425483,2.337133,18z"}}, {"type": "Feature", "geometry": {"type": "Point", "coordinates": [2.3409913, 6.4309462]}, "properties": {"cluster_id": 42, "n_pois": 1, "dominant_poi_quartier": "Espace-Saint", "current_majority_owner": "Tchinangbégbo\n", "confidence": "LOW", "votes_top": 1, "votes_runner_up": 0, "conflicted": false, "suggested_correction": "reassign roads currently owned by 'Tchinangbégbo\n' near this cluster to 'Espace-Saint'", "poi_names": ["Espace Alomasunsun"], "color": "#fb923c", "radius": 4, "gmaps_link": "https://www.google.com/maps/@6.430946,2.340991,18z"}}, {"type": "Feature", "geometry": {"type": "Point", "coordinates": [2.318485, 6.426195]}, "properties": {"cluster_id": 43, "n_pois": 1, "dominant_poi_quartier": "Cité-la-Victoire\n", "current_majority_owner": "Tankpè-Tanmè", "confidence": "LOW", "votes_top": 1, "votes_runner_up": 0, "conflicted": false, "suggested_correction": "reassign roads currently owned by 'Tankpè-Tanmè' near this cluster to 'Cité-la-Victoire\n'", "poi_names": ["Mission des intercesseurs évangélique pour la victoire"], "color": "#fb923c", "radius": 4, "gmaps_link": "https://www.google.com/maps/@6.426195,2.318485,18z"}}, {"type": "Feature", "geometry": {"type": "Point", "coordinates": [2.3429733, 6.451813]}, "properties": {"cluster_id": 44, "n_pois": 1, "dominant_poi_quartier": "Cité-la-Victoire\n", "current_majority_owner": "Aïtchédji\n", "confidence": "LOW", "votes_top": 1, "votes_runner_up": 0, "conflicted": false, "suggested_correction": "reassign roads currently owned by 'Aïtchédji\n' near this cluster to 'Cité-la-Victoire\n'", "poi_names": ["Complexe Scolaire Dieu de Victoire"], "color": "#fb923c", "radius": 4, "gmaps_link": "https://www.google.com/maps/@6.451813,2.342973,18z"}}, {"type": "Feature", "geometry": {"type": "Point", "coordinates": [2.3143588, 6.4622061]}, "properties": {"cluster_id": 45, "n_pois": 1, "dominant_poi_quartier": "Togba_Maria-Gléta", "current_majority_owner": "Ahossougbéta", "confidence": "LOW", "votes_top": 1, "votes_runner_up": 0, "conflicted": false, "suggested_correction": "reassign roads currently owned by 'Ahossougbéta' near this cluster to 'Togba_Maria-Gléta'", "poi_names": ["Commissariat d’arrondissement de Togba"], "color": "#fb923c", "radius": 4, "gmaps_link": "https://www.google.com/maps/@6.462206,2.314359,18z"}}, {"type": "Feature", "geometry": {"type": "Point", "coordinates": [2.3116726, 6.4325942]}, "properties": {"cluster_id": 46, "n_pois": 1, "dominant_poi_quartier": "Houèto", "current_majority_owner": "Tankpê-Yoho", "confidence": "LOW", "votes_top": 1, "votes_runner_up": 0, "conflicted": false, "suggested_correction": "reassign roads currently owned by 'Tankpê-Yoho' near this cluster to 'Houèto'", "poi_names": ["Eglise Protestante méthodistes SALEM Houèto"], "color": "#fb923c", "radius": 4, "gmaps_link": "https://www.google.com/maps/@6.432594,2.311673,18z"}}, {"type": "Feature", "geometry": {"type": "Point", "coordinates": [2.3342147, 6.4616756]}, "properties": {"cluster_id": 47, "n_pois": 1, "dominant_poi_quartier": "Cité-la-Victoire\n", "current_majority_owner": "Aïtchédji\n", "confidence": "LOW", "votes_top": 1, "votes_runner_up": 0, "conflicted": false, "suggested_correction": "reassign roads currently owned by 'Aïtchédji\n' near this cluster to 'Cité-la-Victoire\n'", "poi_names": ["Complexe scolaire Saint Joseph de la victoire"], "color": "#fb923c", "radius": 4, "gmaps_link": "https://www.google.com/maps/@6.461676,2.334215,18z"}}, {"type": "Feature", "geometry": {"type": "Point", "coordinates": [2.3497606, 6.3911574]}, "properties": {"cluster_id": 48, "n_pois": 1, "dominant_poi_quartier": "Hlacômey", "current_majority_owner": "Yolomahouto", "confidence": "LOW", "votes_top": 1, "votes_runner_up": 0, "conflicted": false, "suggested_correction": "reassign roads currently owned by 'Yolomahouto' near this cluster to 'Hlacômey'", "poi_names": ["Complexe Scolaire Godomey HLACOMEY"], "color": "#fb923c", "radius": 4, "gmaps_link": "https://www.google.com/maps/@6.391157,2.349761,18z"}}, {"type": "Feature", "geometry": {"type": "Point", "coordinates": [2.4258992, 6.387732]}, "properties": {"cluster_id": 49, "n_pois": 1, "dominant_poi_quartier": "Avlékété-Joncquet", "current_majority_owner": "Ahouansori-Towéta", "confidence": "LOW", "votes_top": 1, "votes_runner_up": 0, "conflicted": false, "suggested_correction": "reassign roads currently owned by 'Ahouansori-Towéta' near this cluster to 'Avlékété-Joncquet'", "poi_names": ["Avlekete Honto"], "color": "#fb923c", "radius": 4, "gmaps_link": "https://www.google.com/maps/@6.387732,2.425899,18z"}}, {"type": "Feature", "geometry": {"type": "Point", "coordinates": [2.3513584, 6.493293]}, "properties": {"cluster_id": 50, "n_pois": 1, "dominant_poi_quartier": "Kpodji-Les-Monts", "current_majority_owner": "Zopah-Akassato", "confidence": "LOW", "votes_top": 1, "votes_runner_up": 0, "conflicted": false, "suggested_correction": "reassign roads currently owned by 'Zopah-Akassato' near this cluster to 'Kpodji-Les-Monts'", "poi_names": ["Monts oliviers lifes shop"], "color": "#fb923c", "radius": 4, "gmaps_link": "https://www.google.com/maps/@6.493293,2.351358,18z"}}, {"type": "Feature", "geometry": {"type": "Point", "coordinates": [2.4358052, 6.3518259]}, "properties": {"cluster_id": 51, "n_pois": 1, "dominant_poi_quartier": "Xwlacôdji-Plage", "current_majority_owner": "Xwlacôdji-Kpodji", "confidence": "LOW", "votes_top": 1, "votes_runner_up": 0, "conflicted": false, "suggested_correction": "reassign roads currently owned by 'Xwlacôdji-Kpodji' near this cluster to 'Xwlacôdji-Plage'", "poi_names": ["Azalaï Hôtel de la Plage"], "color": "#fb923c", "radius": 4, "gmaps_link": "https://www.google.com/maps/@6.351826,2.435805,18z"}}, {"type": "Feature", "geometry": {"type": "Point", "coordinates": [2.3171898, 6.4896334]}, "properties": {"cluster_id": 52, "n_pois": 1, "dominant_poi_quartier": "Zoundja\n", "current_majority_owner": "Kansounkpa", "confidence": "LOW", "votes_top": 1, "votes_runner_up": 0, "conflicted": false, "suggested_correction": "reassign roads currently owned by 'Kansounkpa' near this cluster to 'Zoundja\n'", "poi_names": ["ZOUNDJA MON AMOUR"], "color": "#fb923c", "radius": 4, "gmaps_link": "https://www.google.com/maps/@6.489633,2.317190,18z"}}, {"type": "Feature", "geometry": {"type": "Point", "coordinates": [2.4340309, 6.3591586]}, "properties": {"cluster_id": 53, "n_pois": 1, "dominant_poi_quartier": "Avlékété-Joncquet", "current_majority_owner": "Guinkômey", "confidence": "LOW", "votes_top": 1, "votes_runner_up": 0, "conflicted": false, "suggested_correction": "reassign roads currently owned by 'Guinkômey' near this cluster to 'Avlékété-Joncquet'", "poi_names": ["PASE C 187 JONCQUET"], "color": "#fb923c", "radius": 4, "gmaps_link": "https://www.google.com/maps/@6.359159,2.434031,18z"}}, {"type": "Feature", "geometry": {"type": "Point", "coordinates": [2.4050601, 6.3715527]}, "properties": {"cluster_id": 54, "n_pois": 1, "dominant_poi_quartier": "Vodjè-Allobatin", "current_majority_owner": "Vodjè-Ayidoté", "confidence": "LOW", "votes_top": 1, "votes_runner_up": 0, "conflicted": false, "suggested_correction": "reassign roads currently owned by 'Vodjè-Ayidoté' near this cluster to 'Vodjè-Allobatin'", "poi_names": ["PASE ALLOBATIN"], "color": "#fb923c", "radius": 4, "gmaps_link": "https://www.google.com/maps/@6.371553,2.405060,18z"}}, {"type": "Feature", "geometry": {"type": "Point", "coordinates": [2.461674, 6.358253]}, "properties": {"cluster_id": 55, "n_pois": 1, "dominant_poi_quartier": "Alédjo\n", "current_majority_owner": "Fifadji-Houto (Jak)", "confidence": "LOW", "votes_top": 1, "votes_runner_up": 0, "conflicted": false, "suggested_correction": "reassign roads currently owned by 'Fifadji-Houto (Jak)' near this cluster to 'Alédjo\n'", "poi_names": ["PASE DRL2 C 188 PLM ALEDJO"], "color": "#fb923c", "radius": 4, "gmaps_link": "https://www.google.com/maps/@6.358253,2.461674,18z"}}, {"type": "Feature", "geometry": {"type": "Point", "coordinates": [2.4759888, 6.3757868]}, "properties": {"cluster_id": 56, "n_pois": 1, "dominant_poi_quartier": "Akpakpa-Dodomè", "current_majority_owner": "Avotrou-Houézèkomè", "confidence": "LOW", "votes_top": 1, "votes_runner_up": 0, "conflicted": false, "suggested_correction": "reassign roads currently owned by 'Avotrou-Houézèkomè' near this cluster to 'Akpakpa-Dodomè'", "poi_names": ["AKPATA AKPAKPA"], "color": "#fb923c", "radius": 4, "gmaps_link": "https://www.google.com/maps/@6.375787,2.475989,18z"}}, {"type": "Feature", "geometry": {"type": "Point", "coordinates": [2.4108333, 6.3777975]}, "properties": {"cluster_id": 57, "n_pois": 1, "dominant_poi_quartier": "Espace-Saint", "current_majority_owner": "Houéhoun", "confidence": "LOW", "votes_top": 1, "votes_runner_up": 0, "conflicted": false, "suggested_correction": "reassign roads currently owned by 'Houéhoun' near this cluster to 'Espace-Saint'", "poi_names": ["Espace Ifedu"], "color": "#fb923c", "radius": 4, "gmaps_link": "https://www.google.com/maps/@6.377797,2.410833,18z"}}, {"type": "Feature", "geometry": {"type": "Point", "coordinates": [2.3947654, 6.38223]}, "properties": {"cluster_id": 58, "n_pois": 1, "dominant_poi_quartier": "Védokô", "current_majority_owner": "Missogbé", "confidence": "LOW", "votes_top": 1, "votes_runner_up": 0, "conflicted": false, "suggested_correction": "reassign roads currently owned by 'Missogbé' near this cluster to 'Védokô'", "poi_names": ["Vedoko Esther"], "color": "#fb923c", "radius": 4, "gmaps_link": "https://www.google.com/maps/@6.382230,2.394765,18z"}}, {"type": "Feature", "geometry": {"type": "Point", "coordinates": [2.3306942, 6.4272993]}, "properties": {"cluster_id": 59, "n_pois": 1, "dominant_poi_quartier": "Zogbadjè", "current_majority_owner": "Tankpè-Tanmè", "confidence": "LOW", "votes_top": 1, "votes_runner_up": 0, "conflicted": false, "suggested_correction": "reassign roads currently owned by 'Tankpè-Tanmè' near this cluster to 'Zogbadjè'", "poi_names": ["ZOGBADJE ANIOU"], "color": "#fb923c", "radius": 4, "gmaps_link": "https://www.google.com/maps/@6.427299,2.330694,18z"}}, {"type": "Feature", "geometry": {"type": "Point", "coordinates": [2.3583851, 6.3577491]}, "properties": {"cluster_id": 60, "n_pois": 1, "dominant_poi_quartier": "Akôgbato", "current_majority_owner": "Fidjrossè-Kpota", "confidence": "LOW", "votes_top": 1, "votes_runner_up": 0, "conflicted": false, "suggested_correction": "reassign roads currently owned by 'Fidjrossè-Kpota' near this cluster to 'Akôgbato'", "poi_names": ["Pharmacie Akogbato"], "color": "#fb923c", "radius": 4, "gmaps_link": "https://www.google.com/maps/@6.357749,2.358385,18z"}}, {"type": "Feature", "geometry": {"type": "Point", "coordinates": [2.3061368, 6.347664]}, "properties": {"cluster_id": 61, "n_pois": 1, "dominant_poi_quartier": "Xwlacôdji-Plage", "current_majority_owner": "Togbin-Fandji", "confidence": "LOW", "votes_top": 1, "votes_runner_up": 0, "conflicted": false, "suggested_correction": "reassign roads currently owned by 'Togbin-Fandji' near this cluster to 'Xwlacôdji-Plage'", "poi_names": ["code bar plage"], "color": "#fb923c", "radius": 4, "gmaps_link": "https://www.google.com/maps/@6.347664,2.306137,18z"}}, {"type": "Feature", "geometry": {"type": "Point", "coordinates": [2.353114, 6.3768691]}, "properties": {"cluster_id": 62, "n_pois": 1, "dominant_poi_quartier": "Agla-Akplomey", "current_majority_owner": "Plateau\n", "confidence": "LOW", "votes_top": 1, "votes_runner_up": 0, "conflicted": false, "suggested_correction": "reassign roads currently owned by 'Plateau\n' near this cluster to 'Agla-Akplomey'", "poi_names": ["Eglise catholique saint Charles lwanga Agla Akplomey"], "color": "#fb923c", "radius": 4, "gmaps_link": "https://www.google.com/maps/@6.376869,2.353114,18z"}}, {"type": "Feature", "geometry": {"type": "Point", "coordinates": [2.3824429, 6.3886677]}, "properties": {"cluster_id": 63, "n_pois": 1, "dominant_poi_quartier": "Zogbo", "current_majority_owner": "Zogbohouè", "confidence": "LOW", "votes_top": 1, "votes_runner_up": 0, "conflicted": false, "suggested_correction": "reassign roads currently owned by 'Zogbohouè' near this cluster to 'Zogbo'", "poi_names": ["Eglise Baptiste du Benin Temple de Zogbo"], "color": "#fb923c", "radius": 4, "gmaps_link": "https://www.google.com/maps/@6.388668,2.382443,18z"}}, {"type": "Feature", "geometry": {"type": "Point", "coordinates": [2.3015722, 6.4350829]}, "properties": {"cluster_id": 64, "n_pois": 1, "dominant_poi_quartier": "Togba_Maria-Gléta", "current_majority_owner": "Houèto", "confidence": "LOW", "votes_top": 1, "votes_runner_up": 0, "conflicted": false, "suggested_correction": "reassign roads currently owned by 'Houèto' near this cluster to 'Togba_Maria-Gléta'", "poi_names": ["Commissariat de Togba"], "color": "#fb923c", "radius": 4, "gmaps_link": "https://www.google.com/maps/@6.435083,2.301572,18z"}}, {"type": "Feature", "geometry": {"type": "Point", "coordinates": [2.3268054, 6.4836965]}, "properties": {"cluster_id": 65, "n_pois": 1, "dominant_poi_quartier": "Sèdami", "current_majority_owner": "Cité-les-Palmiers\n", "confidence": "LOW", "votes_top": 1, "votes_runner_up": 0, "conflicted": false, "suggested_correction": "reassign roads currently owned by 'Cité-les-Palmiers\n' near this cluster to 'Sèdami'", "poi_names": ["Pharmacie SEDAMI"], "color": "#fb923c", "radius": 4, "gmaps_link": "https://www.google.com/maps/@6.483696,2.326805,18z"}}, {"type": "Feature", "geometry": {"type": "Point", "coordinates": [2.3106453, 6.4371096]}, "properties": {"cluster_id": 66, "n_pois": 1, "dominant_poi_quartier": "Houèto", "current_majority_owner": "Tankpê-Yoho", "confidence": "LOW", "votes_top": 1, "votes_runner_up": 0, "conflicted": false, "suggested_correction": "reassign roads currently owned by 'Tankpê-Yoho' near this cluster to 'Houèto'", "poi_names": ["EPMB Cité de Lumière de Houêto"], "color": "#fb923c", "radius": 4, "gmaps_link": "https://www.google.com/maps/@6.437110,2.310645,18z"}}, {"type": "Feature", "geometry": {"type": "Point", "coordinates": [2.3947911, 6.391435]}, "properties": {"cluster_id": 67, "n_pois": 1, "dominant_poi_quartier": "Zogbo", "current_majority_owner": "Yénawa-Fifadji", "confidence": "LOW", "votes_top": 1, "votes_runner_up": 0, "conflicted": false, "suggested_correction": "reassign roads currently owned by 'Yénawa-Fifadji' near this cluster to 'Zogbo'", "poi_names": ["Centre d'éducation générale de Zogbo"], "color": "#fb923c", "radius": 4, "gmaps_link": "https://www.google.com/maps/@6.391435,2.394791,18z"}}, {"type": "Feature", "geometry": {"type": "Point", "coordinates": [2.3000459, 6.3978088]}, "properties": {"cluster_id": 68, "n_pois": 1, "dominant_poi_quartier": "Cocotomey", "current_majority_owner": "Sodo\n", "confidence": "LOW", "votes_top": 1, "votes_runner_up": 0, "conflicted": false, "suggested_correction": "reassign roads currently owned by 'Sodo\n' near this cluster to 'Cocotomey'", "poi_names": ["CEG 1 de Cocotomey"], "color": "#fb923c", "radius": 4, "gmaps_link": "https://www.google.com/maps/@6.397809,2.300046,18z"}}, {"type": "Feature", "geometry": {"type": "Point", "coordinates": [2.3615164, 6.3917506]}, "properties": {"cluster_id": 69, "n_pois": 1, "dominant_poi_quartier": "Mènontin", "current_majority_owner": "Kindonou", "confidence": "LOW", "votes_top": 1, "votes_runner_up": 0, "conflicted": false, "suggested_correction": "reassign roads currently owned by 'Kindonou' near this cluster to 'Mènontin'", "poi_names": ["École Primaire Publique de Menontin"], "color": "#fb923c", "radius": 4, "gmaps_link": "https://www.google.com/maps/@6.391751,2.361516,18z"}}, {"type": "Feature", "geometry": {"type": "Point", "coordinates": [2.3129297, 6.4050018]}, "properties": {"cluster_id": 70, "n_pois": 1, "dominant_poi_quartier": "Plateau\n", "current_majority_owner": "Yénandjro\n", "confidence": "LOW", "votes_top": 1, "votes_runner_up": 0, "conflicted": false, "suggested_correction": "reassign roads currently owned by 'Yénandjro\n' near this cluster to 'Plateau\n'", "poi_names": ["CEG Le Plateau"], "color": "#fb923c", "radius": 4, "gmaps_link": "https://www.google.com/maps/@6.405002,2.312930,18z"}}, {"type": "Feature", "geometry": {"type": "Point", "coordinates": [2.4264092, 6.3695386]}, "properties": {"cluster_id": 71, "n_pois": 1, "dominant_poi_quartier": "Sèdjro-Saint-Michel", "current_majority_owner": "Sèdami", "confidence": "LOW", "votes_top": 1, "votes_runner_up": 0, "conflicted": false, "suggested_correction": "reassign roads currently owned by 'Sèdami' near this cluster to 'Sèdjro-Saint-Michel'", "poi_names": ["Marché St Michel"], "color": "#fb923c", "radius": 4, "gmaps_link": "https://www.google.com/maps/@6.369539,2.426409,18z"}}, {"type": "Feature", "geometry": {"type": "Point", "coordinates": [2.4777622, 6.3675598]}, "properties": {"cluster_id": 72, "n_pois": 1, "dominant_poi_quartier": "Minonkpô-Wologuèdè", "current_majority_owner": "Dandji", "confidence": "LOW", "votes_top": 1, "votes_runner_up": 0, "conflicted": false, "suggested_correction": "reassign roads currently owned by 'Dandji' near this cluster to 'Minonkpô-Wologuèdè'", "poi_names": ["Hôpital Minonkpo (ProFam)"], "color": "#fb923c", "radius": 4, "gmaps_link": "https://www.google.com/maps/@6.367560,2.477762,18z"}}, {"type": "Feature", "geometry": {"type": "Point", "coordinates": [2.3070823, 6.3914236]}, "properties": {"cluster_id": 73, "n_pois": 1, "dominant_poi_quartier": "Cocotomey", "current_majority_owner": "Tokpa\n", "confidence": "LOW", "votes_top": 1, "votes_runner_up": 0, "conflicted": false, "suggested_correction": "reassign roads currently owned by 'Tokpa\n' near this cluster to 'Cocotomey'", "poi_names": ["Mission des Ambassadeurs pour Christ de Cocotomey"], "color": "#fb923c", "radius": 4, "gmaps_link": "https://www.google.com/maps/@6.391424,2.307082,18z"}}, {"type": "Feature", "geometry": {"type": "Point", "coordinates": [2.3096717, 6.3894034]}, "properties": {"cluster_id": 74, "n_pois": 1, "dominant_poi_quartier": "Cocotomey", "current_majority_owner": "Tokpa\n", "confidence": "LOW", "votes_top": 1, "votes_runner_up": 0, "conflicted": false, "suggested_correction": "reassign roads currently owned by 'Tokpa\n' near this cluster to 'Cocotomey'", "poi_names": ["Mosquée Centrale de Cocotomey"], "color": "#fb923c", "radius": 4, "gmaps_link": "https://www.google.com/maps/@6.389403,2.309672,18z"}}, {"type": "Feature", "geometry": {"type": "Point", "coordinates": [2.4381975, 6.3615883]}, "properties": {"cluster_id": 75, "n_pois": 1, "dominant_poi_quartier": "Abokicodji-Lagune", "current_majority_owner": "Tokpa-Hoho", "confidence": "LOW", "votes_top": 1, "votes_runner_up": 0, "conflicted": false, "suggested_correction": "reassign roads currently owned by 'Tokpa-Hoho' near this cluster to 'Abokicodji-Lagune'", "poi_names": ["Hôpital de l'enfant et de la mère lagune"], "color": "#fb923c", "radius": 4, "gmaps_link": "https://www.google.com/maps/@6.361588,2.438197,18z"}}, {"type": "Feature", "geometry": {"type": "Point", "coordinates": [2.4473923, 6.3709387]}, "properties": {"cluster_id": 76, "n_pois": 1, "dominant_poi_quartier": "Misséssin", "current_majority_owner": "Gbèdjèwin", "confidence": "LOW", "votes_top": 1, "votes_runner_up": 0, "conflicted": false, "suggested_correction": "reassign roads currently owned by 'Gbèdjèwin' near this cluster to 'Misséssin'", "poi_names": ["Hopital Misséssin"], "color": "#fb923c", "radius": 4, "gmaps_link": "https://www.google.com/maps/@6.370939,2.447392,18z"}}, {"type": "Feature", "geometry": {"type": "Point", "coordinates": [2.3889913, 6.3821885]}, "properties": {"cluster_id": 77, "n_pois": 1, "dominant_poi_quartier": "Védokô", "current_majority_owner": "Sètôvi", "confidence": "LOW", "votes_top": 1, "votes_runner_up": 0, "conflicted": false, "suggested_correction": "reassign roads currently owned by 'Sètôvi' near this cluster to 'Védokô'", "poi_names": ["CEG Védoko"], "color": "#fb923c", "radius": 4, "gmaps_link": "https://www.google.com/maps/@6.382188,2.388991,18z"}}, {"type": "Feature", "geometry": {"type": "Point", "coordinates": [2.4298785, 6.363477]}, "properties": {"cluster_id": 78, "n_pois": 1, "dominant_poi_quartier": "Gbéto", "current_majority_owner": "Gbédokpo", "confidence": "LOW", "votes_top": 1, "votes_runner_up": 0, "conflicted": false, "suggested_correction": "reassign roads currently owned by 'Gbédokpo' near this cluster to 'Gbéto'", "poi_names": ["Complexe scolaire Gbéto sud - Groupe A, C, D"], "color": "#fb923c", "radius": 4, "gmaps_link": "https://www.google.com/maps/@6.363477,2.429879,18z"}}, {"type": "Feature", "geometry": {"type": "Point", "coordinates": [2.3833827, 6.3803878]}, "properties": {"cluster_id": 79, "n_pois": 1, "dominant_poi_quartier": "Sètôvi", "current_majority_owner": "Védokô", "confidence": "LOW", "votes_top": 1, "votes_runner_up": 0, "conflicted": false, "suggested_correction": "reassign roads currently owned by 'Védokô' near this cluster to 'Sètôvi'", "poi_names": ["Église Catholique de Sètovi"], "color": "#fb923c", "radius": 4, "gmaps_link": "https://www.google.com/maps/@6.380388,2.383383,18z"}}]}