{"type": "FeatureCollection", "buffer_m": 700, "cluster_eps_m": 80, "min_cluster_nodes": 4, "features": [{"type": "Feature", "geometry": {"type": "Point", "coordinates": [2.401616, 6.538928]}, "properties": {"cluster_id": 0, "n_nodes": 75, "road_length_m": 2063.5, "commune": "Abomey-Calavi", "arrondissement": "Abomey-Calavi / Akassato", "centroid_lat": 6.538928, "centroid_lng": 2.401616, "nearest_chef_name": "Agassa-Godomey", "nearest_chef_dist_m": 4123.4, "nearest_chef_commune": "Abomey-Calavi", "nearest_same_commune_chef_name": "Agassa-Godomey", "nearest_same_commune_chef_dist_m": 4123.4, "nearest_diff_commune_chef_name": null, "nearest_diff_commune_chef_dist_m": null, "water_separation": false, "bridge_present": false, "graph_component_size": 90099, "dist_to_commune_boundary_m": 700.1, "classification": "Missing chef-lieu coverage"}}, {"type": "Feature", "geometry": {"type": "Point", "coordinates": [2.408749, 6.617048]}, "properties": {"cluster_id": 1, "n_nodes": 50, "road_length_m": 2046.6, "commune": "Abomey-Calavi", "arrondissement": "Abomey-Calavi / Zinvié", "centroid_lat": 6.617048, "centroid_lng": 2.408749, "nearest_chef_name": "Gbodjè", "nearest_chef_dist_m": 3484.7, "nearest_chef_commune": "Abomey-Calavi", "nearest_same_commune_chef_name": "Gbodjè", "nearest_same_commune_chef_dist_m": 3484.7, "nearest_diff_commune_chef_name": null, "nearest_diff_commune_chef_dist_m": null, "water_separation": true, "bridge_present": false, "graph_component_size": 90, "dist_to_commune_boundary_m": 600.9, "classification": "Water-isolated pocket"}}, {"type": "Feature", "geometry": {"type": "Point", "coordinates": [2.392152, 6.474541]}, "properties": {"cluster_id": 2, "n_nodes": 39, "road_length_m": 1647.4, "commune": "Abomey-Calavi (buffer)", "arrondissement": "So-Ava / Ganvié II", "centroid_lat": 6.474541, "centroid_lng": 2.392152, "nearest_chef_name": "Houèkè-Gbo", "nearest_chef_dist_m": 3597.1, "nearest_chef_commune": "Abomey-Calavi", "nearest_same_commune_chef_name": "Houèkè-Gbo", "nearest_same_commune_chef_dist_m": 3597.1, "nearest_diff_commune_chef_name": "Vossa-Kpodji", "nearest_diff_commune_chef_dist_m": 8902.9, "water_separation": true, "bridge_present": false, "graph_component_size": 62, "dist_to_commune_boundary_m": 85.4, "classification": "Water-isolated pocket"}}, {"type": "Feature", "geometry": {"type": "Point", "coordinates": [2.402966, 6.56292]}, "properties": {"cluster_id": 3, "n_nodes": 35, "road_length_m": 904.8, "commune": "Abomey-Calavi (buffer)", "arrondissement": "So-Ava / Ahomè-Lokpo", "centroid_lat": 6.56292, "centroid_lng": 2.402966, "nearest_chef_name": "Gbodjè", "nearest_chef_dist_m": 3989.9, "nearest_chef_commune": "Abomey-Calavi", "nearest_same_commune_chef_name": "Gbodjè", "nearest_same_commune_chef_dist_m": 3989.9, "nearest_diff_commune_chef_name": null, "nearest_diff_commune_chef_dist_m": null, "water_separation": true, "bridge_present": false, "graph_component_size": 36, "dist_to_commune_boundary_m": 89.4, "classification": "Water-isolated pocket"}}, {"type": "Feature", "geometry": {"type": "Point", "coordinates": [2.356015, 6.389233]}, "properties": {"cluster_id": 4, "n_nodes": 33, "road_length_m": 1507.8, "commune": "Abomey-Calavi", "arrondissement": "Abomey-Calavi / Godomey", "centroid_lat": 6.389233, "centroid_lng": 2.356015, "nearest_chef_name": "Sèdjannako\n", "nearest_chef_dist_m": 459.7, "nearest_chef_commune": "Abomey-Calavi", "nearest_same_commune_chef_name": "Sèdjannako\n", "nearest_same_commune_chef_dist_m": 459.7, "nearest_diff_commune_chef_name": "Agla-Akplomey", "nearest_diff_commune_chef_dist_m": 552.3, "water_separation": true, "bridge_present": true, "graph_component_size": 90099, "dist_to_commune_boundary_m": 1116.6, "classification": "Missing bridge crossing"}}, {"type": "Feature", "geometry": {"type": "Point", "coordinates": [2.399531, 6.502242]}, "properties": {"cluster_id": 5, "n_nodes": 25, "road_length_m": 1097.0, "commune": "Abomey-Calavi", "arrondissement": "Abomey-Calavi / Akassato", "centroid_lat": 6.502242, "centroid_lng": 2.399531, "nearest_chef_name": "Akassato", "nearest_chef_dist_m": 3890.9, "nearest_chef_commune": "Abomey-Calavi", "nearest_same_commune_chef_name": "Akassato", "nearest_same_commune_chef_dist_m": 3890.9, "nearest_diff_commune_chef_name": null, "nearest_diff_commune_chef_dist_m": null, "water_separation": true, "bridge_present": false, "graph_component_size": 43, "dist_to_commune_boundary_m": 555.7, "classification": "Water-isolated pocket"}}, {"type": "Feature", "geometry": {"type": "Point", "coordinates": [2.429939, 6.685446]}, "properties": {"cluster_id": 6, "n_nodes": 23, "road_length_m": 558.5, "commune": "Abomey-Calavi (buffer)", "arrondissement": "Adjohoun / Togbota", "centroid_lat": 6.685446, "centroid_lng": 2.429939, "nearest_chef_name": "Bozoun", "nearest_chef_dist_m": 4117.4, "nearest_chef_commune": "Abomey-Calavi", "nearest_same_commune_chef_name": "Bozoun", "nearest_same_commune_chef_dist_m": 4117.4, "nearest_diff_commune_chef_name": null, "nearest_diff_commune_chef_dist_m": null, "water_separation": true, "bridge_present": false, "graph_component_size": 123, "dist_to_commune_boundary_m": 557.4, "classification": "Water-isolated pocket"}}, {"type": "Feature", "geometry": {"type": "Point", "coordinates": [2.406312, 6.603959]}, "properties": {"cluster_id": 7, "n_nodes": 22, "road_length_m": 482.4, "commune": "Abomey-Calavi", "arrondissement": "Abomey-Calavi / Zinvié", "centroid_lat": 6.603959, "centroid_lng": 2.406312, "nearest_chef_name": "Gbodjè", "nearest_chef_dist_m": 2417.7, "nearest_chef_commune": "Abomey-Calavi", "nearest_same_commune_chef_name": "Gbodjè", "nearest_same_commune_chef_dist_m": 2417.7, "nearest_diff_commune_chef_name": null, "nearest_diff_commune_chef_dist_m": null, "water_separation": true, "bridge_present": false, "graph_component_size": 90, "dist_to_commune_boundary_m": 181.0, "classification": "Water-isolated pocket"}}, {"type": "Feature", "geometry": {"type": "Point", "coordinates": [2.242771, 6.36231]}, "properties": {"cluster_id": 8, "n_nodes": 19, "road_length_m": 625.9, "commune": "Abomey-Calavi (buffer)", "arrondissement": "Ouidah / Pahou", "centroid_lat": 6.36231, "centroid_lng": 2.242771, "nearest_chef_name": "Cococodji", "nearest_chef_dist_m": 4322.9, "nearest_chef_commune": "Abomey-Calavi", "nearest_same_commune_chef_name": "Cococodji", "nearest_same_commune_chef_dist_m": 4322.9, "nearest_diff_commune_chef_name": "Yèmicodji", "nearest_diff_commune_chef_dist_m": 10007.6, "water_separation": true, "bridge_present": false, "graph_component_size": 20, "dist_to_commune_boundary_m": 27.9, "classification": "OSM graph fragmentation"}}, {"type": "Feature", "geometry": {"type": "Point", "coordinates": [2.400027, 6.666437]}, "properties": {"cluster_id": 9, "n_nodes": 16, "road_length_m": 596.3, "commune": "Abomey-Calavi", "arrondissement": "Abomey-Calavi / Kpanroun", "centroid_lat": 6.666437, "centroid_lng": 2.400027, "nearest_chef_name": "Bozoun", "nearest_chef_dist_m": 2116.8, "nearest_chef_commune": "Abomey-Calavi", "nearest_same_commune_chef_name": "Bozoun", "nearest_same_commune_chef_dist_m": 2116.8, "nearest_diff_commune_chef_name": null, "nearest_diff_commune_chef_dist_m": null, "water_separation": false, "bridge_present": false, "graph_component_size": 34, "dist_to_commune_boundary_m": 1966.0, "classification": "Missing chef-lieu coverage"}}, {"type": "Feature", "geometry": {"type": "Point", "coordinates": [2.399979, 6.66997]}, "properties": {"cluster_id": 10, "n_nodes": 13, "road_length_m": 605.7, "commune": "Abomey-Calavi", "arrondissement": "Abomey-Calavi / Kpanroun", "centroid_lat": 6.66997, "centroid_lng": 2.399979, "nearest_chef_name": "Bozoun", "nearest_chef_dist_m": 1758.3, "nearest_chef_commune": "Abomey-Calavi", "nearest_same_commune_chef_name": "Bozoun", "nearest_same_commune_chef_dist_m": 1758.3, "nearest_diff_commune_chef_name": null, "nearest_diff_commune_chef_dist_m": null, "water_separation": false, "bridge_present": false, "graph_component_size": 34, "dist_to_commune_boundary_m": 1577.5, "classification": "Missing chef-lieu coverage"}}, {"type": "Feature", "geometry": {"type": "Point", "coordinates": [2.239607, 6.510124]}, "properties": {"cluster_id": 11, "n_nodes": 13, "road_length_m": 496.3, "commune": "Abomey-Calavi (buffer)", "arrondissement": "Tori-Bossito / Avamè", "centroid_lat": 6.510124, "centroid_lng": 2.239607, "nearest_chef_name": "Dassèkomey", "nearest_chef_dist_m": 2782.4, "nearest_chef_commune": "Abomey-Calavi", "nearest_same_commune_chef_name": "Dassèkomey", "nearest_same_commune_chef_dist_m": 2782.4, "nearest_diff_commune_chef_name": null, "nearest_diff_commune_chef_dist_m": null, "water_separation": false, "bridge_present": false, "graph_component_size": 37, "dist_to_commune_boundary_m": 513.1, "classification": "Missing chef-lieu coverage"}}, {"type": "Feature", "geometry": {"type": "Point", "coordinates": [2.402783, 6.531313]}, "properties": {"cluster_id": 12, "n_nodes": 12, "road_length_m": 405.9, "commune": "Abomey-Calavi", "arrondissement": "Abomey-Calavi / Akassato", "centroid_lat": 6.531313, "centroid_lng": 2.402783, "nearest_chef_name": "Glo-Tokpa", "nearest_chef_dist_m": 4375.2, "nearest_chef_commune": "Abomey-Calavi", "nearest_same_commune_chef_name": "Glo-Tokpa", "nearest_same_commune_chef_dist_m": 4375.2, "nearest_diff_commune_chef_name": null, "nearest_diff_commune_chef_dist_m": null, "water_separation": false, "bridge_present": true, "graph_component_size": 90099, "dist_to_commune_boundary_m": 590.6, "classification": "Missing chef-lieu coverage"}}, {"type": "Feature", "geometry": {"type": "Point", "coordinates": [2.300493, 6.369402]}, "properties": {"cluster_id": 13, "n_nodes": 12, "road_length_m": 337.3, "commune": "Abomey-Calavi", "arrondissement": "Abomey-Calavi / Godomey", "centroid_lat": 6.369402, "centroid_lng": 2.300493, "nearest_chef_name": "Ganganzounmè\n", "nearest_chef_dist_m": 527.9, "nearest_chef_commune": "Abomey-Calavi", "nearest_same_commune_chef_name": "Ganganzounmè\n", "nearest_same_commune_chef_dist_m": 527.9, "nearest_diff_commune_chef_name": "Yèmicodji", "nearest_diff_commune_chef_dist_m": 3753.7, "water_separation": false, "bridge_present": false, "graph_component_size": 12, "dist_to_commune_boundary_m": 3015.3, "classification": "OSM graph fragmentation"}}, {"type": "Feature", "geometry": {"type": "Point", "coordinates": [2.405962, 6.494116]}, "properties": {"cluster_id": 14, "n_nodes": 12, "road_length_m": 340.1, "commune": "Abomey-Calavi (buffer)", "arrondissement": "So-Ava / So-Ava", "centroid_lat": 6.494116, "centroid_lng": 2.405962, "nearest_chef_name": "Houèkè-Gbo", "nearest_chef_dist_m": 4543.6, "nearest_chef_commune": "Abomey-Calavi", "nearest_same_commune_chef_name": "Houèkè-Gbo", "nearest_same_commune_chef_dist_m": 4543.6, "nearest_diff_commune_chef_name": "Vossa-Kpodji", "nearest_diff_commune_chef_dist_m": 10954.6, "water_separation": true, "bridge_present": true, "graph_component_size": 63, "dist_to_commune_boundary_m": 441.1, "classification": "Missing bridge crossing"}}, {"type": "Feature", "geometry": {"type": "Point", "coordinates": [2.388703, 6.603555]}, "properties": {"cluster_id": 15, "n_nodes": 11, "road_length_m": 359.2, "commune": "Abomey-Calavi", "arrondissement": "Abomey-Calavi / Zinvié", "centroid_lat": 6.603555, "centroid_lng": 2.388703, "nearest_chef_name": "Gbodjè", "nearest_chef_dist_m": 996.0, "nearest_chef_commune": "Abomey-Calavi", "nearest_same_commune_chef_name": "Gbodjè", "nearest_same_commune_chef_dist_m": 996.0, "nearest_diff_commune_chef_name": null, "nearest_diff_commune_chef_dist_m": null, "water_separation": false, "bridge_present": true, "graph_component_size": 90099, "dist_to_commune_boundary_m": 1963.6, "classification": "Unknown"}}, {"type": "Feature", "geometry": {"type": "Point", "coordinates": [2.40011, 6.496995]}, "properties": {"cluster_id": 16, "n_nodes": 11, "road_length_m": 331.7, "commune": "Abomey-Calavi", "arrondissement": "Abomey-Calavi / Akassato", "centroid_lat": 6.496995, "centroid_lng": 2.40011, "nearest_chef_name": "Houèkè-Gbo", "nearest_chef_dist_m": 3927.8, "nearest_chef_commune": "Abomey-Calavi", "nearest_same_commune_chef_name": "Houèkè-Gbo", "nearest_same_commune_chef_dist_m": 3927.8, "nearest_diff_commune_chef_name": null, "nearest_diff_commune_chef_dist_m": null, "water_separation": true, "bridge_present": true, "graph_component_size": 3, "dist_to_commune_boundary_m": 276.8, "classification": "OSM graph fragmentation"}}, {"type": "Feature", "geometry": {"type": "Point", "coordinates": [2.265252, 6.356169]}, "properties": {"cluster_id": 17, "n_nodes": 11, "road_length_m": 276.8, "commune": "Abomey-Calavi (buffer)", "arrondissement": "Ouidah / Pahou", "centroid_lat": 6.356169, "centroid_lng": 2.265252, "nearest_chef_name": "Djèkpota", "nearest_chef_dist_m": 2518.0, "nearest_chef_commune": "Abomey-Calavi", "nearest_same_commune_chef_name": "Djèkpota", "nearest_same_commune_chef_dist_m": 2518.0, "nearest_diff_commune_chef_name": "Yèmicodji", "nearest_diff_commune_chef_dist_m": 7538.7, "water_separation": true, "bridge_present": true, "graph_component_size": 90099, "dist_to_commune_boundary_m": 576.9, "classification": "Missing bridge crossing"}}, {"type": "Feature", "geometry": {"type": "Point", "coordinates": [2.403835, 6.507259]}, "properties": {"cluster_id": 18, "n_nodes": 11, "road_length_m": 574.2, "commune": "Abomey-Calavi", "arrondissement": "Abomey-Calavi / Akassato", "centroid_lat": 6.507259, "centroid_lng": 2.403835, "nearest_chef_name": "Akassato", "nearest_chef_dist_m": 4344.0, "nearest_chef_commune": "Abomey-Calavi", "nearest_same_commune_chef_name": "Akassato", "nearest_same_commune_chef_dist_m": 4344.0, "nearest_diff_commune_chef_name": null, "nearest_diff_commune_chef_dist_m": null, "water_separation": true, "bridge_present": false, "graph_component_size": 43, "dist_to_commune_boundary_m": 267.4, "classification": "Water-isolated pocket"}}, {"type": "Feature", "geometry": {"type": "Point", "coordinates": [2.39818, 6.487169]}, "properties": {"cluster_id": 19, "n_nodes": 10, "road_length_m": 368.1, "commune": "Abomey-Calavi", "arrondissement": "Abomey-Calavi / Akassato", "centroid_lat": 6.487169, "centroid_lng": 2.39818, "nearest_chef_name": "Houèkè-Gbo", "nearest_chef_dist_m": 3721.8, "nearest_chef_commune": "Abomey-Calavi", "nearest_same_commune_chef_name": "Houèkè-Gbo", "nearest_same_commune_chef_dist_m": 3721.8, "nearest_diff_commune_chef_name": "Vossa-Kpodji", "nearest_diff_commune_chef_dist_m": 10214.6, "water_separation": true, "bridge_present": false, "graph_component_size": 62, "dist_to_commune_boundary_m": 100.4, "classification": "Water-isolated pocket"}}, {"type": "Feature", "geometry": {"type": "Point", "coordinates": [2.445407, 6.397328]}, "properties": {"cluster_id": 20, "n_nodes": 10, "road_length_m": 197.6, "commune": "Cotonou", "arrondissement": "Cotonou / Cotonou 3", "centroid_lat": 6.397328, "centroid_lng": 2.445407, "nearest_chef_name": "Agbodjèdo", "nearest_chef_dist_m": 516.6, "nearest_chef_commune": "Cotonou", "nearest_same_commune_chef_name": "Agbodjèdo", "nearest_same_commune_chef_dist_m": 516.6, "nearest_diff_commune_chef_name": null, "nearest_diff_commune_chef_dist_m": null, "water_separation": false, "bridge_present": true, "graph_component_size": 6, "dist_to_commune_boundary_m": 167.6, "classification": "OSM graph fragmentation"}}, {"type": "Feature", "geometry": {"type": "Point", "coordinates": [2.331928, 6.632605]}, "properties": {"cluster_id": 21, "n_nodes": 10, "road_length_m": 285.4, "commune": "Abomey-Calavi (buffer)", "arrondissement": "Zè / Yokpo", "centroid_lat": 6.632605, "centroid_lng": 2.331928, "nearest_chef_name": "Houégoudo\n", "nearest_chef_dist_m": 1140.2, "nearest_chef_commune": "Abomey-Calavi", "nearest_same_commune_chef_name": "Houégoudo\n", "nearest_same_commune_chef_dist_m": 1140.2, "nearest_diff_commune_chef_name": null, "nearest_diff_commune_chef_dist_m": null, "water_separation": false, "bridge_present": false, "graph_component_size": 90099, "dist_to_commune_boundary_m": 584.0, "classification": "Unknown"}}, {"type": "Feature", "geometry": {"type": "Point", "coordinates": [2.407285, 6.546321]}, "properties": {"cluster_id": 22, "n_nodes": 10, "road_length_m": 327.3, "commune": "Abomey-Calavi", "arrondissement": "Abomey-Calavi / Akassato", "centroid_lat": 6.546321, "centroid_lng": 2.407285, "nearest_chef_name": "Agassa-Godomey", "nearest_chef_dist_m": 4695.5, "nearest_chef_commune": "Abomey-Calavi", "nearest_same_commune_chef_name": "Agassa-Godomey", "nearest_same_commune_chef_dist_m": 4695.5, "nearest_diff_commune_chef_name": null, "nearest_diff_commune_chef_dist_m": null, "water_separation": true, "bridge_present": false, "graph_component_size": 40, "dist_to_commune_boundary_m": 17.0, "classification": "Water-isolated pocket"}}, {"type": "Feature", "geometry": {"type": "Point", "coordinates": [2.235105, 6.50512]}, "properties": {"cluster_id": 23, "n_nodes": 9, "road_length_m": 396.6, "commune": "Abomey-Calavi (buffer)", "arrondissement": "Tori-Bossito / Avamè", "centroid_lat": 6.50512, "centroid_lng": 2.235105, "nearest_chef_name": "Dassèkomey", "nearest_chef_dist_m": 2575.3, "nearest_chef_commune": "Abomey-Calavi", "nearest_same_commune_chef_name": "Dassèkomey", "nearest_same_commune_chef_dist_m": 2575.3, "nearest_diff_commune_chef_name": null, "nearest_diff_commune_chef_dist_m": null, "water_separation": false, "bridge_present": false, "graph_component_size": 90099, "dist_to_commune_boundary_m": 455.3, "classification": "Missing chef-lieu coverage"}}, {"type": "Feature", "geometry": {"type": "Point", "coordinates": [2.404442, 6.67221]}, "properties": {"cluster_id": 24, "n_nodes": 8, "road_length_m": 355.3, "commune": "Abomey-Calavi", "arrondissement": "Abomey-Calavi / Kpanroun", "centroid_lat": 6.67221, "centroid_lng": 2.404442, "nearest_chef_name": "Bozoun", "nearest_chef_dist_m": 1847.2, "nearest_chef_commune": "Abomey-Calavi", "nearest_same_commune_chef_name": "Bozoun", "nearest_same_commune_chef_dist_m": 1847.2, "nearest_diff_commune_chef_name": null, "nearest_diff_commune_chef_dist_m": null, "water_separation": false, "bridge_present": false, "graph_component_size": 12, "dist_to_commune_boundary_m": 1269.1, "classification": "OSM graph fragmentation"}}, {"type": "Feature", "geometry": {"type": "Point", "coordinates": [2.325281, 6.498374]}, "properties": {"cluster_id": 25, "n_nodes": 8, "road_length_m": 181.3, "commune": "Abomey-Calavi", "arrondissement": "Abomey-Calavi / Calavi", "centroid_lat": 6.498374, "centroid_lng": 2.325281, "nearest_chef_name": "Zoundja\n", "nearest_chef_dist_m": 1232.8, "nearest_chef_commune": "Abomey-Calavi", "nearest_same_commune_chef_name": "Zoundja\n", "nearest_same_commune_chef_dist_m": 1232.8, "nearest_diff_commune_chef_name": null, "nearest_diff_commune_chef_dist_m": null, "water_separation": false, "bridge_present": false, "graph_component_size": 10, "dist_to_commune_boundary_m": 1250.5, "classification": "OSM graph fragmentation"}}, {"type": "Feature", "geometry": {"type": "Point", "coordinates": [2.407886, 6.542279]}, "properties": {"cluster_id": 26, "n_nodes": 8, "road_length_m": 260.3, "commune": "Abomey-Calavi (buffer)", "arrondissement": "So-Ava / Ahomè-Lokpo", "centroid_lat": 6.542279, "centroid_lng": 2.407886, "nearest_chef_name": "Agassa-Godomey", "nearest_chef_dist_m": 4769.8, "nearest_chef_commune": "Abomey-Calavi", "nearest_same_commune_chef_name": "Agassa-Godomey", "nearest_same_commune_chef_dist_m": 4769.8, "nearest_diff_commune_chef_name": null, "nearest_diff_commune_chef_dist_m": null, "water_separation": true, "bridge_present": false, "graph_component_size": 40, "dist_to_commune_boundary_m": 19.3, "classification": "Water-isolated pocket"}}, {"type": "Feature", "geometry": {"type": "Point", "coordinates": [2.277772, 6.557825]}, "properties": {"cluster_id": 27, "n_nodes": 8, "road_length_m": 220.8, "commune": "Abomey-Calavi (buffer)", "arrondissement": "Zè / Tangbo-Djèvié", "centroid_lat": 6.557825, "centroid_lng": 2.277772, "nearest_chef_name": "Djissoukpa", "nearest_chef_dist_m": 1504.0, "nearest_chef_commune": "Abomey-Calavi", "nearest_same_commune_chef_name": "Djissoukpa", "nearest_same_commune_chef_dist_m": 1504.0, "nearest_diff_commune_chef_name": null, "nearest_diff_commune_chef_dist_m": null, "water_separation": false, "bridge_present": false, "graph_component_size": 8, "dist_to_commune_boundary_m": 58.0, "classification": "OSM graph fragmentation"}}, {"type": "Feature", "geometry": {"type": "Point", "coordinates": [2.384559, 6.649673]}, "properties": {"cluster_id": 28, "n_nodes": 7, "road_length_m": 130.5, "commune": "Abomey-Calavi", "arrondissement": "Abomey-Calavi / Kpanroun", "centroid_lat": 6.649673, "centroid_lng": 2.384559, "nearest_chef_name": "Avagbé", "nearest_chef_dist_m": 2273.6, "nearest_chef_commune": "Abomey-Calavi", "nearest_same_commune_chef_name": "Avagbé", "nearest_same_commune_chef_dist_m": 2273.6, "nearest_diff_commune_chef_name": null, "nearest_diff_commune_chef_dist_m": null, "water_separation": false, "bridge_present": false, "graph_component_size": 7, "dist_to_commune_boundary_m": 3828.7, "classification": "OSM graph fragmentation"}}, {"type": "Feature", "geometry": {"type": "Point", "coordinates": [2.217079, 6.388933]}, "properties": {"cluster_id": 29, "n_nodes": 7, "road_length_m": 168.8, "commune": "Abomey-Calavi (buffer)", "arrondissement": "Ouidah / Pahou", "centroid_lat": 6.388933, "centroid_lng": 2.217079, "nearest_chef_name": "Houinmè-Daho", "nearest_chef_dist_m": 2916.2, "nearest_chef_commune": "Abomey-Calavi", "nearest_same_commune_chef_name": "Houinmè-Daho", "nearest_same_commune_chef_dist_m": 2916.2, "nearest_diff_commune_chef_name": null, "nearest_diff_commune_chef_dist_m": null, "water_separation": true, "bridge_present": false, "graph_component_size": 90099, "dist_to_commune_boundary_m": 666.4, "classification": "Water-isolated pocket"}}, {"type": "Feature", "geometry": {"type": "Point", "coordinates": [2.402834, 6.494195]}, "properties": {"cluster_id": 30, "n_nodes": 7, "road_length_m": 163.6, "commune": "Abomey-Calavi (buffer)", "arrondissement": "So-Ava / So-Ava", "centroid_lat": 6.494195, "centroid_lng": 2.402834, "nearest_chef_name": "Houèkè-Gbo", "nearest_chef_dist_m": 4198.8, "nearest_chef_commune": "Abomey-Calavi", "nearest_same_commune_chef_name": "Houèkè-Gbo", "nearest_same_commune_chef_dist_m": 4198.8, "nearest_diff_commune_chef_name": "Vossa-Kpodji", "nearest_diff_commune_chef_dist_m": 10966.9, "water_separation": true, "bridge_present": false, "graph_component_size": 63, "dist_to_commune_boundary_m": 106.6, "classification": "Water-isolated pocket"}}, {"type": "Feature", "geometry": {"type": "Point", "coordinates": [2.401238, 6.610975]}, "properties": {"cluster_id": 31, "n_nodes": 6, "road_length_m": 234.0, "commune": "Abomey-Calavi", "arrondissement": "Abomey-Calavi / Zinvié", "centroid_lat": 6.610975, "centroid_lng": 2.401238, "nearest_chef_name": "Gbodjè", "nearest_chef_dist_m": 2423.5, "nearest_chef_commune": "Abomey-Calavi", "nearest_same_commune_chef_name": "Gbodjè", "nearest_same_commune_chef_dist_m": 2423.5, "nearest_diff_commune_chef_name": null, "nearest_diff_commune_chef_dist_m": null, "water_separation": false, "bridge_present": false, "graph_component_size": 90099, "dist_to_commune_boundary_m": 1057.7, "classification": "Missing chef-lieu coverage"}}, {"type": "Feature", "geometry": {"type": "Point", "coordinates": [2.395084, 6.48106]}, "properties": {"cluster_id": 32, "n_nodes": 6, "road_length_m": 246.7, "commune": "Abomey-Calavi", "arrondissement": "Abomey-Calavi / Akassato", "centroid_lat": 6.48106, "centroid_lng": 2.395084, "nearest_chef_name": "Houèkè-Gbo", "nearest_chef_dist_m": 3560.3, "nearest_chef_commune": "Abomey-Calavi", "nearest_same_commune_chef_name": "Houèkè-Gbo", "nearest_same_commune_chef_dist_m": 3560.3, "nearest_diff_commune_chef_name": "Vossa-Kpodji", "nearest_diff_commune_chef_dist_m": 9573.4, "water_separation": true, "bridge_present": false, "graph_component_size": 62, "dist_to_commune_boundary_m": 50.3, "classification": "Water-isolated pocket"}}, {"type": "Feature", "geometry": {"type": "Point", "coordinates": [2.266689, 6.355417]}, "properties": {"cluster_id": 33, "n_nodes": 6, "road_length_m": 147.9, "commune": "Abomey-Calavi (buffer)", "arrondissement": "Ouidah / Pahou", "centroid_lat": 6.355417, "centroid_lng": 2.266689, "nearest_chef_name": "Djèkpota", "nearest_chef_dist_m": 2446.3, "nearest_chef_commune": "Abomey-Calavi", "nearest_same_commune_chef_name": "Djèkpota", "nearest_same_commune_chef_dist_m": 2446.3, "nearest_diff_commune_chef_name": "Yèmicodji", "nearest_diff_commune_chef_dist_m": 7386.4, "water_separation": true, "bridge_present": false, "graph_component_size": 90099, "dist_to_commune_boundary_m": 652.1, "classification": "Water-isolated pocket"}}, {"type": "Feature", "geometry": {"type": "Point", "coordinates": [2.327168, 6.629884]}, "properties": {"cluster_id": 34, "n_nodes": 6, "road_length_m": 115.4, "commune": "Abomey-Calavi (buffer)", "arrondissement": "Zè / Yokpo", "centroid_lat": 6.629884, "centroid_lng": 2.327168, "nearest_chef_name": "Wawata", "nearest_chef_dist_m": 687.0, "nearest_chef_commune": "Abomey-Calavi", "nearest_same_commune_chef_name": "Wawata", "nearest_same_commune_chef_dist_m": 687.0, "nearest_diff_commune_chef_name": null, "nearest_diff_commune_chef_dist_m": null, "water_separation": true, "bridge_present": false, "graph_component_size": 90099, "dist_to_commune_boundary_m": 676.1, "classification": "Water-isolated pocket"}}, {"type": "Feature", "geometry": {"type": "Point", "coordinates": [2.392419, 6.607264]}, "properties": {"cluster_id": 35, "n_nodes": 5, "road_length_m": 199.7, "commune": "Abomey-Calavi", "arrondissement": "Abomey-Calavi / Zinvié", "centroid_lat": 6.607264, "centroid_lng": 2.392419, "nearest_chef_name": "Gbodjè", "nearest_chef_dist_m": 1526.5, "nearest_chef_commune": "Abomey-Calavi", "nearest_same_commune_chef_name": "Gbodjè", "nearest_same_commune_chef_dist_m": 1526.5, "nearest_diff_commune_chef_name": null, "nearest_diff_commune_chef_dist_m": null, "water_separation": false, "bridge_present": false, "graph_component_size": 90099, "dist_to_commune_boundary_m": 1710.2, "classification": "Missing chef-lieu coverage"}}, {"type": "Feature", "geometry": {"type": "Point", "coordinates": [2.392382, 6.601112]}, "properties": {"cluster_id": 36, "n_nodes": 5, "road_length_m": 199.0, "commune": "Abomey-Calavi", "arrondissement": "Abomey-Calavi / Zinvié", "centroid_lat": 6.601112, "centroid_lng": 2.392382, "nearest_chef_name": "Gbodjè", "nearest_chef_dist_m": 955.3, "nearest_chef_commune": "Abomey-Calavi", "nearest_same_commune_chef_name": "Gbodjè", "nearest_same_commune_chef_dist_m": 955.3, "nearest_diff_commune_chef_name": null, "nearest_diff_commune_chef_dist_m": null, "water_separation": false, "bridge_present": false, "graph_component_size": 90099, "dist_to_commune_boundary_m": 1488.6, "classification": "Unknown"}}, {"type": "Feature", "geometry": {"type": "Point", "coordinates": [2.383367, 6.637006]}, "properties": {"cluster_id": 37, "n_nodes": 5, "road_length_m": 91.8, "commune": "Abomey-Calavi", "arrondissement": "Abomey-Calavi / Zinvié", "centroid_lat": 6.637006, "centroid_lng": 2.383367, "nearest_chef_name": "Kpotomey", "nearest_chef_dist_m": 3055.7, "nearest_chef_commune": "Abomey-Calavi", "nearest_same_commune_chef_name": "Kpotomey", "nearest_same_commune_chef_dist_m": 3055.7, "nearest_diff_commune_chef_name": null, "nearest_diff_commune_chef_dist_m": null, "water_separation": false, "bridge_present": false, "graph_component_size": 5, "dist_to_commune_boundary_m": 3895.7, "classification": "OSM graph fragmentation"}}, {"type": "Feature", "geometry": {"type": "Point", "coordinates": [2.422072, 6.628236]}, "properties": {"cluster_id": 38, "n_nodes": 5, "road_length_m": 160.8, "commune": "Abomey-Calavi (buffer)", "arrondissement": "So-Ava / Ahomè-Lokpo", "centroid_lat": 6.628236, "centroid_lng": 2.422072, "nearest_chef_name": "Gbodjè", "nearest_chef_dist_m": 5406.4, "nearest_chef_commune": "Abomey-Calavi", "nearest_same_commune_chef_name": "Gbodjè", "nearest_same_commune_chef_dist_m": 5406.4, "nearest_diff_commune_chef_name": null, "nearest_diff_commune_chef_dist_m": null, "water_separation": true, "bridge_present": false, "graph_component_size": 90, "dist_to_commune_boundary_m": 158.3, "classification": "Water-isolated pocket"}}, {"type": "Feature", "geometry": {"type": "Point", "coordinates": [2.415533, 6.623019]}, "properties": {"cluster_id": 39, "n_nodes": 5, "road_length_m": 121.9, "commune": "Abomey-Calavi", "arrondissement": "Abomey-Calavi / Zinvié", "centroid_lat": 6.623019, "centroid_lng": 2.415533, "nearest_chef_name": "Gbodjè", "nearest_chef_dist_m": 4483.9, "nearest_chef_commune": "Abomey-Calavi", "nearest_same_commune_chef_name": "Gbodjè", "nearest_same_commune_chef_dist_m": 4483.9, "nearest_diff_commune_chef_name": null, "nearest_diff_commune_chef_dist_m": null, "water_separation": true, "bridge_present": false, "graph_component_size": 90, "dist_to_commune_boundary_m": 295.6, "classification": "Water-isolated pocket"}}, {"type": "Feature", "geometry": {"type": "Point", "coordinates": [2.40404, 6.612126]}, "properties": {"cluster_id": 40, "n_nodes": 5, "road_length_m": 182.8, "commune": "Abomey-Calavi", "arrondissement": "Abomey-Calavi / Zinvié", "centroid_lat": 6.612126, "centroid_lng": 2.40404, "nearest_chef_name": "Gbodjè", "nearest_chef_dist_m": 2730.5, "nearest_chef_commune": "Abomey-Calavi", "nearest_same_commune_chef_name": "Gbodjè", "nearest_same_commune_chef_dist_m": 2730.5, "nearest_diff_commune_chef_name": null, "nearest_diff_commune_chef_dist_m": null, "water_separation": false, "bridge_present": false, "graph_component_size": 90099, "dist_to_commune_boundary_m": 786.3, "classification": "Missing chef-lieu coverage"}}, {"type": "Feature", "geometry": {"type": "Point", "coordinates": [2.405075, 6.668235]}, "properties": {"cluster_id": 41, "n_nodes": 4, "road_length_m": 154.9, "commune": "Abomey-Calavi", "arrondissement": "Abomey-Calavi / Kpanroun", "centroid_lat": 6.668235, "centroid_lng": 2.405075, "nearest_chef_name": "Bozoun", "nearest_chef_dist_m": 2225.7, "nearest_chef_commune": "Abomey-Calavi", "nearest_same_commune_chef_name": "Bozoun", "nearest_same_commune_chef_dist_m": 2225.7, "nearest_diff_commune_chef_name": null, "nearest_diff_commune_chef_dist_m": null, "water_separation": false, "bridge_present": false, "graph_component_size": 12, "dist_to_commune_boundary_m": 1698.1, "classification": "OSM graph fragmentation"}}, {"type": "Feature", "geometry": {"type": "Point", "coordinates": [2.222505, 6.382572]}, "properties": {"cluster_id": 42, "n_nodes": 4, "road_length_m": 113.9, "commune": "Abomey-Calavi (buffer)", "arrondissement": "Ouidah / Pahou", "centroid_lat": 6.382572, "centroid_lng": 2.222505, "nearest_chef_name": "Houinmè-Daho", "nearest_chef_dist_m": 3172.2, "nearest_chef_commune": "Abomey-Calavi", "nearest_same_commune_chef_name": "Houinmè-Daho", "nearest_same_commune_chef_dist_m": 3172.2, "nearest_diff_commune_chef_name": null, "nearest_diff_commune_chef_dist_m": null, "water_separation": true, "bridge_present": false, "graph_component_size": 90099, "dist_to_commune_boundary_m": 491.3, "classification": "Water-isolated pocket"}}, {"type": "Feature", "geometry": {"type": "Point", "coordinates": [2.403293, 6.387459]}, "properties": {"cluster_id": 43, "n_nodes": 4, "road_length_m": 85.8, "commune": "Cotonou", "arrondissement": "Cotonou / Cotonou 9", "centroid_lat": 6.387459, "centroid_lng": 2.403293, "nearest_chef_name": "Missèkplé", "nearest_chef_dist_m": 209.4, "nearest_chef_commune": "Cotonou", "nearest_same_commune_chef_name": "Missèkplé", "nearest_same_commune_chef_dist_m": 209.4, "nearest_diff_commune_chef_name": null, "nearest_diff_commune_chef_dist_m": null, "water_separation": false, "bridge_present": true, "graph_component_size": 8, "dist_to_commune_boundary_m": 1834.1, "classification": "OSM graph fragmentation"}}, {"type": "Feature", "geometry": {"type": "Point", "coordinates": [2.397155, 6.483907]}, "properties": {"cluster_id": 44, "n_nodes": 4, "road_length_m": 147.3, "commune": "Abomey-Calavi", "arrondissement": "Abomey-Calavi / Akassato", "centroid_lat": 6.483907, "centroid_lng": 2.397155, "nearest_chef_name": "Houèkè-Gbo", "nearest_chef_dist_m": 3683.9, "nearest_chef_commune": "Abomey-Calavi", "nearest_same_commune_chef_name": "Houèkè-Gbo", "nearest_same_commune_chef_dist_m": 3683.9, "nearest_diff_commune_chef_name": "Vossa-Kpodji", "nearest_diff_commune_chef_dist_m": 9863.4, "water_separation": true, "bridge_present": false, "graph_component_size": 62, "dist_to_commune_boundary_m": 35.0, "classification": "Water-isolated pocket"}}, {"type": "Feature", "geometry": {"type": "Point", "coordinates": [2.41177, 6.541024]}, "properties": {"cluster_id": 45, "n_nodes": 4, "road_length_m": 128.8, "commune": "Abomey-Calavi (buffer)", "arrondissement": "So-Ava / Ahomè-Lokpo", "centroid_lat": 6.541024, "centroid_lng": 2.41177, "nearest_chef_name": "Agassa-Godomey", "nearest_chef_dist_m": 5208.2, "nearest_chef_commune": "Abomey-Calavi", "nearest_same_commune_chef_name": "Agassa-Godomey", "nearest_same_commune_chef_dist_m": 5208.2, "nearest_diff_commune_chef_name": null, "nearest_diff_commune_chef_dist_m": null, "water_separation": true, "bridge_present": false, "graph_component_size": 40, "dist_to_commune_boundary_m": 440.1, "classification": "Water-isolated pocket"}}]}